title,address,city,state,zip,url,featured_image,care_types,care_types_raw
A Bridge Home,"1201 Falls Avenue East, Twin Falls, ID 83301",Twin Falls,ID,83301,https://app.seniorplace.com/communities/show/b96d0a5e-e0dc-4d53-82ee-dea185fc923d,https://placement-crm-cdn.s3.us-west-2.amazonaws.com/_entities/communities/8c9fb99fee4c08ddb5f3a9a94ee7c818.jpg,Home Care,"Home Health, Hospice"
Ability Home Health,"250 Northwest Boulevard, Coeur d'Alene, ID 83814",Coeur d'Alene,ID,83814,https://app.seniorplace.com/communities/show/2b69de32-4385-4b4e-9859-27771f831c95,https://placement-crm-cdn.s3.us-west-2.amazonaws.com/_entities/communities/54151cd0ba6cb687b0cdfd40eae80f77.jpg,Home Care,Home Health
Achs Hospice & Palliative Care,"815 South Bridgeway Place, Eagle, ID 83616",Eagle,ID,83616,https://app.seniorplace.com/communities/show/07fb89b9-b9b1-40fd-aafe-a4cd5524aa97,https://placement-crm-cdn.s3.us-west-2.amazonaws.com/_entities/communities/3d7db7c9d317a4b783868182ca978d2b.jpg,Home Care,"Home Health, Hospice"
Advanced Home Care and Hospice of Coeur D'Alene,"1578 West Riverstone Drive, Coeur d'Alene, ID 83814",Coeur d'Alene,ID,83814,https://app.seniorplace.com/communities/show/9f275fd8-1cd4-4970-884c-9932cced10e0,https://placement-crm-cdn.s3.us-west-2.amazonaws.com/_entities/communities/f23d43d2bf7804fd7655d63a24a7a1ee.jpg,"Home Care, Nursing Home","Skilled Nursing, Home Health, Hospice"
Alliance Hospice of Idaho,"1655 1st Street, Idaho Falls, ID 83401",Idaho Falls,ID,83401,https://app.seniorplace.com/communities/show/87fe23f9-5097-4972-beba-1ab5832deac1,https://placement-crm-cdn.s3.us-west-2.amazonaws.com/_entities/communities/1b20e871025f0356844ffef8673f4ac7.jpg,Home Care,"Home Health, Hospice"
Alpine Acres Assisted Living,"183 East Oak Street, Shelley, ID 83274",Shelley,ID,83274,https://app.seniorplace.com/communities/show/be2976a3-d59d-45f4-8b50-33b25ebf484c,https://placement-crm-cdn.s3.us-west-2.amazonaws.com/_entities/communities/3288905e2682bbc6f5fab6ab72dae501.jpg,"Assisted Living Community, Memory Care","Assisted Living Facility, Memory Care"
Alpine Manor Ii,"100 Polk Street East, Kimberly, ID 83341",Kimberly,ID,83341,https://app.seniorplace.com/communities/show/44443b17-b0cf-4723-a284-53196ed7672b,https://placement-crm-cdn.s3.us-west-2.amazonaws.com/_entities/communities/02db6712ec53598f029676295a8db8ba.jpg,"Assisted Living Community, Assisted Living Home, Memory Care","Assisted Living Facility, Assisted Living Home, Memory Care"
Alpine Meadows Assisted Living,"1695 South Locust Grove Road, Meridian, ID 83642",Meridian,ID,83642,https://app.seniorplace.com/communities/show/1bfb2f6c-e2cf-486b-b9f9-93fcc51c428c,https://placement-crm-cdn.s3.us-west-2.amazonaws.com/_entities/communities/00a047c608a7e30bf6d87487a1e89ec3.jpg,"Assisted Living Community, Memory Care","Assisted Living Facility, Memory Care"
Applegate Assisted Living,"1541 East 4250 North, Buhl, ID 83316",Buhl,ID,83316,https://app.seniorplace.com/communities/show/21b9e38f-4e7d-4b5b-9754-795a08290c93,https://placement-crm-cdn.s3.us-west-2.amazonaws.com/_entities/communities/807d77509a46e518214ae5ec37e8c172.jpg,"Assisted Living Community, Memory Care","Assisted Living Facility, Memory Care"
Arbor Village at Hillcrest,"1093 South Hilton Street, Boise, ID 83705",Boise,ID,83705,https://app.seniorplace.com/communities/show/3d0e280d-cbb3-4794-8d90-f7f31e469f98,https://placement-crm-cdn.s3.us-west-2.amazonaws.com/_entities/communities/409a757c710b3d8ba7aa50363aab37ae.jpg,"Assisted Living Community, Independent Living","Independent Living, Assisted Living Facility"
Ashely Manor - Cory Lane,"9327 West Cory Lane, Boise, ID 83704",Boise,ID,83704,https://app.seniorplace.com/communities/show/008242a1-d19d-411a-9a7e-b1384088097d,https://app.seniorplace.com/api/files/public/561904a1-b6a2-4c22-8f73-b2bc3e979f8a,"Assisted Living Community, Memory Care","Assisted Living Facility, Memory Care"
Ashley Manor - Arlington,"3123 Arlington Avenue, Caldwell, ID 83605",Caldwell,ID,83605,https://app.seniorplace.com/communities/show/12a63930-65b7-4ab4-970e-f7df44103e69,https://app.seniorplace.com/api/files/public/49188c13-80c5-4706-8507-bbcd5b1d50f4,"Assisted Living Community, Memory Care","Assisted Living Facility, Memory Care"
Ashley Manor - Buttercup Trail,"1210 Buttercup Trail, Kimberly, ID 83341",Kimberly,ID,83341,https://app.seniorplace.com/communities/show/1888e6b2-a969-4a67-9ea9-806181f619ce,https://placement-crm-cdn.s3.us-west-2.amazonaws.com/_entities/communities/05536ab2c499cbc2c550a7af1876d499.jpg,"Assisted Living Community, Memory Care","Assisted Living Facility, Memory Care"
Ashley Manor - Cedar,"1525 East Cedar Street, Pocatello, ID 83201",Pocatello,ID,83201,https://app.seniorplace.com/communities/show/75ef532d-c88f-4a00-856a-5399a081dde0,https://placement-crm-cdn.s3.us-west-2.amazonaws.com/_entities/communities/6c5bbcaf871893f831b40ad33230d9c2.jpg,"Assisted Living Community, Memory Care","Assisted Living Facility, Memory Care"
Ashley Manor - Cloverdale Memory Care,"3749 North Cloverdale Road, Boise, ID 83713",Boise,ID,83713,https://app.seniorplace.com/communities/show/785d74ee-e3db-4535-83cb-a30c5af2f4e9,https://placement-crm-cdn.s3.us-west-2.amazonaws.com/_entities/communities/283264b36e9233cf297bd2162beeac7a.jpg,"Assisted Living Community, Home Care, Memory Care","Assisted Living Facility, Memory Care, Hospice"
Ashley Manor - Crescent,"421 Crescent Drive, Caldwell, ID 83605",Caldwell,ID,83605,https://app.seniorplace.com/communities/show/7e11e845-3faf-4726-9dd6-ffbb8fec41f7,https://placement-crm-cdn.s3.us-west-2.amazonaws.com/_entities/communities/df3f9a9b76ae8e2880f06fd326f2322f.jpg,"Assisted Living Community, Memory Care","Assisted Living Facility, Memory Care"
Ashley Manor - Harmony,"2703 South Harmony Avenue, Boise, ID 83706",Boise,ID,83706,https://app.seniorplace.com/communities/show/98db2851-299d-4ef4-91e2-0d4fa4221b4a,https://placement-crm-cdn.s3.us-west-2.amazonaws.com/_entities/communities/73f5e372e6cfecfb08a98e352bebba0f.jpg,"Assisted Living Community, Memory Care","Assisted Living Facility, Memory Care"
Ashley Manor - Hawthorne,"4826 Hawthorne Road, Chubbuck, ID 83202",Chubbuck,ID,83202,https://app.seniorplace.com/communities/show/5876d5f4-715e-482d-9295-120e9a23fd1d,https://placement-crm-cdn.s3.us-west-2.amazonaws.com/_entities/communities/778229fdcf09459bb4be69f2d7addd21.jpg,"Assisted Living Community, Memory Care","Assisted Living Facility, Memory Care"
Ashley Manor - Hill Road,"3424 West Hill Road, Boise, ID 83703",Boise,ID,83703,https://app.seniorplace.com/communities/show/8548a2ed-9c5a-432c-b4bb-fc0a93c34bba,https://placement-crm-cdn.s3.us-west-2.amazonaws.com/_entities/communities/89f2711d478c367045671dfccf11e2ce.jpg,"Assisted Living Community, Memory Care","Assisted Living Facility, Memory Care"
Ashley Manor - Hyde Park,"1908 North 13th Street, Boise, ID 83702",Boise,ID,83702,https://app.seniorplace.com/communities/show/abeb5d88-a954-4890-a221-ca4ed2f35fb4,https://placement-crm-cdn.s3.us-west-2.amazonaws.com/_entities/communities/b1da088edc507479b3246795a1b7cb84.jpg,"Assisted Living Community, Memory Care","Assisted Living Facility, Memory Care"
Ashley Manor - Iowa,"2604 Iowa Avenue, Caldwell, ID 83605",Caldwell,ID,83605,https://app.seniorplace.com/communities/show/8d68be08-7b9b-46ad-b611-bb9aff5680c7,https://app.seniorplace.com/api/files/public/5a2857a5-cf6a-4ec6-a7b4-c4faf6692aed,"Assisted Living Community, Assisted Living Home, Memory Care","Assisted Living Facility, Assisted Living Home, Memory Care"
Ashley Manor - Middleton,"620 9th Street, Middleton, ID 83644",Middleton,ID,83644,https://app.seniorplace.com/communities/show/9b68ba07-ec64-4bd9-beb7-f69189238d5c,https://app.seniorplace.com/api/files/public/60e8f169-e886-43a4-b18e-f392c43260c8,"Assisted Living Community, Memory Care","Assisted Living Facility, Memory Care"
Ashley Manor - Midland,"67 South Midland Boulevard, Nampa, ID 83651",Nampa,ID,83651,https://app.seniorplace.com/communities/show/58c335ab-f012-454a-b44e-ec64738012f4,https://app.seniorplace.com/api/files/public/db96e472-5801-4437-a1ce-5aa3e4bad2cc,"Assisted Living Community, Memory Care","Assisted Living Facility, Memory Care"
Ashley Manor - Mountain Home,"940 West 8th South, Mountain Home, ID 83647",Mountain Home,ID,83647,https://app.seniorplace.com/communities/show/cf4faed8-1d45-4268-a76f-1118ff5bfc48,https://placement-crm-cdn.s3.us-west-2.amazonaws.com/_entities/communities/c35163b815d01e2f705cc25238ca99b9.jpg,"Assisted Living Community, Memory Care","Assisted Living Facility, Memory Care"
Ashley Manor - Parkview Drive,"482 Parkview Loop East, Twin Falls, ID 83301",Twin Falls,ID,83301,https://app.seniorplace.com/communities/show/da51e0d9-2163-4143-bd45-759d0f1247d1,https://placement-crm-cdn.s3.us-west-2.amazonaws.com/_entities/communities/4b33b157c8b7728a502224ed4d89f482.jpg,"Assisted Living Community, Memory Care","Assisted Living Facility, Memory Care"
Ashley Manor - Storybook Way Memory Care,"126 North Story Book Way, Eagle, ID 83616",Eagle,ID,83616,https://app.seniorplace.com/communities/show/6c051db6-7e87-42b0-9928-679d4a41f4e2,https://placement-crm-cdn.s3.us-west-2.amazonaws.com/_entities/communities/ced7e658441dff00c0d01970ea244820.jpg,"Assisted Living Community, Memory Care","Assisted Living Facility, Memory Care"
Ashley Manor Care Centers Inc - Elgin Way,"3961 Elgin Way, Boise, ID 83713",Boise,ID,83713,https://app.seniorplace.com/communities/show/0017952b-efae-4337-bdb6-0c7016b9c85f,https://placement-crm-cdn.s3.us-west-2.amazonaws.com/_entities/communities/669f896c325191c90bcdc499ec96a668.jpg,"Assisted Living Community, Assisted Living Home, Memory Care","Assisted Living Facility, Assisted Living Home, Memory Care"
Ashley Manor Care Centers Inc - Highmont,"11099 West Highmont Drive, Boise, ID 83709",Boise,ID,83709,https://app.seniorplace.com/communities/show/513a5d08-c905-4714-84eb-105fea4d2425,https://app.seniorplace.com/api/files/public/03696196-9492-42be-9580-c4927bbcb721,"Assisted Living Community, Assisted Living Home, Memory Care","Assisted Living Facility, Assisted Living Home, Memory Care"
Ashley Manor Care Centers Inc - Orchard,"2150 South Orchard Street, Boise, ID 83705",Boise,ID,83705,https://app.seniorplace.com/communities/show/c44eac82-18a6-4251-8b23-b2486bdc96a5,https://placement-crm-cdn.s3.us-west-2.amazonaws.com/_entities/communities/e7ea43875c84454a2a49fc467de9d832.jpg,"Assisted Living Community, Assisted Living Home, Memory Care","Assisted Living Facility, Assisted Living Home, Memory Care"
Ashley Manor Senior Living,"9327 West Cory Lane, Boise, ID 83704",Boise,ID,83704,https://app.seniorplace.com/communities/show/99d554b3-73c1-4395-b84e-7d345b54bebb,https://app.seniorplace.com/api/files/public/0fb4d6bc-20f6-4f09-a97b-50484762b44e,,
Aspen Creek Assisted Living,"4119 Lenity Living Avenue, Caldwell, ID 83605",Caldwell,ID,83605,https://app.seniorplace.com/communities/show/03e5e808-4a57-474d-90cc-b63e51408da9,https://app.seniorplace.com/api/files/public/98fdcf38-aeba-4bff-80c4-086501ccbec7,"Assisted Living Community, Memory Care","Assisted Living Facility, Memory Care"
Aspen Home Health Services,"3470 Washington Parkway, Idaho Falls, ID 83404",Idaho Falls,ID,83404,https://app.seniorplace.com/communities/show/32c7a80d-2592-4d10-9985-66433209dbe8,https://placement-crm-cdn.s3.us-west-2.amazonaws.com/_entities/communities/4c0faf59cdbd99cb98b09861b10b8f41.jpg,Home Care,Home Health
Aspen Valley Senior Living Community,"4455 East Warm Springs Avenue, Boise, ID 83716",Boise,ID,83716,https://app.seniorplace.com/communities/show/b7b66262-af50-48fc-9913-f6e61554335f,,"Assisted Living Community, Memory Care","Assisted Living Facility, Memory Care"
Assisted Living on Shamrock - Mental Health Only Not Elderly Care,"2716 Shamrock Avenue, Nampa, ID 83686",Nampa,ID,83686,https://app.seniorplace.com/communities/show/8e5801d3-fdb1-45eb-9dc7-911685c66d10,https://placement-crm-cdn.s3.us-west-2.amazonaws.com/_entities/communities/b92cd32dec03096fdebd55d8ac19177a.jpg,Assisted Living Community,Assisted Living Facility
Auburn Crest Home Health,"397 Blue Lakes Boulevard North, Twin Falls, ID 83301",Twin Falls,ID,83301,https://app.seniorplace.com/communities/show/dd7d563e-0767-420c-8bce-000e03af63dc,https://placement-crm-cdn.s3.us-west-2.amazonaws.com/_entities/communities/cc27c8b9d33c9379e8c3c558c13342ae.jpg,Home Care,Home Health
Autumn Breeze Assisted Living,"1083 Burley Avenue, Buhl, ID 83316",Buhl,ID,83316,https://app.seniorplace.com/communities/show/58beafd0-a5c3-472c-be4c-facc04cd641e,https://placement-crm-cdn.s3.us-west-2.amazonaws.com/_entities/communities/c4faccf20b3a78fb2713019098b34908.jpg,"Assisted Living Community, Memory Care","Assisted Living Facility, Memory Care"
Autumn Haven Assisted Living,"924 Christian Way, Rupert, ID 83350",Rupert,ID,83350,https://app.seniorplace.com/communities/show/d08551ef-7442-4360-86cb-78c8ec6dea85,https://placement-crm-cdn.s3.us-west-2.amazonaws.com/_entities/communities/04723c21e437b173e5570c3ff433e645.jpg,"Assisted Living Community, Memory Care","Assisted Living Facility, Memory Care"
Avista Senior Living Garden City,"5815 Coffey Street, Boise, ID 83714",Boise,ID,83714,https://app.seniorplace.com/communities/show/0fec588e-10c0-423e-aab2-c9ef08d2c85d,,"Assisted Living Community, Memory Care","Assisted Living Facility, Memory Care"
Avista Senior Living Nampa,"715 West Comstock Avenue, Nampa, ID 83651",Nampa,ID,83651,https://app.seniorplace.com/communities/show/a14fb7f0-c26c-4217-a6e9-78badfd6eaec,,"Assisted Living Community, Memory Care","Assisted Living Facility, Memory Care"
Avista Senior Living Twin Falls,"1800 Harrison Street North, Twin Falls, ID 83301",Twin Falls,ID,83301,https://app.seniorplace.com/communities/show/31bc6895-b437-41a0-a9d6-538424aeb17e,https://placement-crm-cdn.s3.us-west-2.amazonaws.com/_entities/communities/b06a49ec7adbc0677e37d52fed1c935f.jpg,"Assisted Living Community, Memory Care","Assisted Living Facility, Memory Care"
Barber Station Assisted Living and Memory Care - Long Wait List - No Referral Fee,"3266 East Barber Valley Drive, Barber Valley, ID 83716",Barber Valley,ID,83716,https://app.seniorplace.com/communities/show/a8cfd9d9-a493-4f0f-8f32-496d060614af,https://app.seniorplace.com/api/files/public/8c6f7485-1c95-40d8-b860-7ad3f77d31de,"Assisted Living Community, Memory Care","Assisted Living Facility, Memory Care"
Basil Celany Living Center,"2712 West Irene Street, Boise, ID 83702",Boise,ID,83702,https://app.seniorplace.com/communities/show/893fa326-0b87-445e-85d7-eb0b6b35fc54,https://placement-crm-cdn.s3.us-west-2.amazonaws.com/_entities/communities/3243722a807a7f663f0eb062ca1d00da.jpg,"Assisted Living Community, Assisted Living Home","Assisted Living Facility, Assisted Living Home"
Bear Lake Manor,"855 Boise Street, Montpelier, ID 83254",Montpelier,ID,83254,https://app.seniorplace.com/communities/show/966f6cb0-564f-4c31-af19-415b7513dc8e,https://placement-crm-cdn.s3.us-west-2.amazonaws.com/_entities/communities/fca9507dec5f238867a64d8a2474fc64.jpg,"Assisted Living Community, Memory Care","Assisted Living Facility, Memory Care"
Bear Lake Memorial Hospital Home Health,"465 Washington Street, Montpelier, ID 83254",Montpelier,ID,83254,https://app.seniorplace.com/communities/show/48fbb536-3762-458d-9c1e-71f02403018c,,Home Care,Home Health
Beewell Assisted Living Winterberry,"3989 East Winterberry Drive, Nampa, ID 83687",Nampa,ID,83687,https://app.seniorplace.com/communities/show/a6caf6ff-32c5-405b-9849-c23674d1386a,https://placement-crm-cdn.s3.us-west-2.amazonaws.com/_entities/communities/5b7a8177b8d70a30d98308ca8da22293.jpg,"Assisted Living Community, Memory Care","Assisted Living Facility, Memory Care"
Best Homecare and Staffing,"16174 North High Desert Street, Nampa, ID 83687",Nampa,ID,83687,https://app.seniorplace.com/communities/show/889a5283-0104-486c-a44c-cc292a5108dd,https://placement-crm-cdn.s3.us-west-2.amazonaws.com/_entities/communities/e89a9beebaf6a82d43e1b4c8c3810ff0.jpg,Home Care,Home Health
Bluebird Hospice,"3080 Gentry Way, Meridian, ID 83642",Meridian,ID,83642,https://app.seniorplace.com/communities/show/c9a87291-5131-4b76-9151-eda0adb083aa,https://placement-crm-cdn.s3.us-west-2.amazonaws.com/_entities/communities/16a7256431836e89633c2f5d7b85f02e.jpg,Home Care,"Home Health, Hospice"
Bluebonnet Haus,"641 Rimview Drive, Twin Falls, ID 83301",Twin Falls,ID,83301,https://app.seniorplace.com/communities/show/b6523a64-4443-4648-8e28-7d5580eb6f43,https://placement-crm-cdn.s3.us-west-2.amazonaws.com/_entities/communities/3fdd5926097da8c2167744dc4c5587d4.jpg,"Assisted Living Community, Memory Care","Assisted Living Facility, Memory Care"
Bridge Assisted Living at Sandpoint,"1123 North Division Avenue, Sandpoint, ID 83864",Sandpoint,ID,83864,https://app.seniorplace.com/communities/show/a72a05f7-da73-4090-888f-06fb5b4a81eb,https://placement-crm-cdn.s3.us-west-2.amazonaws.com/_entities/communities/779579ca44deb9ccf00bbd6dfd42b339.jpg,"Assisted Living Community, Memory Care","Assisted Living Facility, Memory Care"
"Bridge at Post Falls, the","515 North Garden Plaza Court, Post Falls, ID 83854",Post Falls,ID,83854,https://app.seniorplace.com/communities/show/bd912f4a-6b08-4175-9f20-56b70b4336b2,,"Assisted Living Community, Memory Care","Assisted Living Facility, Memory Care"
"Bridge at Valley View, the","1130 North Allumbaugh Street, Boise, ID 83704",Boise,ID,83704,https://app.seniorplace.com/communities/show/2da4b08e-2b13-4a5b-87d9-2daf20283ffb,,"Assisted Living Community, Memory Care","Assisted Living Facility, Memory Care"
Bridgeview Estates - Rcf,"1828 Bridgeview Boulevard, Twin Falls, ID 83301",Twin Falls,ID,83301,https://app.seniorplace.com/communities/show/0406f818-bef2-43bd-b2ea-469529de4956,https://placement-crm-cdn.s3.us-west-2.amazonaws.com/_entities/communities/a6fddb9021593a5d75e656fbc0124217.jpg,"Assisted Living Community, Memory Care, Nursing Home","Assisted Living Facility, Memory Care, Skilled Nursing"
Brightstar Care Homes Hobble Creek,"5578 North Eagle Road, Boise, ID 83713",Boise,ID,83713,https://app.seniorplace.com/communities/show/23ef7d65-8558-44c0-9898-1cb09e9f64d9,https://placement-crm-cdn.s3.us-west-2.amazonaws.com/_entities/communities/3240b7d8ea83ae4267bcc6368a0c3d99.jpg,"Assisted Living Community, Memory Care","Assisted Living Facility, Memory Care"
Brightstar Care Homes Overland,"2940 East Overland Road, Meridian, ID 83642",Meridian,ID,83642,https://app.seniorplace.com/communities/show/3a66800e-a7be-49f1-9f02-d4ab61818f5d,https://placement-crm-cdn.s3.us-west-2.amazonaws.com/_entities/communities/3b25eac0830f4e6d3b23dc15ff2b69e9.jpg,"Assisted Living Community, Memory Care","Assisted Living Facility, Memory Care"
Brightstar Care Homes Prickly Pear,"4073 West Prickly Pear Drive, Eagle, ID 83616",Eagle,ID,83616,https://app.seniorplace.com/communities/show/e1c1601e-24b1-45da-8edf-a72f5caf56c7,https://app.seniorplace.com/api/files/public/a18f6ac0-7abc-4226-91bd-a2915276286b,"Assisted Living Community, Assisted Living Home, Memory Care","Assisted Living Facility, Assisted Living Home, Memory Care"
Brightstar Care Homes Settlers,"3336 North Meridian Road, Meridian, ID 83646",Meridian,ID,83646,https://app.seniorplace.com/communities/show/80a381a7-8c80-4ff4-9cf9-6e0205d85dbd,https://app.seniorplace.com/api/files/public/00499a89-ce9c-4a55-aa8f-26278200b881,"Assisted Living Community, Memory Care","Assisted Living Facility, Memory Care"
Brightstar Care Homes Stephen,"2222 South Stephen Avenue, Boise, ID 83706",Boise,ID,83706,https://app.seniorplace.com/communities/show/9dc635d3-eb14-4ae0-83c0-f9e8ffcdfdcd,https://placement-crm-cdn.s3.us-west-2.amazonaws.com/_entities/communities/32b22cc823c9e0d23dcfc8f684a00135.jpg,"Assisted Living Community, Assisted Living Home, Memory Care","Assisted Living Facility, Assisted Living Home, Memory Care"
Brightstar Care Homes Summerset,"3940 South Summerset Way, Boise, ID 83709",Boise,ID,83709,https://app.seniorplace.com/communities/show/18bc4984-b088-451c-8370-a581d2326e61,https://placement-crm-cdn.s3.us-west-2.amazonaws.com/_entities/communities/c24e5b5b2b5b509e520b1877233ac48f.jpg,"Assisted Living Community, Assisted Living Home","Assisted Living Facility, Assisted Living Home"
Brightstar Care Homes Taft,"2903 West Taft Street, Boise, ID 83703",Boise,ID,83703,https://app.seniorplace.com/communities/show/10031a7e-872d-4050-aeab-4026fed8faf3,https://placement-crm-cdn.s3.us-west-2.amazonaws.com/_entities/communities/3dbb2d66c39fce79f7c8616757bd7cd6.jpg,"Assisted Living Community, Memory Care","Assisted Living Facility, Memory Care"
Brio Idaho Hospice,"950 Memorial Drive, Idaho Falls, ID 83402",Idaho Falls,ID,83402,https://app.seniorplace.com/communities/show/9fc581b7-cf61-4094-8414-b0dfe6f1087c,https://placement-crm-cdn.s3.us-west-2.amazonaws.com/_entities/communities/c0a3ff47ae377fd574a7b4fd156b0e3d.jpg,Home Care,Home Health
Broadway Hills,"215 Constellation Drive, Idaho Falls, ID 83402",Idaho Falls,ID,83402,https://app.seniorplace.com/communities/show/5cd1c95d-f825-43eb-95ac-d7fba59c7eb6,,"Assisted Living Community, Memory Care","Assisted Living Facility, Memory Care"
Brookdale Boise Parkcenter,"739 East Parkcenter Blvd, Boise, ID",Boise,ID,,https://app.seniorplace.com/communities/show/0841c367-4516-43e6-a493-a6543b5c9a8b,https://app.seniorplace.com/api/files/public/67200d1b-1b8a-4588-b0ac-3f5109627f71,"Assisted Living Community, Independent Living","Independent Living, Assisted Living Facility"
Brookdale Boise Parkcenter - Independent Living,"767 E. Parkcenter Blvd., Boise, ID 83706",Boise,ID,83706,https://app.seniorplace.com/communities/show/4edd282b-847c-4066-9a21-c147c1570ca9,https://app.seniorplace.com/api/files/public/13d634a6-4140-405a-8ab6-52b8071b81c0,Independent Living,Independent Living
Brookdale Chubbuck,"4080 Hawthorne Road, Chubbuck, ID 83202",Chubbuck,ID,83202,https://app.seniorplace.com/communities/show/24183d5f-25f4-45f6-92d0-708358a6e8bc,https://placement-crm-cdn.s3.us-west-2.amazonaws.com/_entities/communities/43d13f26aac895f1d81e7a5c513be973.jpg,"Assisted Living Community, Memory Care","Assisted Living Facility, Memory Care"
Brookdale Coeur D'Alene,"205 East Anton Avenue, Coeur d'Alene, ID 83815",Coeur d'Alene,ID,83815,https://app.seniorplace.com/communities/show/f68511df-e298-4026-a0ae-a09dc6e4e3d2,https://app.seniorplace.com/api/files/public/261a2455-a352-4198-8a82-3fbff3bcba37,"Assisted Living Community, Memory Care","Assisted Living Facility, Memory Care"
Brookdale Lewiston,"2975 Juniper Drive, Lewiston, ID 83501",Lewiston,ID,83501,https://app.seniorplace.com/communities/show/c7310a8b-f60e-4a43-8c83-bd74f7675995,https://placement-crm-cdn.s3.us-west-2.amazonaws.com/_entities/communities/e48fe1447f58faf33ded5599e9d5fa80.jpg,"Assisted Living Community, Memory Care","Assisted Living Facility, Memory Care"
Brookdale Pocatello,"1501 Baldy Avenue, Pocatello, ID 83201",Pocatello,ID,83201,https://app.seniorplace.com/communities/show/bf29c819-43b5-41f5-ae2c-c3d6849bfed7,https://placement-crm-cdn.s3.us-west-2.amazonaws.com/_entities/communities/f3c479ec1b9372487189a9138cbeb480.jpg,"Assisted Living Community, Memory Care","Assisted Living Facility, Memory Care"
Brookdale Twin Falls,"1367 Locust Street North, Twin Falls, ID 83301",Twin Falls,ID,83301,https://app.seniorplace.com/communities/show/c561c74f-2ce2-4d10-9732-1d71c65de293,,"Assisted Living Community, Memory Care","Assisted Living Facility, Memory Care"
Brooklyn House,"9976 West Pattie Drive, Boise, ID 83704",Boise,ID,83704,https://app.seniorplace.com/communities/show/3547360b-d3a8-4434-89d5-68a30e704f15,https://placement-crm-cdn.s3.us-west-2.amazonaws.com/_entities/communities/9dd4b1c5505c4babf5c8111f7efadfa2.jpg,"Assisted Living Community, Assisted Living Home, Memory Care","Assisted Living Facility, Assisted Living Home, Memory Care"
Brookside Landing Orofino,"431 Johnson Avenue, Orofino, ID 83544",Orofino,ID,83544,https://app.seniorplace.com/communities/show/2a31b8ff-6847-45ee-b344-ff7730a21af4,https://placement-crm-cdn.s3.us-west-2.amazonaws.com/_entities/communities/be2ff977100d7f835f132dc1cc5b1973.jpg,"Assisted Living Community, Memory Care","Assisted Living Facility, Memory Care"
Canyon Home Care & Hospice,"929 Northwest 16th Street, Fruitland, ID 83619",Fruitland,ID,83619,https://app.seniorplace.com/communities/show/9bc0ca0c-6375-41cb-bdd8-b7f12d0abf64,https://placement-crm-cdn.s3.us-west-2.amazonaws.com/_entities/communities/42d548f13c1a2ee851a25cd6082a05d5.jpg,Home Care,"Home Health, Hospice"
Canyons Senior Living,"1215 Cheney Drive West, Twin Falls, ID 83301",Twin Falls,ID,83301,https://app.seniorplace.com/communities/show/c8ce63e7-c54f-47df-84c9-6fdb5118df93,https://placement-crm-cdn.s3.us-west-2.amazonaws.com/_entities/communities/7ada4f4a570deffd0fa7278ab073acf1.jpg,"Assisted Living Community, Memory Care","Assisted Living Facility, Memory Care"
Caring Hearts,"3480 East Center Street, Pocatello, ID 83201",Pocatello,ID,83201,https://app.seniorplace.com/communities/show/34ba8c72-13ca-4028-98f1-771f88da2019,https://placement-crm-cdn.s3.us-west-2.amazonaws.com/_entities/communities/d0e85011eb9f26f57a28810b9278591a.jpg,"Assisted Living Community, Memory Care","Assisted Living Facility, Memory Care"
Cenoma House,"1930 Heyburn Avenue East, Twin Falls, ID 83301",Twin Falls,ID,83301,https://app.seniorplace.com/communities/show/9577f74a-861f-479c-a171-05033d58ef13,,"Assisted Living Community, Assisted Living Home, Memory Care","Assisted Living Facility, Assisted Living Home, Memory Care"
Centerwell Home Health,"1230 North Northwood Center Court, Coeur d'Alene, ID 83814",Coeur d'Alene,ID,83814,https://app.seniorplace.com/communities/show/e47b9a6b-5f73-434b-a7b5-9a41a88a18e8,https://placement-crm-cdn.s3.us-west-2.amazonaws.com/_entities/communities/00ae1fba5241d0dab566009e0df885c5.jpg,Home Care,Home Health
Chateau De Boise,"7250 W. Poplar St., Boise, ID 83704",Boise,ID,83704,https://app.seniorplace.com/communities/show/9f92b0fe-809f-4ef1-8c7e-7ec9db770339,https://app.seniorplace.com/api/files/public/8b2def2c-2d28-43ac-b22e-bb039bcfae0f,Independent Living,Independent Living
Clement Home Assisted Living,"3909 West Clement Road, Boise, ID 83704",Boise,ID,83704,https://app.seniorplace.com/communities/show/eebb0520-6544-461f-957f-6ff594b6e155,https://placement-crm-cdn.s3.us-west-2.amazonaws.com/_entities/communities/7269494931642916b84da2b2e519e3e5.jpg,"Assisted Living Community, Assisted Living Home","Assisted Living Facility, Assisted Living Home"
Colibri Assisted Living,"18035 Celestia Drive, Nampa, ID 83687",Nampa,ID,83687,https://app.seniorplace.com/communities/show/1c334da1-b99d-4c27-b2bf-cca64f46e494,,"Assisted Living Community, Assisted Living Home, Memory Care","Assisted Living Facility, Assisted Living Home, Memory Care"
Community Restorium,"6619 Kaniksu Street, Bonners Ferry, ID 83805",Bonners Ferry,ID,83805,https://app.seniorplace.com/communities/show/6db23eb1-74f9-4b62-8ab5-4ccda3121df2,https://placement-crm-cdn.s3.us-west-2.amazonaws.com/_entities/communities/f1f4b9eb80e10766b14cc962c1576c47.jpg,"Assisted Living Community, Memory Care","Assisted Living Facility, Memory Care"
Copper Springs Senior Living,"3570 East Amity Road, Meridian, ID 83642",Meridian,ID,83642,https://app.seniorplace.com/communities/show/b09c8fa5-ff0d-4963-a946-71c290746bb0,https://app.seniorplace.com/api/files/public/4ef13097-366f-4423-ac31-9eca2c9460e5,"Assisted Living Community, Memory Care","Assisted Living Facility, Memory Care"
Copper Summit Assisted Living,"2424 Birdie Thompson Drive, Pocatello, ID 83201",Pocatello,ID,83201,https://app.seniorplace.com/communities/show/fa20fbab-eecb-4892-951f-2ba41a39f683,https://placement-crm-cdn.s3.us-west-2.amazonaws.com/_entities/communities/5ae446dda88c101703feac4116ff4347.jpg,Assisted Living Community,Assisted Living Facility
Cornerstone Senior Living Memory Care - Do Not Refer They Won'T Work With Us,"350 South Allumbaugh Way, Boise, ID 83709",Boise,ID,83709,https://app.seniorplace.com/communities/show/344e83d4-e38f-4e01-a4c4-34fcbc0aa13e,https://app.seniorplace.com/api/files/public/043758bd-a91c-4e10-8a6a-b0fe8323a461,"Assisted Living Community, Memory Care","Assisted Living Facility, Memory Care"
"Cottages at Lochsa Falls, the","2158 West Everest Lane, Meridian, ID 83646",Meridian,ID,83646,https://app.seniorplace.com/communities/show/83a9984e-7853-456f-b74f-04a56b9c13cb,https://placement-crm-cdn.s3.us-west-2.amazonaws.com/_entities/communities/cf0580956ce43da4437a063debf321c8.jpg,"Assisted Living Community, Memory Care","Assisted Living Facility, Memory Care"
Cottages Senior Living I Llc Dba the Cottages of Emmett,"411 East 12th Street, Emmett, ID 83617",Emmett,ID,83617,https://app.seniorplace.com/communities/show/984ea737-733e-452b-a984-6cf2f32a05bc,https://app.seniorplace.com/api/files/public/615d888f-7368-4d93-a8d5-98c94f747310,"Assisted Living Community, Memory Care","Assisted Living Facility, Memory Care"
Cottages Senior Living I Llc Dba the Cottages of Meridian,"3173 West Belltower Drive, Meridian, ID 83646",Meridian,ID,83646,https://app.seniorplace.com/communities/show/232f2fce-ea3c-492d-aba5-d103972e4e75,https://placement-crm-cdn.s3.us-west-2.amazonaws.com/_entities/communities/623285ad6a7389265d308a5a794b5cd0.jpg,"Assisted Living Community, Memory Care","Assisted Living Facility, Memory Care"
Cottages Senior Living I Llc Dba the Cottages of Middleton,"760 West Main Street, Middleton, ID 83644",Middleton,ID,83644,https://app.seniorplace.com/communities/show/6dcbc523-ed54-4009-8226-6ac8fc4d70bc,https://placement-crm-cdn.s3.us-west-2.amazonaws.com/_entities/communities/e5e945730c2e2bb9f7ce3a4c79ea6402.jpg,"Assisted Living Community, Memory Care","Assisted Living Facility, Memory Care"
Cottages Senior Living I Llc Dba the Cottages of Mountain Home,"735 South 5th West Street, Mountain Home, ID 83647",Mountain Home,ID,83647,https://app.seniorplace.com/communities/show/d5dab654-8f92-45fd-b314-9f9810c677be,,"Assisted Living Community, Memory Care","Assisted Living Facility, Memory Care"
Cottages Senior Living I Llc Dba the Cottages of Payette,"1481 7th Avenue North, Payette, ID 83661",Payette,ID,83661,https://app.seniorplace.com/communities/show/decd732d-b93f-4a4d-a8e5-f042fec76cec,https://placement-crm-cdn.s3.us-west-2.amazonaws.com/_entities/communities/2ecb348ebd034e007d300d92b6852a89.jpg,"Assisted Living Community, Memory Care","Assisted Living Facility, Memory Care"
Cottages Senior Living I Llc Dba the Cottages of Weiser,"1225 East 6th Street, Weiser, ID 83672",Weiser,ID,83672,https://app.seniorplace.com/communities/show/0f8bef09-582c-4056-bebf-f737f3ff3979,https://placement-crm-cdn.s3.us-west-2.amazonaws.com/_entities/communities/062bd37c67b32ae0bf9cbbf96431447a.jpg,"Assisted Living Community, Memory Care","Assisted Living Facility, Memory Care"
Cottonwood Shelter Home,"210 Foster Street, Cottonwood, ID 83522",Cottonwood,ID,83522,https://app.seniorplace.com/communities/show/4f9639d8-0a38-437f-81ea-6e17e7a586c7,,Assisted Living Community,Assisted Living Facility
Country Comfort Residential Care,"824 North 23rd Street, Coeur d'Alene, ID 83814",Coeur d'Alene,ID,83814,https://app.seniorplace.com/communities/show/8e084de8-12fb-40cc-b756-70f54b48a805,,"Assisted Living Community, Assisted Living Home, Memory Care","Assisted Living Facility, Assisted Living Home, Memory Care"
Country Cottage Assisted Living,"3652 2500 East, Twin Falls, ID 83301",Twin Falls,ID,83301,https://app.seniorplace.com/communities/show/7e9631a5-c14d-4151-90d4-c9235a18da80,https://placement-crm-cdn.s3.us-west-2.amazonaws.com/_entities/communities/6e66ef724eb138cf9e559d425fb2e786.jpg,Assisted Living Community,Assisted Living Facility
Country Time Assisted Living,"277 South Main Street, Star, ID 83669",Star,ID,83669,https://app.seniorplace.com/communities/show/9b3fcd01-0080-41da-a75d-f7d825f978c2,https://app.seniorplace.com/api/files/public/e509a03a-55c4-4fbd-9daa-59918596a041,"Assisted Living Community, Memory Care","Assisted Living Facility, Memory Care"
"Cove of Cascadia, the","620 North 6th Street, Bellevue, ID 83313",Bellevue,ID,83313,https://app.seniorplace.com/communities/show/f9e26afc-80c8-4d26-b79e-8fe35652a41c,,"Assisted Living Community, Memory Care, Nursing Home","Assisted Living Facility, Memory Care, Skilled Nursing"
Creekside Care Assisted Living,"222 6th Avenue West, Jerome, ID 83338",Jerome,ID,83338,https://app.seniorplace.com/communities/show/c76325d7-33cc-43b2-8072-27964235a09d,https://placement-crm-cdn.s3.us-west-2.amazonaws.com/_entities/communities/ca349055b46cfe8a3fb8202d78ccbb49.jpg,"Assisted Living Community, Memory Care","Assisted Living Facility, Memory Care"
Creekside Inn Assisted Living Alzheimer'S Community,"240 East Kathleen Avenue, Coeur d'Alene, ID 83815",Coeur d'Alene,ID,83815,https://app.seniorplace.com/communities/show/d78ef8ac-ec39-4f43-a42d-9dcb3f4bfbd4,https://placement-crm-cdn.s3.us-west-2.amazonaws.com/_entities/communities/b0abe5743f7b820849fe2feb16654e5e.jpg,"Assisted Living Community, Memory Care","Assisted Living Facility, Memory Care"
Creekside Transitional Care and Rehabilitation,"1351 West Pine Avenue, Meridian, ID 83642",Meridian,ID,83642,https://app.seniorplace.com/communities/show/244cedf8-962a-45f9-86d9-bcaab70481d7,,"Assisted Living Community, Nursing Home","Continuing Care Retirement Community, Skilled Nursing"
Crest Home Health and Hospice,"2100 Northwest Boulevard, Coeur d'Alene, ID 83814",Coeur d'Alene,ID,83814,https://app.seniorplace.com/communities/show/58e3f160-e7a7-4bb8-a083-c56a0f7ebb21,,Home Care,"Home Health, Hospice"
Crestwood Serenity Assisted Living,"1476 West Crest Wood Drive, Meridian, ID 83642",Meridian,ID,83642,https://app.seniorplace.com/communities/show/ff87d620-9f68-463c-add8-29084b9177f5,https://placement-crm-cdn.s3.us-west-2.amazonaws.com/_entities/communities/6a065884a63f3315f11146900c969bda.jpg,"Assisted Living Community, Assisted Living Home, Memory Care","Assisted Living Facility, Assisted Living Home, Memory Care"
Curtis House,"1000 South Curtis Road, Boise, ID 83705",Boise,ID,83705,https://app.seniorplace.com/communities/show/d3d059cf-f62e-473a-9d50-3631e2b477a2,https://placement-crm-cdn.s3.us-west-2.amazonaws.com/_entities/communities/52ce9ef9520945de145e99ce702c2327.jpg,Assisted Living Community,Assisted Living Facility
Desano Place,"1015 East Avenue K, Jerome, ID 83338",Jerome,ID,83338,https://app.seniorplace.com/communities/show/999bc40c-41be-4277-ac25-795afb7b500e,https://placement-crm-cdn.s3.us-west-2.amazonaws.com/_entities/communities/316d03042abba40eeeb8f95f8c7487b3.jpg,"Assisted Living Community, Memory Care","Assisted Living Facility, Memory Care"
Desano Place Suites,"545 Nevada Street, Gooding, ID 83330",Gooding,ID,83330,https://app.seniorplace.com/communities/show/eee183d4-37b5-4dcc-87a9-2bb2b5a945ae,https://placement-crm-cdn.s3.us-west-2.amazonaws.com/_entities/communities/05b8fba85b28f7c4c7a9221c4b7e6251.jpg,Assisted Living Community,Assisted Living Facility
Diamond Peak of Chubbuck,"4875 Burley Drive, Chubbuck, ID 83202",Chubbuck,ID,83202,https://app.seniorplace.com/communities/show/ec3f77d0-22cb-4f26-8c09-d33bc78c8b4f,https://placement-crm-cdn.s3.us-west-2.amazonaws.com/_entities/communities/73d012e2256e9fc91e87072f61441db9.jpg,Assisted Living Community,Assisted Living Facility
Diamond Peak of Pocatello,"5685 Bannock Highway, Pocatello, ID 83204",Pocatello,ID,83204,https://app.seniorplace.com/communities/show/b593ca4a-e59c-4c15-baed-f333d043ac75,https://placement-crm-cdn.s3.us-west-2.amazonaws.com/_entities/communities/37ad0d8057dcdaa045811f30573b5ebf.jpg,Assisted Living Community,Assisted Living Facility
Discovery Rehabilitation and Living,"600 Shanafelt Street, Salmon, ID 83467",Salmon,ID,83467,https://app.seniorplace.com/communities/show/bfb35bad-5444-44ff-a9c3-46d53598dc04,,"Assisted Living Community, Memory Care, Nursing Home","Assisted Living Facility, Memory Care, Skilled Nursing"
Eden Home Health,"676 North Triangle Drive, Ponderay, ID 83852",Ponderay,ID,83852,https://app.seniorplace.com/communities/show/9116070e-eca1-40f4-96da-a3b05deeea82,https://placement-crm-cdn.s3.us-west-2.amazonaws.com/_entities/communities/76ffb1a7882c3d9c8553a6637374f060.jpg,Home Care,"Home Health, Hospice"
Eden Home Health -Idahofalls,"2540 Channing Way, Idaho Falls, ID 83404",Idaho Falls,ID,83404,https://app.seniorplace.com/communities/show/80c3dc78-7bd7-40f2-8fda-2949f988042f,https://placement-crm-cdn.s3.us-west-2.amazonaws.com/_entities/communities/3187b271caf6c07af5554aa512e5000a.jpg,Home Care,Home Health
Edgewood Castle Hills,"5955 Castle Drive, Boise, ID 83703",Boise,ID,83703,https://app.seniorplace.com/communities/show/50d1d4a7-de2e-4c9e-9b67-7dd47386d2e4,https://placement-crm-cdn.s3.us-west-2.amazonaws.com/_entities/communities/23c6669e0a9316065e5e929fe1f62d38.jpg,"Assisted Living Community, Memory Care","Assisted Living Facility, Memory Care"
Edgewood Fruitland Senior Living,"1255 Allen Avenue, Fruitland, ID 83619",Fruitland,ID,83619,https://app.seniorplace.com/communities/show/42a5124e-7ef9-49f6-9946-a6e0feca0728,https://placement-crm-cdn.s3.us-west-2.amazonaws.com/_entities/communities/877c8392e47066cfecad906e2e52c3af.jpg,"Assisted Living Community, Memory Care","Assisted Living Facility, Memory Care"
Edgewood Plantation Place,"3921 North Kessinger Lane, Boise, ID 83703",Boise,ID,83703,https://app.seniorplace.com/communities/show/cb016738-e407-4c7a-9b4e-6f36597bd0d0,https://app.seniorplace.com/api/files/public/fcb53b04-12ba-4019-97d9-7fc07e7e645e,"Assisted Living Community, Memory Care","Assisted Living Facility, Memory Care"
Edgewood Spring Creek American Falls,"605 Hillcrest Avenue, American Falls, ID 83211",American Falls,ID,83211,https://app.seniorplace.com/communities/show/014927b5-017f-4db6-9ca8-3edf6fd6d501,https://placement-crm-cdn.s3.us-west-2.amazonaws.com/_entities/communities/b328af34772a55644e9eb05094a7a0cd.jpg,"Assisted Living Community, Memory Care","Assisted Living Facility, Memory Care"
Edgewood Spring Creek Boise,"10681 West McMillan Road, Boise, ID 83713",Boise,ID,83713,https://app.seniorplace.com/communities/show/bb0a9c4b-5c37-4f34-8548-01c6b1ef3d47,https://placement-crm-cdn.s3.us-west-2.amazonaws.com/_entities/communities/14c095395f0f862d9af2863f943ad932.jpg,"Assisted Living Community, Memory Care","Assisted Living Facility, Memory Care"
Edgewood Spring Creek Eagle,"653 North Eagle Road, Eagle, ID, Eagle, ID 83616",Eagle,ID,83616,https://app.seniorplace.com/communities/show/9f129c27-2227-46a9-852e-3bdb2181be77,,,
Edgewood Spring Creek Eagle Island,"77 North Fisher Park Way, Eagle, ID 83616",Eagle,ID,83616,https://app.seniorplace.com/communities/show/8394f375-c509-4f2e-918a-2e6bfc15601d,https://app.seniorplace.com/api/files/public/38a3cf0c-9e40-453d-b448-3dcb0ecd770e,"Assisted Living Community, Independent Living, Memory Care","Independent Living, Assisted Living Facility, Memory Care"
Edgewood Spring Creek Fruitland,"1255 Allen Avenue, Fruitland, ID 83619",Fruitland,ID,83619,https://app.seniorplace.com/communities/show/a7f1306d-e686-4e14-8512-51e673e50e5a,https://app.seniorplace.com/api/files/public/945a87e7-bcb2-48e7-98cf-e398c38120da,,
Edgewood Spring Creek Meridian,"175 East Calderwood Drive, Meridian, ID 83642",Meridian,ID,83642,https://app.seniorplace.com/communities/show/6c7b3c62-ec36-46df-841a-f8494e0b364f,https://app.seniorplace.com/api/files/public/4e9cf7d8-aeef-424e-a918-b5468f865eae,"Assisted Living Community, Memory Care","Assisted Living Facility, Memory Care"
Edgewood Spring Creek Overland,"10139 West Overland Road, Boise, ID 83709",Boise,ID,83709,https://app.seniorplace.com/communities/show/13b25432-5277-4898-aa55-8c8dffafee70,https://placement-crm-cdn.s3.us-west-2.amazonaws.com/_entities/communities/3149f35c76d781240eb13d855f61accd.jpg,"Assisted Living Community, Memory Care","Assisted Living Facility, Memory Care"
Edgewood Spring Creek Ustick,"3165 North Meridian Road, Meridian, ID 83646",Meridian,ID,83646,https://app.seniorplace.com/communities/show/73ef2c74-955c-42dd-b77e-2e5e9dd13e29,https://app.seniorplace.com/api/files/public/8397ea5c-5f19-4b11-b32d-cbd00f6e6b7b,"Assisted Living Community, Memory Care","Assisted Living Facility, Memory Care"
Elegant Residential Living,"1256 Wright Avenue, Pocatello, ID 83202",Pocatello,ID,83202,https://app.seniorplace.com/communities/show/d5d6a84a-f802-4a9b-b7e3-00ee8205985d,https://placement-crm-cdn.s3.us-west-2.amazonaws.com/_entities/communities/f5c46c7512623de648b0af8c66e4de53.jpg,"Assisted Living Community, Memory Care","Assisted Living Facility, Memory Care"
Elite Home Health,"504 Main Street, Lewiston, ID 83501",Lewiston,ID,83501,https://app.seniorplace.com/communities/show/ea5efbc9-0732-4547-92ba-561ef467010d,https://placement-crm-cdn.s3.us-west-2.amazonaws.com/_entities/communities/33c7c9425bf224ee0534f9c5b45ef1cb.jpg,Home Care,"Home Health, Hospice"
Emerson House at River Pointe,"8250 West Marigold Street, Boise, ID 83714",Boise,ID,83714,https://app.seniorplace.com/communities/show/5aa0bb40-0030-47f7-95e6-2a1fcf1084c2,https://placement-crm-cdn.s3.us-west-2.amazonaws.com/_entities/communities/12603faea80a86ac390eb5a91dc25788.jpg,"Assisted Living Community, Memory Care","Assisted Living Facility, Memory Care"
Enhabit Home Health & Hospice,"1450 South Eagle Flight Way, Boise, ID 83709",Boise,ID,83709,https://app.seniorplace.com/communities/show/8ffe8031-df6d-45fc-9fc6-797c1e4ef8f4,https://placement-crm-cdn.s3.us-west-2.amazonaws.com/_entities/communities/a20fb9df312611e8aca21ffcda40fb1d.jpg,Home Care,Home Health
Enhabit Home Health of Eastern Idaho,"3686 Washington Parkway, Idaho Falls, ID 83404",Idaho Falls,ID,83404,https://app.seniorplace.com/communities/show/ce9b2a5f-4718-4141-a6b8-5a576f9471ae,https://placement-crm-cdn.s3.us-west-2.amazonaws.com/_entities/communities/0402292151737f103baf8f8ab67317d5.jpg,Home Care,Home Health
Enhabit Home Health of Idaho,"1411 Falls Avenue East, Twin Falls, ID 83301",Twin Falls,ID,83301,https://app.seniorplace.com/communities/show/09385c9a-3e7e-491e-aa5b-2a7b40020e62,https://placement-crm-cdn.s3.us-west-2.amazonaws.com/_entities/communities/2a94619f366af16b37256dbee8d2d0fd.jpg,Home Care,Home Health
Enhabit Hospice of Idaho,"435 South Whitley Drive, Fruitland, ID 83619",Fruitland,ID,83619,https://app.seniorplace.com/communities/show/ffce16d1-d63c-4baa-a07a-39695038129b,https://placement-crm-cdn.s3.us-west-2.amazonaws.com/_entities/communities/57d49c0b0f7bf5d285f7270070fe6516.jpg,Home Care,"Home Health, Hospice"
Evergreen Place Assisted Living,"1043 Burley Avenue, Buhl, ID 83316",Buhl,ID,83316,https://app.seniorplace.com/communities/show/1b5159c2-befa-42ac-b700-3a094243abc9,https://placement-crm-cdn.s3.us-west-2.amazonaws.com/_entities/communities/17a1a2d930447108ad352c5e03fefba8.jpg,"Assisted Living Community, Memory Care","Assisted Living Facility, Memory Care"
Fairwinds - Sandcreek,"3310 Valencia Drive, Idaho Falls, ID 83404",Idaho Falls,ID,83404,https://app.seniorplace.com/communities/show/aaf7a68f-d753-4636-84e3-d776e7d689a6,,"Assisted Living Community, Memory Care","Assisted Living Facility, Memory Care"
Family Life,"422 11th Avenue South, Nampa, ID 83651",Nampa,ID,83651,https://app.seniorplace.com/communities/show/bdefb28e-147a-491c-b9b8-2db1c8ed81d5,https://placement-crm-cdn.s3.us-west-2.amazonaws.com/_entities/communities/0e1c85bd470bdfbfd5113fa0bb2ccc7b.jpg,"Assisted Living Community, Memory Care","Assisted Living Facility, Memory Care"
First Choice Home Health & Hospice,"12400 West Overland Road, Boise, ID 83709",Boise,ID,83709,https://app.seniorplace.com/communities/show/6e60cfc5-3f2e-4ddf-a90e-cc64d1e9261d,https://placement-crm-cdn.s3.us-west-2.amazonaws.com/_entities/communities/2fc9b47b671c24deb45aac2299e56542.jpg,Home Care,"Home Health, Hospice"
Fox Den Homes - Bannock House -- Do Not Refer No Contract No Payment,"1819 West Bannock Street, Boise, ID 83702",Boise,ID,83702,https://app.seniorplace.com/communities/show/cab57d89-aaa8-4d4f-a3ec-aae7b1576aa5,https://placement-crm-cdn.s3.us-west-2.amazonaws.com/_entities/communities/a943f4c4972d7f24acd27258abce0941.jpg,"Assisted Living Community, Assisted Living Home, Memory Care","Assisted Living Facility, Assisted Living Home, Memory Care"
Fox Den Homes - North End House - Do Not Refer No Contract No Payment,"1307 North 25th Street, Boise, ID 83702",Boise,ID,83702,https://app.seniorplace.com/communities/show/a5a50ab5-2b7a-4a4e-92f3-04eec7bb5779,https://placement-crm-cdn.s3.us-west-2.amazonaws.com/_entities/communities/d09db66dd18208713941865d1a38faf8.jpg,"Assisted Living Community, Assisted Living Home, Memory Care","Assisted Living Facility, Assisted Living Home, Memory Care"
Foxtail Assisted Living,"3559 West Bavaria Street, Eagle, ID 83616",Eagle,ID,83616,https://app.seniorplace.com/communities/show/5771ea23-f8c6-4d10-a0e6-e6b58f5a667f,https://app.seniorplace.com/api/files/public/6fcc6304-c571-4429-9c13-c8c3995b768e,"Assisted Living Community, Memory Care","Assisted Living Facility, Memory Care"
Franklin County Medical Center Home Care,"122 North State Street, Preston, ID 83263",Preston,ID,83263,https://app.seniorplace.com/communities/show/7da6b3cb-cc20-4a4b-8beb-d96e1fb380de,https://placement-crm-cdn.s3.us-west-2.amazonaws.com/_entities/communities/dcd1a6e14feda448cf231c9b88dbd8b2.jpg,Home Care,Home Health
Gables Assisted Living and Memory Care of Caldwell,"917 East Ustick Road, Caldwell, ID 83605",Caldwell,ID,83605,https://app.seniorplace.com/communities/show/b4a54ebb-cd29-4a6b-bd3a-6e09500af1b7,,"Assisted Living Community, Memory Care","Assisted Living Facility, Memory Care"
Gables of Ammon Management,"1405 Curlew Drive, Ammon, ID 83406",Ammon,ID,83406,https://app.seniorplace.com/communities/show/16dfea3e-e983-46b7-a8ff-ffdb535fdbb9,https://placement-crm-cdn.s3.us-west-2.amazonaws.com/_entities/communities/69c9f468ad1d84b205170083aeebb1aa.jpg,"Assisted Living Community, Memory Care","Assisted Living Facility, Memory Care"
Gables of Blackfoot Assisted Living,"2815 Hunters Loop, Blackfoot, ID 83221",Blackfoot,ID,83221,https://app.seniorplace.com/communities/show/c9001a64-936a-4c83-99c3-ac99a8f3e30d,https://placement-crm-cdn.s3.us-west-2.amazonaws.com/_entities/communities/327cc614cddcaacf84dc75f1f55d50a9.jpg,"Assisted Living Community, Memory Care","Assisted Living Facility, Memory Care"
Gables of Blackfoot Assisted Living Ii,"2820 Hunters Loop, Blackfoot, ID 83221",Blackfoot,ID,83221,https://app.seniorplace.com/communities/show/814219f3-e79e-4a13-8efd-a3db7e4cbe89,https://placement-crm-cdn.s3.us-west-2.amazonaws.com/_entities/communities/1edcb3b0fa713af30f0907f0c39f19b0.jpg,"Assisted Living Community, Memory Care","Assisted Living Facility, Memory Care"
Gables of Idaho Falls Assisted Living & Memory Care,"3400 South 5th West, Idaho Falls, ID 83402",Idaho Falls,ID,83402,https://app.seniorplace.com/communities/show/43c9aaff-9814-4595-afec-4c085053221f,https://placement-crm-cdn.s3.us-west-2.amazonaws.com/_entities/communities/8a174779b18d5bca4a5b9a767b972297.jpg,"Assisted Living Community, Memory Care","Assisted Living Facility, Memory Care"
Gables of Pocatello Assisted Living,"2805 South Grant Avenue, Pocatello, ID 83204",Pocatello,ID,83204,https://app.seniorplace.com/communities/show/d703665f-edbd-4e2f-b899-0545188e22a6,https://placement-crm-cdn.s3.us-west-2.amazonaws.com/_entities/communities/de5e30f5cfb8eff98608ca8c80ea2b10.jpg,"Assisted Living Community, Memory Care","Assisted Living Facility, Memory Care"
Gables of Pocatello Assisted Living Ii,"1451 Bannock Highway, Pocatello, ID 83204",Pocatello,ID,83204,https://app.seniorplace.com/communities/show/a7639e03-147c-4795-823d-62f5464da0ab,https://placement-crm-cdn.s3.us-west-2.amazonaws.com/_entities/communities/8f5735610a8a8ddc1fa8870bc4d94c4d.jpg,"Assisted Living Community, Memory Care","Assisted Living Facility, Memory Care"
Gables of Shelley Assisted Living,"530 River Point Lane, Shelley, ID 83274",Shelley,ID,83274,https://app.seniorplace.com/communities/show/dc67f8ca-7299-46da-929b-26a1a14c43c2,https://placement-crm-cdn.s3.us-west-2.amazonaws.com/_entities/communities/599f4e8b1a04db5499f2a4cd4bce6cbf.jpg,"Assisted Living Community, Memory Care","Assisted Living Facility, Memory Care"
Garden Plaza of Valley View - Not Adding Referral Agents at This Time,"1130 N. Allumbaugh St., Boise, ID 83704",Boise,ID,83704,https://app.seniorplace.com/communities/show/998a516a-50d2-414a-9882-b8525c75ce9e,https://app.seniorplace.com/api/files/public/d4d704a9-82ea-406b-96e0-4b68d49a093b,"Assisted Living Community, Independent Living, Nursing Home","Independent Living, Assisted Living Facility, Skilled Nursing"
Generations Memory Care at Rathdrum,"13400 North Meyer Road, Rathdrum, ID 83858",Rathdrum,ID,83858,https://app.seniorplace.com/communities/show/00a034f7-26ff-433c-b2c6-4d87d74aa620,https://placement-crm-cdn.s3.us-west-2.amazonaws.com/_entities/communities/4155bbbf12d6b4385ce069838ca6eedc.jpg,"Assisted Living Community, Memory Care","Assisted Living Facility, Memory Care"
Golden Angel Residential Assisted Living,"2321 Kenmere Drive, Meridian, ID 83646",Meridian,ID,83646,https://app.seniorplace.com/communities/show/04c67adb-5da0-4d3e-b898-12c87e62a37c,https://app.seniorplace.com/api/files/public/5e6489e3-1c3c-4564-904d-950c1bac7d53,"Assisted Living Community, Assisted Living Home, Memory Care","Assisted Living Facility, Assisted Living Home, Memory Care"
Golden Girls Residential Care,"214 Larkspur Lane, Lewiston, ID 83501",Lewiston,ID,83501,https://app.seniorplace.com/communities/show/e33583ca-4b6e-4eb0-a816-415728f0b332,https://placement-crm-cdn.s3.us-west-2.amazonaws.com/_entities/communities/e1ab57733b6c22840400052c8a373675.jpg,"Assisted Living Community, Memory Care","Assisted Living Facility, Memory Care"
Golden Years Manor,"861 Beverly Hills Drive, Payette, ID 83661",Payette,ID,83661,https://app.seniorplace.com/communities/show/a804baa4-f247-4546-a016-a5264da375b2,https://placement-crm-cdn.s3.us-west-2.amazonaws.com/_entities/communities/125fbd90cf35c515cebefa8098f18441.jpg,"Assisted Living Community, Assisted Living Home, Memory Care","Assisted Living Facility, Assisted Living Home, Memory Care"
Grace Assisted Living,"1610 SunnyRidge Road, Nampa, ID 83686",Nampa,ID,83686,https://app.seniorplace.com/communities/show/6955db26-67c3-41c2-87b7-57a12362269a,https://placement-crm-cdn.s3.us-west-2.amazonaws.com/_entities/communities/cf1acb2a3810aa3c5c7c40428e2adf02.jpg,"Assisted Living Community, Memory Care","Assisted Living Facility, Memory Care"
Grace Assisted Living Allumbaugh Way,"250 S. Allumbaugh Way Boise,, Boise, ID 83709",Boise,ID,83709,https://app.seniorplace.com/communities/show/c5ebfdfd-d085-4d55-9b42-744dbd171f3f,,,
Grace Assisted Living at Caldwell,"518 North 21st Avenue, Caldwell, ID 83605",Caldwell,ID,83605,https://app.seniorplace.com/communities/show/9bec06ef-43e4-47b8-9c51-00f7eec16b3b,,"Assisted Living Community, Memory Care","Assisted Living Facility, Memory Care"
"Grace Assisted Living at Englefield Green/Do Not Refer, No New Contracts","250 South Allumbaugh Street, Boise, ID 83709",Boise,ID,83709,https://app.seniorplace.com/communities/show/a4e819bd-bd13-4532-97cc-177ad3505418,https://placement-crm-cdn.s3.us-west-2.amazonaws.com/_entities/communities/b85970168fc7e9750ab01edf0207134c.jpg,"Assisted Living Community, Memory Care","Assisted Living Facility, Memory Care"
Grace Assisted Living at State Street,"9995 West State Street, Boise, ID 83714",Boise,ID,83714,https://app.seniorplace.com/communities/show/674e2054-e010-4c24-b348-a99ea4d7e8b4,,"Assisted Living Community, Memory Care","Assisted Living Facility, Memory Care"
Grace Assisted Living of Fairview Lakes/Do Not Refer,"1960 North Lakes Place, Meridian, ID 83646",Meridian,ID,83646,https://app.seniorplace.com/communities/show/de07d42f-8429-432f-8a2e-54b22f267f1a,https://app.seniorplace.com/api/files/public/edd9d03b-63a1-4da4-9da3-4b14179d0bac,"Assisted Living Community, Memory Care","Assisted Living Facility, Memory Care"
Grace at Chubbuck,"440 New Day Parkway, Chubbuck, ID 83202",Chubbuck,ID,83202,https://app.seniorplace.com/communities/show/5e2e0cbd-0037-43e7-ad08-7530df94e6b1,https://placement-crm-cdn.s3.us-west-2.amazonaws.com/_entities/communities/03bd75c282b1584a2b4ad4f03963b003.jpg,"Assisted Living Community, Memory Care","Assisted Living Facility, Memory Care"
Grace at Fruitland,"812 Northwest 11th Street, Fruitland, ID 83619",Fruitland,ID,83619,https://app.seniorplace.com/communities/show/e3d0fa29-f3ca-41f2-af4a-257477da53b8,https://placement-crm-cdn.s3.us-west-2.amazonaws.com/_entities/communities/d6abfd7c102aa90c6f11031865729a0f.jpg,"Assisted Living Community, Memory Care","Assisted Living Facility, Memory Care"
Grace at Twin Falls,"1803 Parkview Drive, Twin Falls, ID 83301",Twin Falls,ID,83301,https://app.seniorplace.com/communities/show/90855699-abf0-423b-83ba-63322699589a,,"Assisted Living Community, Memory Care","Assisted Living Facility, Memory Care"
Grace Memory Care at State Street,"9779 West State Street, Boise, ID 83714",Boise,ID,83714,https://app.seniorplace.com/communities/show/d94d0c78-68b9-40a3-943b-cedb1ba3cb2c,https://placement-crm-cdn.s3.us-west-2.amazonaws.com/_entities/communities/6ea028e1a4b330803e4414ff22f55d7e.jpg,"Assisted Living Community, Memory Care","Assisted Living Facility, Memory Care"
Grace Mountain Care Home,"5672 West Rhode Island Street, Spirit Lake, ID 83869",Spirit Lake,ID,83869,https://app.seniorplace.com/communities/show/484b2697-5b95-4fda-83b7-61837095b554,https://placement-crm-cdn.s3.us-west-2.amazonaws.com/_entities/communities/acf249270be4b8dcbb815f81277f5bc7.jpg,"Assisted Living Community, Memory Care","Assisted Living Facility, Memory Care"
Hancock House,"1322 East Hancock Drive, Boise, ID 83706",Boise,ID,83706,https://app.seniorplace.com/communities/show/2697c580-3cf6-43e6-8f8f-e3c8caf5e5e0,https://placement-crm-cdn.s3.us-west-2.amazonaws.com/_entities/communities/58f54085cec10419e12c2a06b8c65281.jpg,Assisted Living Community,Assisted Living Facility
Harbor Assisted Living,"2308 East Harbour Grove Drive, Nampa, ID 83686",Nampa,ID,83686,https://app.seniorplace.com/communities/show/2d2f5edf-7a9c-4058-bd86-1a27fb8033ec,https://placement-crm-cdn.s3.us-west-2.amazonaws.com/_entities/communities/b49938fcdce2f9b439ff45426e6f43fc.jpg,"Assisted Living Community, Memory Care","Assisted Living Facility, Memory Care"
Harmony House Assisted Living I,"454 West Lacey Avenue, Hayden, ID 83835",Hayden,ID,83835,https://app.seniorplace.com/communities/show/663145fb-fe1f-4ee4-856d-f4a6f87e2d39,https://placement-crm-cdn.s3.us-west-2.amazonaws.com/_entities/communities/a2afdce28d1436986ac2fd838ee36d49.jpg,"Assisted Living Community, Memory Care","Assisted Living Facility, Memory Care"
Harmony House Assisted Living Ii,"9961 North Maple Street, Hayden, ID 83835",Hayden,ID,83835,https://app.seniorplace.com/communities/show/66c3fcc7-838d-4785-b5f5-7e15d1854be4,https://placement-crm-cdn.s3.us-west-2.amazonaws.com/_entities/communities/c4244609d994f4045166f60fa34a9ee8.jpg,"Assisted Living Community, Memory Care","Assisted Living Facility, Memory Care"
Harmony Place Assisted Living,"3808 North 2538 East, Twin Falls, ID 83301",Twin Falls,ID,83301,https://app.seniorplace.com/communities/show/d1f5bc37-d295-4f68-beb2-e7fbcea7b242,,"Assisted Living Community, Memory Care","Assisted Living Facility, Memory Care"
Hayden Place Assisted Living,"1027 East Honeysuckle Avenue, Hayden, ID 83835",Hayden,ID,83835,https://app.seniorplace.com/communities/show/5b87e1bb-56a1-4ae6-8161-fa5ebe60e4c2,,"Assisted Living Community, Memory Care","Assisted Living Facility, Memory Care"
Hearthstone Village,"402 West Third Avenue, Kootenai, ID 83840",Kootenai,ID,83840,https://app.seniorplace.com/communities/show/2191cc09-7174-40e7-9a35-f6f45a9d43c9,,"Assisted Living Community, Memory Care","Assisted Living Facility, Memory Care"
Heatherwood Senior Living,"5277 W. Kootenai St, Boise, ID 83705",Boise,ID,83705,https://app.seniorplace.com/communities/show/8e8f3fd7-9018-441b-a325-f04b94ba73f9,https://app.seniorplace.com/api/files/public/d123df92-4cb0-45f7-b4d8-9b90fcd4ae83,Independent Living,Independent Living
Heirloom House,"779 South Tennyson Way, Boise, ID 83709",Boise,ID,83709,https://app.seniorplace.com/communities/show/7c545cd1-b935-4762-8ba3-e1078283dad6,https://placement-crm-cdn.s3.us-west-2.amazonaws.com/_entities/communities/8d5ab80669737457d4f339722c6f76ec.jpg,"Assisted Living Community, Assisted Living Home, Memory Care","Assisted Living Facility, Assisted Living Home, Memory Care"
Heritage Assisted Living and Memory Care,"622 Filer Avenue West, Twin Falls, ID 83301",Twin Falls,ID,83301,https://app.seniorplace.com/communities/show/2af8b6dd-dc53-4465-914c-49783ea98390,https://placement-crm-cdn.s3.us-west-2.amazonaws.com/_entities/communities/ed4e3f5128a64abf3074dd5bd3dbac7f.jpg,"Assisted Living Community, Memory Care","Assisted Living Facility, Memory Care"
Heritage Homr Health,"1009 West Quinn Road, Pocatello, ID 83202",Pocatello,ID,83202,https://app.seniorplace.com/communities/show/6982bc70-7eda-46bf-8110-ea2ee43371b6,https://placement-crm-cdn.s3.us-west-2.amazonaws.com/_entities/communities/1d43108f92da607a42b2dc26e13be9ee.jpg,Home Care,"Home Health, Hospice"
Heritage Senior Living,"175 East 3rd North, Preston, ID 83263",Preston,ID,83263,https://app.seniorplace.com/communities/show/4a005bd2-bf2c-4a2d-9d49-019308e32c18,https://placement-crm-cdn.s3.us-west-2.amazonaws.com/_entities/communities/ea049e26c675e5b1850f54444f6f5512.jpg,"Assisted Living Community, Memory Care","Assisted Living Facility, Memory Care"
Hettinger Living Center,"217 Ruby Street, Boise, ID 83705",Boise,ID,83705,https://app.seniorplace.com/communities/show/e56a95ea-0011-4260-880c-e545e844dc19,https://placement-crm-cdn.s3.us-west-2.amazonaws.com/_entities/communities/c4562d2c2115763a1a1c951fa56998a6.jpg,"Assisted Living Community, Assisted Living Home","Assisted Living Facility, Assisted Living Home"
Highland Estates,"2050 Hiland Avenue, Burley, ID 83318",Burley,ID,83318,https://app.seniorplace.com/communities/show/e751f109-6ed7-40fc-9d43-e91600f0f034,https://placement-crm-cdn.s3.us-west-2.amazonaws.com/_entities/communities/e790a815e1c12c6b46ce3dd35f7bedb2.jpg,"Assisted Living Community, Memory Care","Assisted Living Facility, Memory Care"
Hill House Memory Care,"632 North Mountain View Road, Moscow, ID 83843",Moscow,ID,83843,https://app.seniorplace.com/communities/show/1330b90f-dffd-4e87-a0c2-30598cfcda11,https://placement-crm-cdn.s3.us-west-2.amazonaws.com/_entities/communities/fd3d3dc18bbedf5bac4321f573a6d92c.jpg,"Assisted Living Community, Memory Care","Assisted Living Facility, Memory Care"
Hillcrest Manor,"3901 West Hillcrest Drive, Boise, ID 83705",Boise,ID,83705,https://app.seniorplace.com/communities/show/91367e8f-729f-4a86-b9b5-166e35b44ec6,https://placement-crm-cdn.s3.us-west-2.amazonaws.com/_entities/communities/0c24ea0ba2f50da3e596eac3ea0edd4f.jpg,Assisted Living Community,Assisted Living Facility
Home & Heart Assisted Living,"1703 Almo Avenue, Burley, ID 83318",Burley,ID,83318,https://app.seniorplace.com/communities/show/0a29ceb5-1990-4d77-8d6b-2f968fa2b6c4,https://placement-crm-cdn.s3.us-west-2.amazonaws.com/_entities/communities/74f0cb00bee156d92c26d97112762380.jpg,"Assisted Living Community, Assisted Living Home, Memory Care","Assisted Living Facility, Assisted Living Home, Memory Care"
Home Health and Hospice S L M V R M C,"601 Pole Line Road East, Twin Falls, ID 83301",Twin Falls,ID,83301,https://app.seniorplace.com/communities/show/cb501bf4-b0fe-4a31-a6d6-e7e008848f34,https://placement-crm-cdn.s3.us-west-2.amazonaws.com/_entities/communities/05b30713dd61ccadf0e6f2c43999ca8e.jpg,Home Care,"Home Health, Hospice"
"Homestead Assisted Living Center, Inc. of Rexburg, the","407 West 1st North, Rexburg, ID 83440",Rexburg,ID,83440,https://app.seniorplace.com/communities/show/f926394e-0f4c-464c-b575-d2f7d8e3bc40,https://placement-crm-cdn.s3.us-west-2.amazonaws.com/_entities/communities/4c87b0c253fdd24bcf7282b9867fb8f3.jpg,"Assisted Living Community, Home Care, Memory Care","Assisted Living Facility, Memory Care, Home Health, Hospice"
Homestead Assisted Living Centers Inc - St. Anthony,"610 North Bridge Street, Saint Anthony, ID 83445",Saint Anthony,ID,83445,https://app.seniorplace.com/communities/show/aa9d2693-df9f-470a-b0d2-c3fb41afc17e,,"Assisted Living Community, Memory Care","Assisted Living Facility, Memory Care"
"Homestead Senior Living, the","408 West Main Street, Rexburg, ID 83440",Rexburg,ID,83440,https://app.seniorplace.com/communities/show/2cb45070-8895-4c0a-8160-c9f8b42d9319,https://placement-crm-cdn.s3.us-west-2.amazonaws.com/_entities/communities/7050a71bc76349046dced7e1665e4802.jpg,"Assisted Living Community, Memory Care","Assisted Living Facility, Memory Care"
Honeysuckle Senior Living,"660 West Honeysuckle Avenue, Hayden, ID 83835",Hayden,ID,83835,https://app.seniorplace.com/communities/show/abc950cd-28db-45b0-aad8-31858f96f01b,https://placement-crm-cdn.s3.us-west-2.amazonaws.com/_entities/communities/f97d12ce1733290ce0a4794593b7481d.jpg,Assisted Living Community,Assisted Living Facility
Horizon Home Health,"63 West Willowbrook Drive, Meridian, ID 83646",Meridian,ID,83646,https://app.seniorplace.com/communities/show/86d4d15f-c0f7-4978-8db7-4b4a2ace01b1,https://placement-crm-cdn.s3.us-west-2.amazonaws.com/_entities/communities/079fd758c173fc364d74626eca6da560.jpg,Home Care,"Home Health, Hospice"
Horizon Hospice Magic Valley,"855 North College Road, Twin Falls, ID 83301",Twin Falls,ID,83301,https://app.seniorplace.com/communities/show/4214dad0-2a88-49c1-94d3-01f8deca6ec2,https://placement-crm-cdn.s3.us-west-2.amazonaws.com/_entities/communities/1a9d8a4ec988069acafb10ab8d92b085.jpg,Home Care,"Home Health, Hospice"
Horizon Hospice West,"211 East Logan Street, Caldwell, ID 83605",Caldwell,ID,83605,https://app.seniorplace.com/communities/show/c06e7061-d3fe-4cab-8b71-0d892c55b6f9,https://placement-crm-cdn.s3.us-west-2.amazonaws.com/_entities/communities/ae6ee7cd096ea60a743bbc974eb0f802.jpg,Home Care,"Home Health, Hospice"
Hospice Visions,"455 Parkview Loop East, Twin Falls, ID 83301",Twin Falls,ID,83301,https://app.seniorplace.com/communities/show/dbf4028e-5579-4d84-8530-680490ffee81,https://placement-crm-cdn.s3.us-west-2.amazonaws.com/_entities/communities/87cebe25a358e050d9a2dfd8f3feb42b.jpg,Home Care,"Home Health, Hospice"
Huckleberry Retirement Homes Llc - Ii,"1408 Ponderosa Drive, Sandpoint, ID 83864",Sandpoint,ID,83864,https://app.seniorplace.com/communities/show/45821e50-d0f8-41f7-a6f5-672d569f83ba,https://placement-crm-cdn.s3.us-west-2.amazonaws.com/_entities/communities/032db00979fa2eda011fa8887a6ac528.jpg,"Assisted Living Community, Memory Care","Assisted Living Facility, Memory Care"
Idaho Home Health & Hospice,"722 North College Road, Twin Falls, ID 83301",Twin Falls,ID,83301,https://app.seniorplace.com/communities/show/165a2aca-9218-4531-a6b5-c8f427417113,https://placement-crm-cdn.s3.us-west-2.amazonaws.com/_entities/communities/480743cdefe10dc097d76b8b9551fe62.jpg,Home Care,"Home Health, Hospice"
If Hospice Opco,"850 Energy Place, Idaho Falls, ID 83401",Idaho Falls,ID,83401,https://app.seniorplace.com/communities/show/5e90d992-b1d2-48ea-9996-f8cd35e5515e,https://placement-crm-cdn.s3.us-west-2.amazonaws.com/_entities/communities/ddd903e68dbec90a69cb39a15dab2f2f.jpg,Home Care,"Home Health, Hospice"
Independence Home,"430 Willard Avenue, Pocatello, ID 83201",Pocatello,ID,83201,https://app.seniorplace.com/communities/show/7692acec-eba9-444d-916e-518cd8fb2d84,https://placement-crm-cdn.s3.us-west-2.amazonaws.com/_entities/communities/aa86e4f8c03b4b326c4634fa4831831d.jpg,Assisted Living Community,Assisted Living Facility
Indianhead Estates Residential Care,"590 West Indianhead Road, Weiser, ID 83672",Weiser,ID,83672,https://app.seniorplace.com/communities/show/3ed1acf3-33e5-4f9f-84b4-19fcbca7542c,https://placement-crm-cdn.s3.us-west-2.amazonaws.com/_entities/communities/e5a42ecaeb5bf1939b8baee83f510e85.jpg,Assisted Living Community,Assisted Living Facility
Intermountain Home Care of Cassia,"1501 Hiland Avenue, Burley, ID 83318",Burley,ID,83318,https://app.seniorplace.com/communities/show/45842fe9-5edd-4e3a-bbad-e70216a4c516,https://placement-crm-cdn.s3.us-west-2.amazonaws.com/_entities/communities/61e757ec48b419f0a3b77eb89484cda2.jpg,Home Care,"Home Health, Hospice"
Joyce'S Orchard Residential Care Home,"615 Cedar Avenue, Lewiston, ID 83501",Lewiston,ID,83501,https://app.seniorplace.com/communities/show/9d849d9d-6d86-4429-ac83-9230dcb42006,https://placement-crm-cdn.s3.us-west-2.amazonaws.com/_entities/communities/6d4bb1d357b1456e2f9b4657e46c29a1.jpg,Assisted Living Community,Assisted Living Facility
Kidscare Home Health of Idaho,"1835 Wildwood Street, Boise, ID 83713",Boise,ID,83713,https://app.seniorplace.com/communities/show/611695b2-fe20-49b0-b622-88e78d6754c5,https://placement-crm-cdn.s3.us-west-2.amazonaws.com/_entities/communities/745336583c8ebff1b605e6503f063ec1.jpg,Home Care,Home Health
Kimball'S Residential Care,"54 East River Road, Blackfoot, ID 83221",Blackfoot,ID,83221,https://app.seniorplace.com/communities/show/1c4a4f2f-1968-4855-9ae8-2428b0ecb732,https://placement-crm-cdn.s3.us-west-2.amazonaws.com/_entities/communities/ca6dc34108aa6b586ad16f6e01535e07.jpg,Assisted Living Community,Assisted Living Facility
Lakeside,"605 Joseph Avenue, Winchester, ID 83555",Winchester,ID,83555,https://app.seniorplace.com/communities/show/f744d8e3-888a-4e88-8f76-91bb2dd94868,https://placement-crm-cdn.s3.us-west-2.amazonaws.com/_entities/communities/ef4eed82e33a2c8be5a387d14d234a41.jpg,"Assisted Living Community, Memory Care","Assisted Living Facility, Memory Care"
Lakeside - East,"605 Nezperce Avenue, Winchester, ID 83555",Winchester,ID,83555,https://app.seniorplace.com/communities/show/694ba339-bc74-487b-b3c8-dd9681eb8f90,https://placement-crm-cdn.s3.us-west-2.amazonaws.com/_entities/communities/8470a8408512fe2b68c7de68f33ecd26.jpg,"Assisted Living Community, Memory Care","Assisted Living Facility, Memory Care"
Lakeside Assisted Living - Sandpoint,"624 South Division Avenue, Sandpoint, ID 83864",Sandpoint,ID,83864,https://app.seniorplace.com/communities/show/a0839914-220a-4f3d-a262-b35cb24015b1,https://placement-crm-cdn.s3.us-west-2.amazonaws.com/_entities/communities/a3dbcf2e52055063c22eb300f7b61f79.jpg,"Assisted Living Community, Memory Care","Assisted Living Facility, Memory Care"
Legends Park Assisted Living,"1820 Legends Parkway, Coeur d'Alene, ID 83815",Coeur d'Alene,ID,83815,https://app.seniorplace.com/communities/show/5642eded-d5e4-47ef-b214-68981f25be2e,,"Assisted Living Community, Memory Care","Assisted Living Facility, Memory Care"
Lily and Syringa Assisted Living,"840 I Street, Idaho Falls, ID 83402",Idaho Falls,ID,83402,https://app.seniorplace.com/communities/show/e898e4cb-30f1-4eb6-b51c-ac4d31cd2c15,https://placement-crm-cdn.s3.us-west-2.amazonaws.com/_entities/communities/370cba0ada9a88ab6b1411d086e64d84.jpg,"Assisted Living Community, Memory Care","Assisted Living Facility, Memory Care"
Lincoln Court Retirement Community,"850 Lincoln Drive, Idaho Falls, ID 83401",Idaho Falls,ID,83401,https://app.seniorplace.com/communities/show/e2e1ca6e-154f-46ec-8701-e22155118260,https://placement-crm-cdn.s3.us-west-2.amazonaws.com/_entities/communities/0bc55155dbc24fbaf29642a1e90d5e15.jpg,"Assisted Living Community, Memory Care","Assisted Living Facility, Memory Care"
Living Spring Residential Care,"1050 Hemlock Drive, Lewiston, ID 83501",Lewiston,ID,83501,https://app.seniorplace.com/communities/show/d9f903f3-d1b5-4877-80b1-985727f01103,https://placement-crm-cdn.s3.us-west-2.amazonaws.com/_entities/communities/b0bbfb1889321890bc6fb3a594e4dbde.jpg,"Assisted Living Community, Memory Care","Assisted Living Facility, Memory Care"
Living Springs Assisted Living,"1605 North Catherine Street, Post Falls, ID 83854",Post Falls,ID,83854,https://app.seniorplace.com/communities/show/3908e43c-a8f7-4a78-bf60-efda2d2bfc9a,https://placement-crm-cdn.s3.us-west-2.amazonaws.com/_entities/communities/3da752d980d56de878486c7d9389a436.jpg,"Assisted Living Community, Memory Care","Assisted Living Facility, Memory Care"
"Lodge at Fairway Forest #1, the","3991 North Player Drive, Coeur d'Alene, ID 83815",Coeur d'Alene,ID,83815,https://app.seniorplace.com/communities/show/38a4f25b-63c3-4ea2-b72a-48607b502016,https://placement-crm-cdn.s3.us-west-2.amazonaws.com/_entities/communities/88a94da83dbc0bdc538811bb1fdcc541.jpg,"Assisted Living Community, Memory Care","Assisted Living Facility, Memory Care"
Loving Care and More,"104 WindRiver Road, Silverton, ID 83867",Silverton,ID,83867,https://app.seniorplace.com/communities/show/d65f519f-dd8c-4b0c-a688-7b91f7951529,,Home Care,Home Health
Loving Embrace of Country Time,"652 South Main Street, Star, ID 83669",Star,ID,83669,https://app.seniorplace.com/communities/show/3c09de49-072c-4573-b0ed-c2478cdb402a,https://placement-crm-cdn.s3.us-west-2.amazonaws.com/_entities/communities/dffa462ebe03dba7c08d5e34ad8e53b5.jpg,"Assisted Living Community, Memory Care","Assisted Living Facility, Memory Care"
Luna Assisted Living,"601 Blaine Avenue, Nampa, ID 83651",Nampa,ID,83651,https://app.seniorplace.com/communities/show/e731fe96-50c1-4325-a173-192cfad7eaff,https://placement-crm-cdn.s3.us-west-2.amazonaws.com/_entities/communities/f398ad041d224d3f62a8128ddbe5bea2.jpg,"Assisted Living Community, Assisted Living Home, Memory Care","Assisted Living Facility, Assisted Living Home, Memory Care"
Luther Park at Sandpoint,"510 South Olive Avenue, Sandpoint, ID 83864",Sandpoint,ID,83864,https://app.seniorplace.com/communities/show/b62f021f-2034-45d5-b40d-c4cc36fa6712,,"Assisted Living Community, Memory Care","Assisted Living Facility, Memory Care"
Magic Valley Manor,"210 North Idaho Street, Wendell, ID 83355",Wendell,ID,83355,https://app.seniorplace.com/communities/show/15f2f508-3bbe-4391-89e8-693daef0c6c3,,Assisted Living Community,Assisted Living Facility
Malad Living Center/Rcf,"151 West 200 North, Malad City, ID 83252",Malad City,ID,83252,https://app.seniorplace.com/communities/show/63c9ac1b-e660-420a-ac10-db253dadcaec,https://placement-crm-cdn.s3.us-west-2.amazonaws.com/_entities/communities/432b70deeeccd7a71a5afcd14190413a.jpg,"Assisted Living Community, Memory Care","Assisted Living Facility, Memory Care"
Maple Wood Assisted Living,"10547 North Reed Road, Hayden, ID 83835",Hayden,ID,83835,https://app.seniorplace.com/communities/show/5497b9cf-4f68-4a6a-964f-350edf6131a3,https://placement-crm-cdn.s3.us-west-2.amazonaws.com/_entities/communities/cb2b92769dee62a7ebfc844f752722fa.jpg,"Assisted Living Community, Memory Care","Assisted Living Facility, Memory Care"
Meadow View Assisted Living & Memory Care,"1013 South Johns Avenue, Emmett, ID 83617",Emmett,ID,83617,https://app.seniorplace.com/communities/show/17e37158-e140-47ad-bdfc-8ab3fd4ca105,https://placement-crm-cdn.s3.us-west-2.amazonaws.com/_entities/communities/6c8d6c3c0ba654348ea50d0c8a48dadd.jpg,"Assisted Living Community, Memory Care","Assisted Living Facility, Memory Care"
Meadowlark Assisted Living,"701 West North 2nd Street, Grangeville, ID 83530",Grangeville,ID,83530,https://app.seniorplace.com/communities/show/f289ecf5-a647-4b75-9bca-94b5b2a164c9,,"Assisted Living Community, Memory Care","Assisted Living Facility, Memory Care"
Meridian Meadows Assisted Living - Do Not Refer,"2584 East Magic View Drive, Meridian, ID 83642",Meridian,ID,83642,https://app.seniorplace.com/communities/show/81ea9603-c35b-46cb-a417-ad7212f5de63,https://app.seniorplace.com/api/files/public/b14c100b-7085-4657-a4e9-693f5cc29a51,"Assisted Living Community, Memory Care","Assisted Living Facility, Memory Care"
Midland Manor,"9 South Midland Boulevard, Nampa, ID 83651",Nampa,ID,83651,https://app.seniorplace.com/communities/show/ba29fbdb-c9f9-4b20-894e-ba0602dcec99,https://placement-crm-cdn.s3.us-west-2.amazonaws.com/_entities/communities/96a5343973fca3e3dfc59e0d80f263ca.jpg,"Assisted Living Community, Assisted Living Home","Assisted Living Facility, Assisted Living Home"
Miles Manor,"875 Pendlebury Lane, Blackfoot, ID 83221",Blackfoot,ID,83221,https://app.seniorplace.com/communities/show/0d9eef8e-f026-4786-b05e-49d38f163ea6,https://placement-crm-cdn.s3.us-west-2.amazonaws.com/_entities/communities/d24525cf68bb7455555b6d6e579e2185.jpg,"Assisted Living Community, Memory Care","Assisted Living Facility, Memory Care"
Mission Home Health of Idaho Falls,"3242 South Woodruff Avenue, Idaho Falls, ID 83404",Idaho Falls,ID,83404,https://app.seniorplace.com/communities/show/21f43f7b-4b01-460c-a596-6e5f9d0219c7,https://placement-crm-cdn.s3.us-west-2.amazonaws.com/_entities/communities/e84a9d1e2aa4f23be84976be6160ff05.jpg,Home Care,"Home Health, Hospice"
Morningstar of Boise,"5850 North Five Mile Road, Boise, ID 83713",Boise,ID,83713,https://app.seniorplace.com/communities/show/df9f7bfa-c6f8-4f2d-a7b2-45fe986e80fa,https://placement-crm-cdn.s3.us-west-2.amazonaws.com/_entities/communities/d1657e137e2399b6c84e1d1a131c1572.jpg,"Assisted Living Community, Independent Living, Memory Care","Independent Living, Assisted Living Facility, Memory Care"
Morningstar of Idaho Falls,"4000 South 25th East, Idaho Falls, ID 83404",Idaho Falls,ID,83404,https://app.seniorplace.com/communities/show/a30ea3df-daf3-489f-b56d-3402ff1a128c,,"Assisted Living Community, Memory Care","Assisted Living Facility, Memory Care"
Morninstar Senior Living of Boise,"5850 N. Five Mile Rd, Boise, ID 83713",Boise,ID,83713,https://app.seniorplace.com/communities/show/92447599-14d5-4c69-9bbb-da6df157c551,https://app.seniorplace.com/api/files/public/a32f9682-0f1b-4b5e-8a17-7e78be4228dd,Independent Living,Independent Living
Moscow of Olympus,"640 Eisenhower Street, Moscow, ID 83843",Moscow,ID,83843,https://app.seniorplace.com/communities/show/4906ea85-5852-4454-b758-d9051f058373,,"Assisted Living Community, Memory Care, Nursing Home","Continuing Care Retirement Community, Assisted Living Facility, Memory Care, Skilled Nursing"
Mountain Springs Assisted Living Center,"3254 Spirit Lake Cutoff Road, Spirit Lake, ID 83869",Spirit Lake,ID,83869,https://app.seniorplace.com/communities/show/a32e6aa8-7e8c-4619-88fa-480431ece212,https://placement-crm-cdn.s3.us-west-2.amazonaws.com/_entities/communities/b9e10011cca151951cc5d6c2b044bda0.jpg,"Assisted Living Community, Memory Care","Assisted Living Facility, Memory Care"
Multicare Home Health Services,"324 South Meridian Road, Meridian, ID 83642",Meridian,ID,83642,https://app.seniorplace.com/communities/show/1944e0fc-1b87-4271-b1c4-aad0909baebd,https://placement-crm-cdn.s3.us-west-2.amazonaws.com/_entities/communities/e06c1515c858759ec8279000e9499ed9.jpg,Home Care,Home Health
New Beginnings,"2085 Avocet Drive, Ammon, ID 83406",Ammon,ID,83406,https://app.seniorplace.com/communities/show/c46e8dc2-a900-4e85-9100-932c17e17672,https://placement-crm-cdn.s3.us-west-2.amazonaws.com/_entities/communities/b10eaedcc8a83a7163f091f4c6d41f2a.jpg,Assisted Living Community,Assisted Living Facility
North Idaho Home Health,"850 West Kathleen Avenue, Coeur d'Alene, ID 83815",Coeur d'Alene,ID,83815,https://app.seniorplace.com/communities/show/0c192692-3512-4dba-b249-9705321e69f6,https://placement-crm-cdn.s3.us-west-2.amazonaws.com/_entities/communities/b01d398f8649a7847f668ed08325f66c.jpg,Home Care,Home Health
North Star Retirement Community,"2340 West Seltice Way, Coeur d'Alene, ID 83814",Coeur d'Alene,ID,83814,https://app.seniorplace.com/communities/show/7aa1918a-16f7-4da8-bdc9-bef05286ec85,https://placement-crm-cdn.s3.us-west-2.amazonaws.com/_entities/communities/9f864d17b07f17f2fdef6f73b9eb67bc.jpg,Assisted Living Community,Assisted Living Facility
Oakshire Assisted Living,"165 Constellation Drive, Idaho Falls, ID 83402",Idaho Falls,ID,83402,https://app.seniorplace.com/communities/show/42ae925e-f35b-4434-a1d5-24fd71dad93e,https://placement-crm-cdn.s3.us-west-2.amazonaws.com/_entities/communities/55e2874e3782de438e33a9d59fbfe65d.jpg,"Assisted Living Community, Memory Care","Assisted Living Facility, Memory Care"
Onesource Hospice,"1680 Elk Creek Drive, Idaho Falls, ID 83404",Idaho Falls,ID,83404,https://app.seniorplace.com/communities/show/842a45d4-e911-43d6-a8f2-f817ab179afe,https://placement-crm-cdn.s3.us-west-2.amazonaws.com/_entities/communities/ec4ad9f171e2e3c11affb5484d1bcc35.jpg,Home Care,"Home Health, Hospice"
Orchard Ridge Assisted Living,"624 West Harrison Avenue, Coeur d'Alene, ID 83814",Coeur d'Alene,ID,83814,https://app.seniorplace.com/communities/show/a65a872b-9770-4a94-baf7-a3896170a91c,https://placement-crm-cdn.s3.us-west-2.amazonaws.com/_entities/communities/55c232ae8c34a83c538914217306a73a.jpg,"Assisted Living Community, Memory Care","Assisted Living Facility, Memory Care"
Overland Court Generations Memory Care,"10172 West Smoke Ranch Drive, Boise, ID 83709",Boise,ID,83709,https://app.seniorplace.com/communities/show/3f9b7eb0-9bf2-46c0-99b1-aa6f8bad9b97,,"Assisted Living Community, Memory Care","Assisted Living Facility, Memory Care"
Overland Court Senior Living - Frontier Senior Living,"10250 West Smoke Ranch Drive, Boise, ID 83709",Boise,ID,83709,https://app.seniorplace.com/communities/show/40e9e124-e993-4f1a-98a0-4a5d96888244,https://app.seniorplace.com/api/files/public/400b6d2a-6ac6-40fd-ae99-bb20803f96a2,"Assisted Living Community, Memory Care","Assisted Living Facility, Memory Care"
Pacifica Senior Living Coeur D'Alene,"840 East Dalton Avenue, Coeur d'Alene, ID 83815",Coeur d'Alene,ID,83815,https://app.seniorplace.com/communities/show/66e914e2-2858-4f74-9eba-c07b4002355b,https://placement-crm-cdn.s3.us-west-2.amazonaws.com/_entities/communities/eedbdc653c51967ddcc5d4514befec15.jpg,Assisted Living Community,Assisted Living Facility
Pacifica Senior Living Pinehurst,"208 South Division Street, Pinehurst, ID 83850",Pinehurst,ID,83850,https://app.seniorplace.com/communities/show/411de977-a5ce-4ff3-92a8-d20b5a9825c1,https://placement-crm-cdn.s3.us-west-2.amazonaws.com/_entities/communities/b875b20aabd065c236c15decb32c71ee.jpg,"Assisted Living Community, Memory Care","Assisted Living Facility, Memory Care"
Palouse Hills Assisted Living,"1401 North Polk Street, Moscow, ID 83843",Moscow,ID,83843,https://app.seniorplace.com/communities/show/3fdc76a3-f786-46e9-a0b2-e1f3d7af3e3b,https://placement-crm-cdn.s3.us-west-2.amazonaws.com/_entities/communities/0a6bc9ebc876edec37de6973441a0bd8.jpg,"Assisted Living Community, Memory Care","Assisted Living Facility, Memory Care"
Paramount Parks Health Care at Eagle,"815 North Eagle Road, Eagle, ID 83616",Eagle,ID,83616,https://app.seniorplace.com/communities/show/ad737282-5d00-4498-b2ad-341aa72572f6,https://placement-crm-cdn.s3.us-west-2.amazonaws.com/_entities/communities/c29a2fb241e9f860f5be031e5e94c051.jpg,"Assisted Living Community, Memory Care","Assisted Living Facility, Memory Care"
Parkwood Meadows Assisted Living,"1885 Parkwood Street, Idaho Falls, ID 83401",Idaho Falls,ID,83401,https://app.seniorplace.com/communities/show/61b7b832-6173-4c28-ae6a-a58eac4272ae,https://placement-crm-cdn.s3.us-west-2.amazonaws.com/_entities/communities/7f60237ff9311f11efe06d42567088b5.jpg,"Assisted Living Community, Memory Care","Assisted Living Facility, Memory Care"
Parma Living Center,"401 North 8th Street, Parma, ID 83660",Parma,ID,83660,https://app.seniorplace.com/communities/show/bd477ae3-cbcb-40e7-b529-191f1440184a,https://placement-crm-cdn.s3.us-west-2.amazonaws.com/_entities/communities/b1450431de3be0d6091e8623650d18e2.jpg,"Assisted Living Community, Memory Care","Assisted Living Facility, Memory Care"
Pleasant Valley Shelter Home,"1911 17th Avenue, Lewiston, ID 83501",Lewiston,ID,83501,https://app.seniorplace.com/communities/show/98f8ea7b-8bb4-44af-a6b0-eaeb4ae96608,https://placement-crm-cdn.s3.us-west-2.amazonaws.com/_entities/communities/0fb3a027504cda8881cac3deb8137614.jpg,"Assisted Living Community, Assisted Living Home, Memory Care","Assisted Living Facility, Assisted Living Home, Memory Care"
Pomerelle Place,"1301 Bennett Avenue, Burley, ID 83318",Burley,ID,83318,https://app.seniorplace.com/communities/show/08eff9b5-6447-42c4-942f-21d0e7f7be50,,Assisted Living Community,Assisted Living Facility
Poplar Grove Assisted Living,"356 East Cleveland Avenue, Glenns Ferry, ID 83623",Glenns Ferry,ID,83623,https://app.seniorplace.com/communities/show/221c726c-0e43-4259-afba-0eae984d07c6,https://placement-crm-cdn.s3.us-west-2.amazonaws.com/_entities/communities/5c34b3ac032582b0c819f58d1a35abce.jpg,"Assisted Living Community, Memory Care","Assisted Living Facility, Memory Care"
"Post Falls Ops, Llc, Dba Guardian Angel Homes","1070 East Mullan Avenue, Post Falls, ID 83854",Post Falls,ID,83854,https://app.seniorplace.com/communities/show/339f3d4c-60dc-4955-a03c-a7ff07abf7be,https://placement-crm-cdn.s3.us-west-2.amazonaws.com/_entities/communities/ea6bb6329d3e7a8fcf00bb0667a5d3a7.jpg,"Assisted Living Community, Memory Care","Assisted Living Facility, Memory Care"
Powerline Residential Care,"930 South Powerline Road, Nampa, ID 83686",Nampa,ID,83686,https://app.seniorplace.com/communities/show/89b22b69-182f-456f-8a0e-e3858d7434d0,https://placement-crm-cdn.s3.us-west-2.amazonaws.com/_entities/communities/ffb48c3b5a3766165a965fd4cc00026b.jpg,Assisted Living Community,Assisted Living Facility
Prestige Assisted Living at Autumn Wind,"200 West Beech Street, Caldwell, ID 83605",Caldwell,ID,83605,https://app.seniorplace.com/communities/show/1f74ed5b-2a48-4d15-b778-2145c1004116,https://placement-crm-cdn.s3.us-west-2.amazonaws.com/_entities/communities/1d20cc048c9f4699f74d839d20aa503a.jpg,"Assisted Living Community, Memory Care","Assisted Living Facility, Memory Care"
Prestige Senior Living at Karcher Estates,"1127 Caldwell Boulevard, Nampa, ID 83651",Nampa,ID,83651,https://app.seniorplace.com/communities/show/797af0a2-d639-4062-9916-2d1393fad0ba,https://placement-crm-cdn.s3.us-west-2.amazonaws.com/_entities/communities/d214c08b353dfb376c7bd412968a5639.jpg,"Assisted Living Community, Nursing Home","Assisted Living Facility, Skilled Nursing"
Quail Ridge Assisted Living,"797 Hospital Way, Pocatello, ID 83201",Pocatello,ID,83201,https://app.seniorplace.com/communities/show/954ec4bd-d183-4642-808c-8bea796aa478,https://placement-crm-cdn.s3.us-west-2.amazonaws.com/_entities/communities/f1749157e7b0229934c15fdfdd9ecc25.jpg,"Assisted Living Community, Memory Care","Assisted Living Facility, Memory Care"
R & V Assisted Living,"903 11th Avenue South, Nampa, ID 83651",Nampa,ID,83651,https://app.seniorplace.com/communities/show/d9845e88-d3e0-4fe3-bd67-b82ce7f2cb48,https://placement-crm-cdn.s3.us-west-2.amazonaws.com/_entities/communities/0480e208068c1b9b4a2fbb43df76e09e.jpg,"Assisted Living Community, Assisted Living Home","Assisted Living Facility, Assisted Living Home"
Reliant Healthcare,"1103 East Best Avenue, Coeur d'Alene, ID 83814",Coeur d'Alene,ID,83814,https://app.seniorplace.com/communities/show/a3a3c215-628c-48da-bb88-51907c62d4c8,https://placement-crm-cdn.s3.us-west-2.amazonaws.com/_entities/communities/50bba1987614ceae499099f2b8c37938.jpg,Home Care,Home Health
Revel Eagle,"745 E Riverside Dr,, Eagle, ID 83616",Eagle,ID,83616,https://app.seniorplace.com/communities/show/81d6910a-123d-42ae-b98c-dcb1bfde9049,https://app.seniorplace.com/api/files/public/b2800fb1-7e78-43ac-8c7e-8c1354832bed,Independent Living,Independent Living
Rexburg Home Health,"280 East Main Street, Rexburg, ID 83440",Rexburg,ID,83440,https://app.seniorplace.com/communities/show/f7b8285a-336c-4f22-9e20-efb552839a92,https://placement-crm-cdn.s3.us-west-2.amazonaws.com/_entities/communities/6d58aff9224dc5d02d0e1a62d316307c.jpg,Home Care,Home Health
Rigby Country Living,"4202 East 300 North, Rigby, ID 83442",Rigby,ID,83442,https://app.seniorplace.com/communities/show/a188011b-ed4b-4c1f-93fa-7beb48e831dc,https://placement-crm-cdn.s3.us-west-2.amazonaws.com/_entities/communities/c212f162c3704b9ed46a4fdec9a19d46.jpg,"Assisted Living Community, Memory Care","Assisted Living Facility, Memory Care"
Rigby Lake Assisted Living,"470 Rigby Lake Drive, Rigby, ID 83442",Rigby,ID,83442,https://app.seniorplace.com/communities/show/18e7a48c-27a1-44a4-b18c-805a2d43c9c9,https://placement-crm-cdn.s3.us-west-2.amazonaws.com/_entities/communities/a6de8e8196c6243ecde09f9fea7a5053.jpg,"Assisted Living Community, Memory Care","Assisted Living Facility, Memory Care"
River Rock Assisted Living,"1063 Burley Avenue, Buhl, ID 83316",Buhl,ID,83316,https://app.seniorplace.com/communities/show/4d19e153-16f6-4834-a528-921970c09382,https://placement-crm-cdn.s3.us-west-2.amazonaws.com/_entities/communities/c7dcad95e128f3c243390faf9dfece2b.jpg,"Assisted Living Community, Memory Care","Assisted Living Facility, Memory Care"
Riviera Residential Care,"924 North Riviera Drive, Boise, ID 83703",Boise,ID,83703,https://app.seniorplace.com/communities/show/bdf47e07-60f0-4e6d-83dd-f0d3c3fe91ea,https://placement-crm-cdn.s3.us-west-2.amazonaws.com/_entities/communities/676eedabe717192479bf4644cc648367.jpg,Assisted Living Community,Assisted Living Facility
Rose Terrace Cottages,"632 North 21st Street, Coeur d'Alene, ID 83814",Coeur d'Alene,ID,83814,https://app.seniorplace.com/communities/show/085dc84f-7f31-42cd-be2b-585189459004,https://placement-crm-cdn.s3.us-west-2.amazonaws.com/_entities/communities/e18ae1c9cc4d5f2658dac87314723be5.jpg,"Assisted Living Community, Memory Care","Assisted Living Facility, Memory Care"
Rosetta of Burley,"1919 Hiland Avenue, Burley, ID 83318",Burley,ID,83318,https://app.seniorplace.com/communities/show/071e3f44-3b20-4d21-9051-bd780b062a99,https://placement-crm-cdn.s3.us-west-2.amazonaws.com/_entities/communities/146b14690ce93de2ef2a7e253db71736.jpg,"Assisted Living Community, Memory Care","Assisted Living Facility, Memory Care"
Rosetta of Pocatello,"1590 Delphic Way, Pocatello, ID 83201",Pocatello,ID,83201,https://app.seniorplace.com/communities/show/55583ff1-83fc-49e3-9aa7-191fd525a589,https://placement-crm-cdn.s3.us-west-2.amazonaws.com/_entities/communities/16c0507fc8bc5092bf50e05907ec0126.jpg,"Assisted Living Community, Memory Care","Assisted Living Facility, Memory Care"
Rosetta of Twin Falls,"1177 Eastridge Court, Twin Falls, ID 83301",Twin Falls,ID,83301,https://app.seniorplace.com/communities/show/5913ca26-a32e-4ed9-b4c8-1715baf08738,https://placement-crm-cdn.s3.us-west-2.amazonaws.com/_entities/communities/200888014eb61caa6a6b543d87e6de57.jpg,Assisted Living Community,Assisted Living Facility
Royal Plaza of Olympus Retirement,"2870 Juniper Drive, Lewiston, ID 83501",Lewiston,ID,83501,https://app.seniorplace.com/communities/show/52cc5a11-9d4b-4a74-92eb-627c6a48f42e,https://placement-crm-cdn.s3.us-west-2.amazonaws.com/_entities/communities/75269f3a970c74404c3399d43345e6ee.jpg,"Assisted Living Community, Nursing Home","Assisted Living Facility, Skilled Nursing"
Sage and Grace Assisted Living,"2421 Vineyard Avenue, Lewiston, ID 83501",Lewiston,ID,83501,https://app.seniorplace.com/communities/show/62910580-6b36-450d-81af-b79b0986fd3e,https://placement-crm-cdn.s3.us-west-2.amazonaws.com/_entities/communities/7f81e91ae9704c21065f5430578eb726.jpg,"Assisted Living Community, Memory Care","Assisted Living Facility, Memory Care"
Sage Grove Assisted Living,"290 4064 East, Rigby, ID 83442",Rigby,ID,83442,https://app.seniorplace.com/communities/show/7d702ae4-50cf-46d8-96f6-827409c04ea9,,"Assisted Living Community, Memory Care","Assisted Living Facility, Memory Care"
Salmon Creek Gracious Retirement Living/Do Not Refer,"4890 N. Cloverdale Road, Boise, ID 83713",Boise,ID,83713,https://app.seniorplace.com/communities/show/9f3ee9a0-e41f-4b65-92b1-bb15bfed6fb9,https://app.seniorplace.com/api/files/public/d0d25175-f952-4d61-8b6e-1e5211e91716,"Assisted Living Community, Assisted Living Home, Independent Living","Independent Living, Assisted Living Facility, Assisted Living Home"
Salmon Valley Hospice,"404 Courthouse Drive, Salmon, ID 83467",Salmon,ID,83467,https://app.seniorplace.com/communities/show/1b5e116f-60b5-43e3-99d0-e1dbdeea6afd,https://placement-crm-cdn.s3.us-west-2.amazonaws.com/_entities/communities/3d25c8eaae608245d2e8e2a8a467c000.jpg,Home Care,"Home Health, Hospice"
Salubria Center-Upper Country Eldercare Coalition,"355 South Jennifer Street, Cambridge, ID 83610",Cambridge,ID,83610,https://app.seniorplace.com/communities/show/d4303548-a1e9-4c1e-9608-4534d407dcd1,https://placement-crm-cdn.s3.us-west-2.amazonaws.com/_entities/communities/b44506593cd6dcbcb2134acb89f954cd.jpg,"Assisted Living Community, Memory Care","Assisted Living Facility, Memory Care"
Serenity Place Residential Care,"1917 17th Avenue, Lewiston, ID 83501",Lewiston,ID,83501,https://app.seniorplace.com/communities/show/ee45b94e-1fc3-440d-a5a3-d2f86f176f11,https://placement-crm-cdn.s3.us-west-2.amazonaws.com/_entities/communities/5080df7f52fc0cb128c5c5609ac1d614.jpg,"Assisted Living Community, Memory Care","Assisted Living Facility, Memory Care"
Signature Healthcare at Home,"211 East Logan Street, Caldwell, ID 83605",Caldwell,ID,83605,https://app.seniorplace.com/communities/show/229aaade-506e-4649-adc5-9b303a54e0ac,https://placement-crm-cdn.s3.us-west-2.amazonaws.com/_entities/communities/ae6ee7cd096ea60a743bbc974eb0f802.jpg,Home Care,"Home Health, Hospice"
Silverton of Cascadia,"405 West 7th Street, Silverton, ID 83867",Silverton,ID,83867,https://app.seniorplace.com/communities/show/dcc5485a-b646-4f74-ac25-68aff77780cc,,"Assisted Living Community, Memory Care, Nursing Home","Continuing Care Retirement Community, Assisted Living Facility, Memory Care, Skilled Nursing"
Spaulding Home,"1709 West Spaulding Street, Boise, ID 83705",Boise,ID,83705,https://app.seniorplace.com/communities/show/55790fa5-55ce-4a6e-88d1-e513628bd74f,https://placement-crm-cdn.s3.us-west-2.amazonaws.com/_entities/communities/684a83e1075139366666866b3e1f32ba.jpg,"Assisted Living Community, Assisted Living Home","Assisted Living Facility, Assisted Living Home"
Spring Gardens Meridian (Does Not Work With Placement Services Other Than Local and Apfm),"1180 West Overland Road, Meridian, ID 83642",Meridian,ID,83642,https://app.seniorplace.com/communities/show/840698d5-3f78-4ee4-8125-d947370ae0ff,https://app.seniorplace.com/api/files/public/d10faa69-f90c-44a7-92ae-1d04b04bf98f,"Assisted Living Community, Memory Care","Assisted Living Facility, Memory Care"
St Luke'S Home Care / Hospice,"3330 East Louise Drive, Meridian, ID 83642",Meridian,ID,83642,https://app.seniorplace.com/communities/show/1bab46e1-73c8-4381-96b2-5741325681e3,https://placement-crm-cdn.s3.us-west-2.amazonaws.com/_entities/communities/4ce3cd40d961f0138134c86c16e734d3.jpg,Home Care,"Home Health, Hospice"
Stonebridge Assisted Living,"110 River Rock Place, Hagerman, ID 83332",Hagerman,ID,83332,https://app.seniorplace.com/communities/show/4ae60b2d-f8cd-4fd3-91c8-7e792657ac1e,https://placement-crm-cdn.s3.us-west-2.amazonaws.com/_entities/communities/f873b61283344274f7a60d091be2cedb.jpg,"Assisted Living Community, Memory Care","Assisted Living Facility, Memory Care"
Stonebridge Assisted Living of Wendell,"465 North Shoshone Street, Wendell, ID 83355",Wendell,ID,83355,https://app.seniorplace.com/communities/show/747bd0c0-f83a-4341-9d31-b8a0b1c9a77a,https://placement-crm-cdn.s3.us-west-2.amazonaws.com/_entities/communities/d4fc0226fd12961b7aaead6e0ffbc2a6.jpg,"Assisted Living Community, Memory Care","Assisted Living Facility, Memory Care"
Streamside Alzheimer Care,"1333 South Edgewater Circle, Nampa, ID 83686",Nampa,ID,83686,https://app.seniorplace.com/communities/show/21ca1693-5166-47b4-aa91-0d9eb36b065a,https://placement-crm-cdn.s3.us-west-2.amazonaws.com/_entities/communities/8fad792ca6bfd12fce07d198827cfe46.jpg,"Assisted Living Community, Memory Care","Assisted Living Facility, Memory Care"
Sunny Ridge,"2609 Sunnybrook Drive, Nampa, ID 83686",Nampa,ID,83686,https://app.seniorplace.com/communities/show/d8cc13fd-7d9d-4f20-9d5d-8d2ca5f5e9d5,,"Assisted Living Community, Memory Care, Nursing Home","Continuing Care Retirement Community, Assisted Living Facility, Memory Care, Skilled Nursing"
Sunset Home Assisted Living,"510920 U.S. 95, Bonners Ferry, ID 83805",Bonners Ferry,ID,83805,https://app.seniorplace.com/communities/show/4844d5f5-91a6-491a-9a64-51504f429bfe,https://placement-crm-cdn.s3.us-west-2.amazonaws.com/_entities/communities/3211c659c8edec346ee3fb57ca49f7d0.jpg,"Assisted Living Community, Memory Care","Assisted Living Facility, Memory Care"
"Swan Falls Assisted Living /Do Not Refer, Not Currently Working With Ra'S","194 West White Way, Kuna, ID 83634",Kuna,ID,83634,https://app.seniorplace.com/communities/show/5d79be53-21c2-442a-b20e-5188f54fa367,https://app.seniorplace.com/api/files/public/32c8102e-7606-47c9-b457-383af12e7e5b,"Assisted Living Community, Memory Care","Assisted Living Facility, Memory Care"
Symbii Hospice,"240 West Burnside Avenue, Pocatello, ID 83202",Pocatello,ID,83202,https://app.seniorplace.com/communities/show/806322df-6254-4207-884e-9f8ce4a7eb6c,https://placement-crm-cdn.s3.us-west-2.amazonaws.com/_entities/communities/12633fe8820f1c89c3710f44d02b1cf5.jpg,Home Care,"Home Health, Hospice"
Table Rock Senior Living at Paramount,"6280 North Fox Run Way, Meridian, ID 83646",Meridian,ID,83646,https://app.seniorplace.com/communities/show/6d7342dc-6989-47dc-b739-a2b5d94a848f,https://app.seniorplace.com/api/files/public/6f7a2471-6895-4064-a595-8741ab10c745,"Assisted Living Community, Memory Care","Assisted Living Facility, Memory Care"
Table Rock Senior Living at Park Place,"616 16th Avenue North, Nampa, ID 83687",Nampa,ID,83687,https://app.seniorplace.com/communities/show/d97eb2a9-721f-43fa-8e1e-a2f7caefb037,https://placement-crm-cdn.s3.us-west-2.amazonaws.com/_entities/communities/6e53635806b1fac62506f06710cdf97d.jpg,"Assisted Living Community, Memory Care","Assisted Living Facility, Memory Care"
Terrace Home Health,"2929 West Navigator Drive, Meridian, ID 83642",Meridian,ID,83642,https://app.seniorplace.com/communities/show/14b2a69b-7fd4-43b2-adca-00829f134934,,Home Care,"Home Health, Hospice"
The Cottages of Boise (Not Working With Referral Agencies),"6300 North Roe Street, Garden City, ID 83714",Garden City,ID,83714,https://app.seniorplace.com/communities/show/b0217bad-c116-40f5-9266-52ba0b209fab,https://app.seniorplace.com/api/files/public/2bf4b992-7db2-4a9e-8df8-ceaaa97881e1,"Assisted Living Community, Memory Care","Assisted Living Facility, Memory Care"
The Cottages of Se Boise,"3521 East Lake Forest Drive, Boise, ID 83716",Boise,ID,83716,https://app.seniorplace.com/communities/show/f6908cec-d8ee-4208-adc3-6ecf1063cc16,https://placement-crm-cdn.s3.us-west-2.amazonaws.com/_entities/communities/9329b5128709bf2638792ab0685a918b.jpg,"Assisted Living Community, Memory Care","Assisted Living Facility, Memory Care"
The Lodge at Bristol Heights #1,"2220 West Prairie Avenue, Coeur d'Alene, ID 83815",Coeur d'Alene,ID,83815,https://app.seniorplace.com/communities/show/ab82fa0c-3dfe-4b79-b088-73ed9950459a,https://placement-crm-cdn.s3.us-west-2.amazonaws.com/_entities/communities/7e223a67efdfff367b95a8fa95cd3585.jpg,"Assisted Living Community, Memory Care","Assisted Living Facility, Memory Care"
The Lodge at Riverside Harbor,"52 North Cedar Street, Post Falls, ID 83854",Post Falls,ID,83854,https://app.seniorplace.com/communities/show/00f24c68-6202-4f05-8041-7a90ac0dd676,https://placement-crm-cdn.s3.us-west-2.amazonaws.com/_entities/communities/2cb864e0c34da14ee4ecf5c848a1028e.jpg,"Assisted Living Community, Memory Care","Assisted Living Facility, Memory Care"
The Pointe at Meridian,"3330 East Victory Road, Meridian, ID 83642",Meridian,ID,83642,https://app.seniorplace.com/communities/show/04e4c774-fb35-4d0c-b5fb-354ec0b10a85,https://app.seniorplace.com/api/files/public/651cccba-e24a-4917-9591-93d779298270,"Assisted Living Community, Independent Living, Memory Care","Independent Living, Assisted Living Facility, Memory Care"
The Renaissance Cda,"2772 West Avant Loop, Coeur d'Alene, ID 83815",Coeur d'Alene,ID,83815,https://app.seniorplace.com/communities/show/00302906-12de-41dc-a0c5-8e46c1095050,,"Assisted Living Community, Memory Care","Assisted Living Facility, Memory Care"
The Terraces of Boise,"5301 E. Warm Springs Ave., Boise, ID 83715",Boise,ID,83715,https://app.seniorplace.com/communities/show/0d628d62-2865-432c-8a34-43e326719a9a,https://app.seniorplace.com/api/files/public/e911e9a6-cfa4-455d-82c2-093780b25cc5,,
The Willows,"898 South Meridian Street, Blackfoot, ID 83221",Blackfoot,ID,83221,https://app.seniorplace.com/communities/show/e5504878-80f3-4026-9697-c3090b6fedfa,,"Assisted Living Community, Memory Care","Assisted Living Facility, Memory Care"
Touchmark at Meadow Lake Village - Do Not Work With Referral Companies,"625 South Arbor Lane, Meridian, ID 83642",Meridian,ID,83642,https://app.seniorplace.com/communities/show/1f670bb4-9872-4e14-a48b-ec1564c23398,,"Assisted Living Community, Home Care, Independent Living, Memory Care","Independent Living, Assisted Living Facility, Memory Care, Home Health"
Touchmark at Meadowlake Village - Does Not Work With Referral Agents,"650 South Arbor Lane, Meridian, ID 83642",Meridian,ID,83642,https://app.seniorplace.com/communities/show/9158aabf-3ba0-4926-8662-341b194f73f7,,"Assisted Living Community, Memory Care","Assisted Living Facility, Memory Care"
"Trinity at 1St Street Mental Health Only, Do Not Refer Here","1353 West 1st Street, Meridian, ID 83642",Meridian,ID,83642,https://app.seniorplace.com/communities/show/2074bab1-42b0-47b9-85f0-df26cf301dd5,https://placement-crm-cdn.s3.us-west-2.amazonaws.com/_entities/communities/f8516a0345c53fcec2f8ab91fb735fde.jpg,"Assisted Living Community, Memory Care","Assisted Living Facility, Memory Care"
Trinity at Lewis & Clark,"12423 West Lewis and Clark Drive, Boise, ID 83713",Boise,ID,83713,https://app.seniorplace.com/communities/show/2791e099-88bb-42b3-ac42-7e17212dae21,https://placement-crm-cdn.s3.us-west-2.amazonaws.com/_entities/communities/dbe63c6d566215e4024c4d732462e840.jpg,"Assisted Living Community, Memory Care","Assisted Living Facility, Memory Care"
Trinity Home Living,"1448 West Crest Wood Drive, Meridian, ID 83642",Meridian,ID,83642,https://app.seniorplace.com/communities/show/7150409e-ab52-4670-ac13-e5e5616fda33,https://placement-crm-cdn.s3.us-west-2.amazonaws.com/_entities/communities/91b8944642c95bee87d68f9b5f986ec9.jpg,"Assisted Living Community, Assisted Living Home, Memory Care","Assisted Living Facility, Assisted Living Home, Memory Care"
"Truewood by Merrill, Boise","2600 North Milwaukee Street, Boise, ID 83704",Boise,ID,83704,https://app.seniorplace.com/communities/show/3cf0677f-c05a-4ef6-b3c5-89d85caebde8,https://app.seniorplace.com/api/files/public/121a857c-826d-4300-b16b-35afe7b3930d,"Assisted Living Community, Independent Living, Memory Care","Independent Living, Assisted Living Facility, Memory Care"
Turtle and Crane Assisted Living,"1950 1st Street, Idaho Falls, ID 83401",Idaho Falls,ID,83401,https://app.seniorplace.com/communities/show/910d811f-099e-4882-a774-47091b3ac43e,https://placement-crm-cdn.s3.us-west-2.amazonaws.com/_entities/communities/f68293d410010ae0ab7b3810e602d338.jpg,"Assisted Living Community, Memory Care","Assisted Living Facility, Memory Care"
Unique Senior Care - Assisted Living,"1639 Birch Avenue, Lewiston, ID 83501",Lewiston,ID,83501,https://app.seniorplace.com/communities/show/135b3f4f-7741-456f-9b66-ed72bfb7c639,https://placement-crm-cdn.s3.us-west-2.amazonaws.com/_entities/communities/27791f4bb8993d12fdf10c6bc212eb31.jpg,"Assisted Living Community, Assisted Living Home, Memory Care","Assisted Living Facility, Assisted Living Home, Memory Care"
Valley Vista Cottage Care,"820 Elm Street, Saint Maries, ID 838612119",Saint Maries,ID,838612119,https://app.seniorplace.com/communities/show/0e89ea2f-9006-4ec8-8260-ad3eb0dc8d42,https://placement-crm-cdn.s3.us-west-2.amazonaws.com/_entities/communities/1a9346da131ff0d313f54475bc684684.jpg,"Assisted Living Community, Nursing Home","Assisted Living Facility, Skilled Nursing"
Virginia Rose Resident Inn,"2525 North Maple Grove Road, Boise, ID 83704",Boise,ID,83704,https://app.seniorplace.com/communities/show/f000baeb-a8fe-4599-8262-23ed8a8cf6d0,https://placement-crm-cdn.s3.us-west-2.amazonaws.com/_entities/communities/1149d06fedd67241aed78f19c815d56b.jpg,"Assisted Living Community, Assisted Living Home","Assisted Living Facility, Assisted Living Home"
Wedgewood Terrace-Provident Resources Group,"2114 Vineyard Avenue, Lewiston, ID 83501",Lewiston,ID,83501,https://app.seniorplace.com/communities/show/9a6ae395-314f-4fcc-97d4-44e6d414c4db,https://placement-crm-cdn.s3.us-west-2.amazonaws.com/_entities/communities/cfe3a5fa50a1487d0578e8e9e8d033aa.jpg,"Assisted Living Community, Memory Care","Assisted Living Facility, Memory Care"
Welcome Home Healthcare Services,"120 Lake Street, Sandpoint, ID 83864",Sandpoint,ID,83864,https://app.seniorplace.com/communities/show/1ef4acc2-f2fe-4db6-9d88-d8b8cf173f5b,https://placement-crm-cdn.s3.us-west-2.amazonaws.com/_entities/communities/969604ef4a675aafaf4af996bf6c44b6.jpg,Home Care,Home Health
Wellspring Meadows Assisted Living,"9873 North Buttercup Lane, Hayden, ID 83835",Hayden,ID,83835,https://app.seniorplace.com/communities/show/619d1cd0-7cd9-45d9-86e6-95121a09bdaf,https://placement-crm-cdn.s3.us-west-2.amazonaws.com/_entities/communities/b04d3de79f6d4bf6d9cec35fd8b87ce5.jpg,"Assisted Living Community, Memory Care","Assisted Living Facility, Memory Care"
Whispering Pines Assisted Living Center,"351 East Center Street, Downey, ID 83234",Downey,ID,83234,https://app.seniorplace.com/communities/show/b97d15ef-6cfe-459f-a50d-e9eb12301008,https://placement-crm-cdn.s3.us-west-2.amazonaws.com/_entities/communities/4e07bb69dfaf8a9c85d4de173e20e078.jpg,"Assisted Living Community, Memory Care","Assisted Living Facility, Memory Care"
"Wildflower of Rigby, the","144 Stockham Boulevard, Rigby, ID 83442",Rigby,ID,83442,https://app.seniorplace.com/communities/show/a3ec3393-789e-4198-af32-77540f383a6d,https://placement-crm-cdn.s3.us-west-2.amazonaws.com/_entities/communities/10e52c8aa1294c19637512b2723b7098.jpg,"Assisted Living Community, Memory Care","Assisted Living Facility, Memory Care"
Willard House,"520 Willard Avenue, Pocatello, ID 83201",Pocatello,ID,83201,https://app.seniorplace.com/communities/show/d9187c27-b635-4e75-a8a3-12fd0e992b8e,https://placement-crm-cdn.s3.us-west-2.amazonaws.com/_entities/communities/6fb4749d2233c2bc8680f4982dcb018a.jpg,"Assisted Living Community, Memory Care","Assisted Living Facility, Memory Care"
Willow Place Assisted Living,"1871 Julie Lane, Twin Falls, ID 83301",Twin Falls,ID,83301,https://app.seniorplace.com/communities/show/4d2b09fd-8cbc-48cd-8722-0759dec5dfd8,https://placement-crm-cdn.s3.us-west-2.amazonaws.com/_entities/communities/22a824b855c51c781bec3d6fd1a51a6a.jpg,"Assisted Living Community, Assisted Living Home, Memory Care","Assisted Living Facility, Assisted Living Home, Memory Care"
Woodland Assisted Living,"19937 U.S. 30, Buhl, ID 83316",Buhl,ID,83316,https://app.seniorplace.com/communities/show/73e2a8ff-450f-460c-9f76-84e7e33c65f7,,"Assisted Living Community, Memory Care","Assisted Living Facility, Memory Care"
You'Re at Home,"2811 North Ridge Haven Way, Meridian, ID 83646",Meridian,ID,83646,https://app.seniorplace.com/communities/show/06def1b3-23e3-4622-89f8-7ab897afb501,https://placement-crm-cdn.s3.us-west-2.amazonaws.com/_entities/communities/64caec03db742979ecf7024ffb3e4ac1.jpg,"Assisted Living Community, Assisted Living Home, Memory Care","Assisted Living Facility, Assisted Living Home, Memory Care"
