title,address,city,state,zip,url,featured_image,care_types,care_types_raw
A Love for Life,"7534 Bear Canyon Road Northeast, Bear Canyon, NM 87109",Bear Canyon,NM,87109,https://app.seniorplace.com/communities/show/b31963b7-62f0-40b1-b3b9-4575ca65a7ca,https://placement-crm-cdn.s3.us-west-2.amazonaws.com/_entities/communities/6c1e6e43112174fa6d937061e36b38d5.jpg,Assisted Living Community,Assisted Living Facility
A Love for Life,"4108 Alcazar Street Northeast, Albuquerque, NM 87109",Albuquerque,NM,87109,https://app.seniorplace.com/communities/show/c725d27a-f6ee-43ee-8c4c-48ec2263b25a,https://placement-crm-cdn.s3.us-west-2.amazonaws.com/_entities/communities/3fd32982aa33569f13f9998a6590625f.jpg,Assisted Living Community,Assisted Living Facility
A New Day,"11212 Miravista Place Southeast, Miravista, NM 87123",Miravista,NM,87123,https://app.seniorplace.com/communities/show/bf70f13e-af77-41b1-b15a-c0d2ae5e86f2,https://placement-crm-cdn.s3.us-west-2.amazonaws.com/_entities/communities/9194eef43dff4a9338136880a2118c60.jpg,Assisted Living Home,Assisted Living Home
Access Md,"4501 Osuna Road Northeast, Albuquerque, NM 87109",Albuquerque,NM,87109,https://app.seniorplace.com/communities/show/8228d7a9-7284-4ec6-8e28-fd9225d5362d,https://placement-crm-cdn.s3.us-west-2.amazonaws.com/_entities/communities/d53766ec4b40dcd34ca01a0e691d7fed.jpg,Assisted Living Home,Assisted Living Home
Adelante Ventana,"3609 Lafayette Drive Northeast, Albuquerque, NM 87107",Albuquerque,NM,87107,https://app.seniorplace.com/communities/show/8472a1ae-ab15-4ddb-96c0-c1b22a30a2b1,https://placement-crm-cdn.s3.us-west-2.amazonaws.com/_entities/communities/582d940b219dabe6a1af2e2865b8f1b6.jpg,Assisted Living Home,Assisted Living Home
Adobe Assisted Living #1 (The),"1111 East Mountain Avenue, Las Cruces, NM 88001",Las Cruces,NM,88001,https://app.seniorplace.com/communities/show/cbb0205b-1eb5-4638-8f9e-0acd357fac5e,https://placement-crm-cdn.s3.us-west-2.amazonaws.com/_entities/communities/f6b1b8269391e93801f9ad5f6c1472a1.jpg,Assisted Living Community,Assisted Living Facility
Advanced Ambulatory Surgery Center of Carlsbad Nm,"Skyline Circle, Carlsbad, NM 88220",Carlsbad,NM,88220,https://app.seniorplace.com/communities/show/f6f6e6b5-6c83-41d3-a5a7-34ff2416ee81,,Assisted Living Home,Assisted Living Home
Advantage Assisted Living,"1729 Wellspring Avenue Southeast, Rio Rancho, NM 87124",Rio Rancho,NM,87124,https://app.seniorplace.com/communities/show/82020c19-819a-419b-ab4a-9569e6e87558,https://placement-crm-cdn.s3.us-west-2.amazonaws.com/_entities/communities/696d724a6966e05378724adf1c584af4.jpg,Assisted Living Community,Assisted Living Facility
Advantage Assisted Living,"1760 Rincon Road Southeast, Rio Rancho, NM 87124",Rio Rancho,NM,87124,https://app.seniorplace.com/communities/show/bec08a19-13aa-433e-923d-1d5b282b29ac,https://placement-crm-cdn.s3.us-west-2.amazonaws.com/_entities/communities/8291b16822bd9d09ead7be23110197a4.jpg,Assisted Living Community,Assisted Living Facility
Albuquerque Surgical Partners Llc Dba Centennial Surgery Center,"7800 Constitution Avenue Northeast, Albuquerque, NM 87110",Albuquerque,NM,87110,https://app.seniorplace.com/communities/show/3ce34524-3fca-4c18-aec9-220adda1ef04,https://placement-crm-cdn.s3.us-west-2.amazonaws.com/_entities/communities/fdd225f9aeab34a80ed2930f20c87bb8.jpg,Assisted Living Community,Assisted Living Facility
Albuquerque Uptown Assisted Living,"7611 Indian School Road Northeast, Albuquerque, NM 87110",Albuquerque,NM,87110,https://app.seniorplace.com/communities/show/6aa4a4b8-6f70-42fd-a787-8f54b8bfc684,https://placement-crm-cdn.s3.us-west-2.amazonaws.com/_entities/communities/58ed0ce733e57ad781b82f4452b21061.jpg,Assisted Living Community,Assisted Living Facility
All-Care Assisted Living,"1001 York Drive, Clovis, NM 88101",Clovis,NM,88101,https://app.seniorplace.com/communities/show/60b97301-8553-42fa-9326-d8d8adc82d98,https://placement-crm-cdn.s3.us-west-2.amazonaws.com/_entities/communities/188dc9ce0c0b615950727ec3d0a2b9b9.jpg,Assisted Living Home,Assisted Living Home
Amaran Senior Living,"9100 Holly Avenue Northeast, Albuquerque, NM 87122",Albuquerque,NM,87122,https://app.seniorplace.com/communities/show/28b3f96b-b395-446b-8e46-b87f736def43,https://app.seniorplace.com/api/files/public/a9c246d2-ba2c-4a12-9001-1361385101c1,"Assisted Living Community, Memory Care","Assisted Living Facility, Memory Care"
American San Pablo Assisted Living,"1509 San Pablo Street Northeast, Albuquerque, NM 87110",Albuquerque,NM,87110,https://app.seniorplace.com/communities/show/6b8bfa74-199a-46a2-956c-f849bd396226,https://placement-crm-cdn.s3.us-west-2.amazonaws.com/_entities/communities/304bce0d5719750c13c0c86a5cd60bb6.jpg,Assisted Living Home,Assisted Living Home
American Winds of Grace,"7917 San Francisco Road Northeast, Albuquerque, NM 87109",Albuquerque,NM,87109,https://app.seniorplace.com/communities/show/3399a90a-7fa5-485e-b982-3e714532b639,https://placement-crm-cdn.s3.us-west-2.amazonaws.com/_entities/communities/a70f65be2a81ff852d27a9d99d52dbfd.jpg,Assisted Living Home,Assisted Living Home
Arbors of Del Rey,"3731 Del Rey Boulevard, Las Cruces, NM 88012",Las Cruces,NM,88012,https://app.seniorplace.com/communities/show/00d58b8b-2c72-4ad2-bdc2-95cde836f3b3,https://placement-crm-cdn.s3.us-west-2.amazonaws.com/_entities/communities/c517916805cd63d650b5056e4a766782.jpg,"Assisted Living Community, Home Care","Assisted Living Facility, Home Health"
Arca Gun Club,"2404 Gun Club Road Southwest, Albuquerque, NM 87105",Albuquerque,NM,87105,https://app.seniorplace.com/communities/show/4e290249-dc78-4a44-859e-46e982913c6d,https://placement-crm-cdn.s3.us-west-2.amazonaws.com/_entities/communities/7b3ff3127d7e1fe2602f9af6fa79521f.jpg,Assisted Living Home,Assisted Living Home
Arca Lakeview,"2500 Lakeview Road Southwest, Albuquerque, NM 87105",Albuquerque,NM,87105,https://app.seniorplace.com/communities/show/6abbb27f-11fa-4424-a993-1066979c3c87,https://placement-crm-cdn.s3.us-west-2.amazonaws.com/_entities/communities/3832914c9ffe8316c262f23af8772510.jpg,Assisted Living Home,Assisted Living Home
Arca Mesquite Wood,"7317 Mesquite Wood Drive Northwest, Albuquerque, NM 87120",Albuquerque,NM,87120,https://app.seniorplace.com/communities/show/7a9e0172-38bc-420d-abb4-6381b4bf34fe,https://placement-crm-cdn.s3.us-west-2.amazonaws.com/_entities/communities/de5ff982382c4f18e231194ddd494319.jpg,Assisted Living Home,Assisted Living Home
Arca Summerwood,"6312 Summerwood Road Northwest, Albuquerque, NM 87120",Albuquerque,NM,87120,https://app.seniorplace.com/communities/show/02b439d0-a9c3-4d44-86fd-0c1fdc4efadf,https://placement-crm-cdn.s3.us-west-2.amazonaws.com/_entities/communities/130498d1b8489436175ea46b9d77e3de.jpg,Assisted Living Home,Assisted Living Home
Aristocrat Assisted Living (The),"2969 Claude Dove Drive, Las Cruces, NM 88011",Las Cruces,NM,88011,https://app.seniorplace.com/communities/show/3a552f12-2fc2-4f05-8aeb-ecf40ce676e3,,Assisted Living Community,Assisted Living Facility
Aristocrat Operating Company I,"252 Robert H Bradley Drive, Alamogordo, NM 88310",Alamogordo,NM,88310,https://app.seniorplace.com/communities/show/5ab3a8a8-7645-4198-bb29-d70e9244b381,,Assisted Living Community,Assisted Living Facility
Asc of the Heart Institute,"1250 Sonoma Ranch Boulevard, Las Cruces, NM 88011",Las Cruces,NM,88011,https://app.seniorplace.com/communities/show/d8abd1ac-745c-4c8d-a0fb-7758dd110a74,https://placement-crm-cdn.s3.us-west-2.amazonaws.com/_entities/communities/ffb5c17966f9191dd74b5192c261fe2e.jpg,Assisted Living Community,Assisted Living Facility
Ativo Senior Living of Albuquerque,"4500 Quaker Heights Place, Albuquerque, NM 87120",Albuquerque,NM,87120,https://app.seniorplace.com/communities/show/971a41d4-21a1-486c-9dca-00dea6fd030a,https://app.seniorplace.com/api/files/public/84c86fc5-ac2e-40bd-899c-89568b763004,"Assisted Living Community, Independent Living, Memory Care","Independent Living, Assisted Living Facility, Memory Care"
Autumn Blessings Assisted Living,"400 Sunset Boulevard, Logan, NM 88426",Logan,NM,88426,https://app.seniorplace.com/communities/show/f7b2893e-1cfb-4700-80f8-839a798b69a6,,Assisted Living Community,Assisted Living Facility
Avamere at Rio Rancho,"1000 Riverview Drive Southeast, Rio Rancho, NM 87124",Rio Rancho,NM,87124,https://app.seniorplace.com/communities/show/5dd25ee5-c78b-4e89-863e-0aa31cf917d1,https://app.seniorplace.com/api/files/public/1072feb9-361f-4ff4-a5bd-43a592fd8326,"Assisted Living Community, Independent Living, Memory Care","Independent Living, Assisted Living Facility, Memory Care"
Avamere at Roswell,"2725 North Pennsylvania, Roswell, NM NM",Roswell,NM,NM,https://app.seniorplace.com/communities/show/aac53537-3811-4d09-871c-6fce1d1de446,,,
Avista Senior Living Albuquerque,"3920 Juan Tabo Place Northeast, Albuquerque, NM 87111",Albuquerque,NM,87111,https://app.seniorplace.com/communities/show/18ac4aa1-1cf9-4701-b753-be098fec3920,https://placement-crm-cdn.s3.us-west-2.amazonaws.com/_entities/communities/5ce41e3fa57d0ce4ee85be56290df14c.jpg,"Assisted Living Community, Memory Care, Respite Care","Assisted Living Facility, Memory Care, Respite Care"
Bear Canyon Estates | Sky Active Living,"440 Morris St NE, Albuquerque, NM 87111",Albuquerque,NM,87111,https://app.seniorplace.com/communities/show/d5feece5-c4ac-4234-9e79-242cbda16018,https://app.seniorplace.com/api/files/public/1e0a8574-83b6-405e-9987-f722e79ae510,Independent Living,Independent Living
Bee Hive Homes of Albuquerque - West,"6000 Whiteman Drive Northwest, Albuquerque, NM 87120",Albuquerque,NM,87120,https://app.seniorplace.com/communities/show/e98dac16-f81d-4489-9b65-d8bbf4bd9aab,https://placement-crm-cdn.s3.us-west-2.amazonaws.com/_entities/communities/1107dc65867776107085fec7d595ccf4.jpg,Assisted Living Community,Assisted Living Facility
Bee Hive Homes of Edgewood Ii,"102 Quail Trail, Edgewood, NM 87015",Edgewood,NM,87015,https://app.seniorplace.com/communities/show/f405ab82-c0cc-4a43-8566-e6d292108259,https://placement-crm-cdn.s3.us-west-2.amazonaws.com/_entities/communities/ca00911574d64af2a2f223eed275a169.jpg,Assisted Living Community,Assisted Living Facility
Bee Hive Homes of Rio Rancho Ii,"2709 Chessman Drive Northeast, Rio Rancho, NM 87124",Rio Rancho,NM,87124,https://app.seniorplace.com/communities/show/9ee7b965-3ec7-40a4-94a8-c91f241fa194,https://placement-crm-cdn.s3.us-west-2.amazonaws.com/_entities/communities/a85bbd2749f6992a7963583e38dc656f.jpg,Assisted Living Community,Assisted Living Facility
Bee Hive Homes of Santa Fe,"3838 Thomas Road, Santa Fe, NM 87507",Santa Fe,NM,87507,https://app.seniorplace.com/communities/show/b88d684a-ed59-4fbb-bd82-56ef50d1f403,https://placement-crm-cdn.s3.us-west-2.amazonaws.com/_entities/communities/6a05b2a94d9653c20d08227ee8ccbe76.jpg,Assisted Living Community,Assisted Living Facility
Bee Hive Homes of Taylor Ranch,"6004 Whiteman Drive Northwest, Albuquerque, NM 87120",Albuquerque,NM,87120,https://app.seniorplace.com/communities/show/ae16bdd9-4da7-4af1-a0db-b3a4130b7dac,https://placement-crm-cdn.s3.us-west-2.amazonaws.com/_entities/communities/311ae63aec0faef051a025b930a0bfa9.jpg,Assisted Living Community,Assisted Living Facility
Bee Hive Memory Loss Home,"508 Airport Drive, Farmington, NM 87401",Farmington,NM,87401,https://app.seniorplace.com/communities/show/bc7a2fb0-3d55-449a-9cf4-7f01abbb665d,,Assisted Living Community,Assisted Living Facility
Beehive Homes of Alamogordo,"1106 San Cristo Street, Alamogordo, NM 88310",Alamogordo,NM,88310,https://app.seniorplace.com/communities/show/30b5ffd7-d794-4a89-8389-327a78406340,https://placement-crm-cdn.s3.us-west-2.amazonaws.com/_entities/communities/60b2c8b5d2fa779c6fead70559cf3e20.jpg,Assisted Living Community,Assisted Living Facility
Beehive Homes of Bernalillo,"200 Sheriff's Posse Road, Bernalillo, NM 87004",Bernalillo,NM,87004,https://app.seniorplace.com/communities/show/789f063e-ff94-47ab-b682-4bcea8d2bd67,https://placement-crm-cdn.s3.us-west-2.amazonaws.com/_entities/communities/8fb9a5c6f70469ecf30b0e653f9b7d12.jpg,Assisted Living Community,Assisted Living Facility
Beehive Homes of Bernalillo 2,"180 Sheriff's Posse Road, Bernalillo, NM 87004",Bernalillo,NM,87004,https://app.seniorplace.com/communities/show/3d972429-80db-47fe-86f6-7b1e4ad5674b,https://placement-crm-cdn.s3.us-west-2.amazonaws.com/_entities/communities/1cb2e6542902453eb182ef50bc543a30.jpg,Assisted Living Community,Assisted Living Facility
Beehive Homes of Bosque Farms #2,"1935 Bosque Farms Boulevard, Bosque Farms, NM 87068",Bosque Farms,NM,87068,https://app.seniorplace.com/communities/show/17dc5298-8fe4-48b9-9d72-d10b7aa7cf89,https://app.seniorplace.com/api/files/public/f0f7d09a-f422-4c4e-bcbc-edc07637e72f,Assisted Living Community,Assisted Living Facility
Beehive Homes of Clovis,"2305 North Norris Street, Clovis, NM 88101",Clovis,NM,88101,https://app.seniorplace.com/communities/show/5d639adf-4bac-483a-85a4-a099cd0f2958,https://placement-crm-cdn.s3.us-west-2.amazonaws.com/_entities/communities/500e8156d27cccb7403270156a387e15.jpg,Assisted Living Community,Assisted Living Facility
Beehive Homes of Deming,"1721 South Santa Monica Street, Deming, NM 88030",Deming,NM,88030,https://app.seniorplace.com/communities/show/3012916c-66b2-4711-8b70-5da0213e5ad4,https://placement-crm-cdn.s3.us-west-2.amazonaws.com/_entities/communities/bb91a9b93b1be36936eb8c8d8615bf93.jpg,Assisted Living Community,Assisted Living Facility
Beehive Homes of Enchanted Hills,"6336 Enchanted Hills Boulevard Northeast, Rio Rancho, NM 87144",Rio Rancho,NM,87144,https://app.seniorplace.com/communities/show/0676d3e9-7597-42fd-b44a-b4e981be9f3e,https://placement-crm-cdn.s3.us-west-2.amazonaws.com/_entities/communities/86ca2fedccd21d97ea808d5e948e0109.jpg,Assisted Living Community,Assisted Living Facility
Beehive Homes of Farmington,"400 North Locke Avenue, Farmington, NM 87401",Farmington,NM,87401,https://app.seniorplace.com/communities/show/a0c588cf-b7d1-4241-9a6b-78c007a1b983,https://app.seniorplace.com/api/files/public/e5574b78-cdd2-461b-bc49-725b93fa5cce,Assisted Living Home,Assisted Living Home
Beehive Homes of Farmington #2,"404 North Locke Avenue, Farmington, NM 87401",Farmington,NM,87401,https://app.seniorplace.com/communities/show/d15791dc-95b6-4799-9d92-6b6eee8a3367,https://app.seniorplace.com/api/files/public/b7a05077-666c-4cd1-9d7d-44e1d66574ff,Assisted Living Home,Assisted Living Home
Beehive Homes of Farmington 4,"508 Airport Drive and 508B Airport Drive, Farmington, NM 87401",Farmington,NM,87401,https://app.seniorplace.com/communities/show/5dd409da-9b9e-4351-b5f1-ccd013c554b6,https://app.seniorplace.com/api/files/public/eb6f94ed-cd8d-4f00-b77a-6d5523c16e77,Assisted Living Community,Assisted Living Facility
Beehive Homes of Four Hills I,"13450 Wenonah Avenue Southeast, Albuquerque, NM 87123",Albuquerque,NM,87123,https://app.seniorplace.com/communities/show/c1aa5542-bdfc-4c55-9254-d5d9432c5525,https://placement-crm-cdn.s3.us-west-2.amazonaws.com/_entities/communities/caa5631b5f9b9e96a8cd9d79a2984711.jpg,Assisted Living Community,Assisted Living Facility
Beehive Homes of Gallup,"600 Gurley Avenue, Gallup, NM 87301",Gallup,NM,87301,https://app.seniorplace.com/communities/show/f2e18cc9-0490-4da7-8205-1b99301fcb30,https://placement-crm-cdn.s3.us-west-2.amazonaws.com/_entities/communities/655298408b65b195ed5a41c19bec94bb.jpg,Assisted Living Community,Assisted Living Facility
Beehive Homes of Hobbs,"1928 West College Lane, Hobbs, NM 88242",Hobbs,NM,88242,https://app.seniorplace.com/communities/show/244cbc10-d1d7-4b73-b0ef-637284a11c4e,https://placement-crm-cdn.s3.us-west-2.amazonaws.com/_entities/communities/8d8bab5f6aa02c327b463bdd8051d053.jpg,Assisted Living Community,Assisted Living Facility
Beehive Homes of Hobbs 2,"1920 West College Lane, Hobbs, NM 88242",Hobbs,NM,88242,https://app.seniorplace.com/communities/show/78a29ac9-2eb1-40fb-8d4b-7adcd7ca261d,https://placement-crm-cdn.s3.us-west-2.amazonaws.com/_entities/communities/9a34a07b6811d282ac31721c8ad7e961.jpg,Assisted Living Community,Assisted Living Facility
Beehive Homes of Portales,"1420 South Main Avenue, Portales, NM 88130",Portales,NM,88130,https://app.seniorplace.com/communities/show/ea768b6b-1170-4648-a23d-a3fb33178499,https://placement-crm-cdn.s3.us-west-2.amazonaws.com/_entities/communities/30bc1895325a1648be2d228fc184dd65.jpg,Assisted Living Community,Assisted Living Facility
Beehive Homes of Raton,"1465 Turnesa Street, Raton, NM 87740",Raton,NM,87740,https://app.seniorplace.com/communities/show/9eb8d08c-5c86-459b-aa3c-4630911f6849,https://placement-crm-cdn.s3.us-west-2.amazonaws.com/_entities/communities/055bbb95a80b4738b8ec612bd5c0a3f5.jpg,Assisted Living Community,Assisted Living Facility
Beehive Homes of Rio Rancho I,"204 Silent Spring Road Northeast, Rio Rancho, NM 87124",Rio Rancho,NM,87124,https://app.seniorplace.com/communities/show/29ece350-9452-41f1-9c89-8ddcfa198723,https://placement-crm-cdn.s3.us-west-2.amazonaws.com/_entities/communities/dfc9700801f2defab00767e641899d8e.jpg,Assisted Living Home,Assisted Living Home
Beehive Homes of Roswell,"2903 North Washington Avenue, Roswell, NM 88201",Roswell,NM,88201,https://app.seniorplace.com/communities/show/6ef93d6e-c35c-404b-81ac-316327591729,https://placement-crm-cdn.s3.us-west-2.amazonaws.com/_entities/communities/56575243a77cf06bd4c935c28848ca17.jpg,"Assisted Living Community, Assisted Living Home","Assisted Living Facility, Assisted Living Home"
"Beehive Homes of San Pedro, Building C","6401 Corona Avenue Northeast, Albuquerque, NM 87113",Albuquerque,NM,87113,https://app.seniorplace.com/communities/show/cfe2669b-0c0f-4602-bd80-d04ac2eff13f,https://placement-crm-cdn.s3.us-west-2.amazonaws.com/_entities/communities/a07c78353b2a0031ad1fe58e88ece8b0.jpg,Assisted Living Community,Assisted Living Facility
Beehive Homes of San Pedro- D,"6100 Wilshire Avenue Northeast, Albuquerque, NM 87113",Albuquerque,NM,87113,https://app.seniorplace.com/communities/show/97752291-0649-4d37-bff0-942fa19185ba,https://placement-crm-cdn.s3.us-west-2.amazonaws.com/_entities/communities/6241cdfb9237f1858c8aa5100ef30913.jpg,Assisted Living Community,Assisted Living Facility
Beehive Homes of Volcano Cliffs,"6230 Monta√±o Road Northwest, Albuquerque, NM 87120",Albuquerque,NM,87120,https://app.seniorplace.com/communities/show/f9682bcc-a536-4324-8c77-5c369e0c8b70,https://placement-crm-cdn.s3.us-west-2.amazonaws.com/_entities/communities/902e658b50bfd0f197b51c47bcf51903.jpg,Assisted Living Community,Assisted Living Facility
Beehive Homes of White Rock,"110 Longview Drive, White Rock, NM 87544",White Rock,NM,87544,https://app.seniorplace.com/communities/show/df5570f1-83af-4cdc-8dd0-49b9edcf4804,https://placement-crm-cdn.s3.us-west-2.amazonaws.com/_entities/communities/8b411bf8de6d00a7798ebcd75564a2b9.jpg,Assisted Living Community,Assisted Living Facility
Bellamah House,"11601 Bellamah Avenue Northeast, Albuquerque, NM 87112",Albuquerque,NM,87112,https://app.seniorplace.com/communities/show/fde4df6b-343d-4865-92a7-9f4718068327,https://placement-crm-cdn.s3.us-west-2.amazonaws.com/_entities/communities/63ee3d9d0eafef5b2f654e42afa72f02.jpg,Assisted Living Home,Assisted Living Home
Blue Horizon Boutique Assisted Living & Memory Care Building A,"2707 Spitz Street, Las Cruces, NM 88005",Las Cruces,NM,88005,https://app.seniorplace.com/communities/show/52f58856-16fa-4e32-ae8d-f36fd8d8151a,https://placement-crm-cdn.s3.us-west-2.amazonaws.com/_entities/communities/4041aa472c7dffc221b9200683aac34b.jpg,Assisted Living Community,Assisted Living Facility
Bonney Home,"513 Williams Street, Gallup, NM 87301",Gallup,NM,87301,https://app.seniorplace.com/communities/show/296776c7-6b8f-4623-935a-ba0ec158fa95,https://placement-crm-cdn.s3.us-west-2.amazonaws.com/_entities/communities/f9d2c435fcd77748cc004411e56c09cc.jpg,Assisted Living Home,Assisted Living Home
Bonney Home,"2021 Barbara Avenue, Gallup, NM 87301",Gallup,NM,87301,https://app.seniorplace.com/communities/show/2a46ff33-fbc5-451b-b20e-05c8f981ad7a,https://placement-crm-cdn.s3.us-west-2.amazonaws.com/_entities/communities/0ce80202e5c86e2afca6371fc42e008d.jpg,Assisted Living Community,Assisted Living Facility
Brio Assisted Living,"13101 Constitution Avenue Northeast, Albuquerque, NM 87112",Albuquerque,NM,87112,https://app.seniorplace.com/communities/show/9aa92cd5-8c52-4c98-a7c8-9d608be92212,https://placement-crm-cdn.s3.us-west-2.amazonaws.com/_entities/communities/078a764ce4966028d4b0083d5e518115.jpg,Assisted Living Community,Assisted Living Facility
Brookdale Santa Fe,"640 Alta Vista, Santa Fe, NM 87505",Santa Fe,NM,87505,https://app.seniorplace.com/communities/show/439425ca-239c-4bb9-a534-9aae26a47f70,https://app.seniorplace.com/api/files/public/0281f7b1-9c39-4b20-9e86-742def896caa,,
Brookdale Santa Fe,"640 Alta Vista Street, Santa Fe, NM 87505",Santa Fe,NM,87505,https://app.seniorplace.com/communities/show/b00dae17-478f-4d0b-b70a-185eb6fad31f,https://app.seniorplace.com/api/files/public/12129585-86c5-4544-84ce-7f68fa78402f,"Assisted Living Community, Independent Living","Independent Living, Assisted Living Facility"
Brookdale Tramway Ridge,"4900 Tramway Ridge Drive Northeast, Albuquerque, NM 87111",Albuquerque,NM,87111,https://app.seniorplace.com/communities/show/d1f74fcc-ab35-4c7a-8d35-99be506bb0ad,https://placement-crm-cdn.s3.us-west-2.amazonaws.com/_entities/communities/5767bc0644e2d01aa8153e27b83bd576.jpg,"Assisted Living Community, Memory Care","Assisted Living Facility, Memory Care"
Brookdale Valencia,"300 Valencia Drive Southeast, Albuquerque, NM 87108",Albuquerque,NM,87108,https://app.seniorplace.com/communities/show/9d51495c-37cb-4191-8701-3eab7d4eb89f,https://app.seniorplace.com/api/files/public/f69e79af-6f40-44d1-8752-4ee6d4e8264c,"Assisted Living Community, Home Care, Independent Living","Independent Living, Assisted Living Facility, Home Health"
Brookdale Valencia -- Duplicate Entry - Do Not Use,"300 Valencia Drive SE,, Albuquerque, NM 87108",Albuquerque,NM,87108,https://app.seniorplace.com/communities/show/bd53ae3d-f64d-4aa9-b94d-80db248e4ebe,https://app.seniorplace.com/api/files/public/e6e5c8c9-c979-47c4-94f6-f64ad70465d5,,
Buena Vista Senior Care,"8505 Rancho Santa Fe Place Northeast, Albuquerque, NM 87109",Albuquerque,NM,87109,https://app.seniorplace.com/communities/show/57934d4f-79da-4e7f-a630-bd449ec4deae,https://placement-crm-cdn.s3.us-west-2.amazonaws.com/_entities/communities/d16cb37c8786d66796aaee7d328cddbd.jpg,Assisted Living Home,Assisted Living Home
Camino Retirement Apartments,"12101 Lomas Boulevard Northeast, Albuquerque, NM 87112",Albuquerque,NM,87112,https://app.seniorplace.com/communities/show/fb6cdb19-ac62-4103-a9ff-892e87a6a0dc,https://placement-crm-cdn.s3.us-west-2.amazonaws.com/_entities/communities/d2550da805ca04f65abeedb615be2a7e.jpg,Assisted Living Community,Assisted Living Facility
Candlelight Assisted Living,"3200 Candlelight Drive Northeast, Albuquerque, NM 87111",Albuquerque,NM,87111,https://app.seniorplace.com/communities/show/7166e27e-f64f-464e-a632-8f0b3d808d1b,https://placement-crm-cdn.s3.us-west-2.amazonaws.com/_entities/communities/d95c2716523d61ffe2fd86d813f1998f.jpg,Assisted Living Home,Assisted Living Home
Carefree Living,"10916 Juan Tabo Place Northeast, Albuquerque, NM 87111",Albuquerque,NM,87111,https://app.seniorplace.com/communities/show/59188c46-8d45-4d98-8e7e-938d0ec83e80,https://placement-crm-cdn.s3.us-west-2.amazonaws.com/_entities/communities/9cdb26e8fef573a10fc831d6efdc1fea.jpg,Assisted Living Community,Assisted Living Facility
Casa Angelina South East,"900 Espanola Street Northeast, Albuquerque, NM 87110",Albuquerque,NM,87110,https://app.seniorplace.com/communities/show/939fd765-c21b-4dc2-8066-f5ae488e0f27,https://placement-crm-cdn.s3.us-west-2.amazonaws.com/_entities/communities/c5b1ca48fe71e4e0cee056d5a422befa.jpg,Assisted Living Home,Assisted Living Home
Casa Bella Memory Care,"2919 Spitz Street, Las Cruces, NM 88005",Las Cruces,NM,88005,https://app.seniorplace.com/communities/show/7f8c8dc9-02b4-426e-86df-97432714e30e,https://placement-crm-cdn.s3.us-west-2.amazonaws.com/_entities/communities/fb8f282c68a03697021e0ca3ddbbce7b.jpg,Assisted Living Community,Assisted Living Facility
Casa Contenta Assisted Living,"4805 Sombrerete Road Southeast, Rio Rancho, NM 87124",Rio Rancho,NM,87124,https://app.seniorplace.com/communities/show/4ede3561-9554-4b95-9f1e-296be4e72155,https://placement-crm-cdn.s3.us-west-2.amazonaws.com/_entities/communities/b873f724a88435edf661474038d29256.jpg,Assisted Living Home,Assisted Living Home
Casa De Paz,"4103 Las Cimbras Court Southeast, Rio Rancho, NM 87124",Rio Rancho,NM,87124,https://app.seniorplace.com/communities/show/c031b5db-dc48-41d0-bdc4-3e71082268c0,https://placement-crm-cdn.s3.us-west-2.amazonaws.com/_entities/communities/1d6a96c45d91eba82e02d6ba8da780ce.jpg,Assisted Living Home,Assisted Living Home
Casa De Shalom Dba Casa De Paz Village East,"604 Gral Trevino Drive Southeast, Rio Rancho, NM 87124",Rio Rancho,NM,87124,https://app.seniorplace.com/communities/show/c1aff435-8ea7-4041-8584-b16908e4eb8a,https://placement-crm-cdn.s3.us-west-2.amazonaws.com/_entities/communities/d1d40cf9d6e41679464e8555ae51d689.jpg,Assisted Living Home,Assisted Living Home
Casa Del Valle I,"2111 Raven Lane Southwest, Albuquerque, NM 87105",Albuquerque,NM,87105,https://app.seniorplace.com/communities/show/8bad2afc-0fea-4c00-87a9-46a33f938850,https://placement-crm-cdn.s3.us-west-2.amazonaws.com/_entities/communities/fe0903be5fb4ef5346e50d976cd1f004.jpg,Assisted Living Home,Assisted Living Home
Casa Mis Abuelos,"4916 Larchmont Drive Northeast, Albuquerque, NM 87111",Albuquerque,NM,87111,https://app.seniorplace.com/communities/show/d16f3d8c-243f-4e28-a58f-3866aba47fa9,https://placement-crm-cdn.s3.us-west-2.amazonaws.com/_entities/communities/efa200f5ea373862c8520f8dc9baed2b.jpg,Assisted Living Home,Assisted Living Home
"Casa Palo Duro (Active Solutions, Inc)","7808 Palo Duro Avenue Northeast, Albuquerque, NM 87110",Albuquerque,NM,87110,https://app.seniorplace.com/communities/show/a2d84720-ebde-47e2-a4f8-7c6d67ef39ba,https://placement-crm-cdn.s3.us-west-2.amazonaws.com/_entities/communities/656e32b43f576db07bd68d88048e66e8.jpg,Assisted Living Home,Assisted Living Home
Casa Sandia,"222 Sandia View Road Northwest, Sandia View, NM 87107",Sandia View,NM,87107,https://app.seniorplace.com/communities/show/be636652-19ec-4531-bd85-894c09bed44e,https://placement-crm-cdn.s3.us-west-2.amazonaws.com/_entities/communities/3a8ef5306ab430c8018dc567339a7890.jpg,Assisted Living Home,Assisted Living Home
Casa Sunview,"6519 Sun View Drive Northwest, Albuquerque, NM 87120",Albuquerque,NM,87120,https://app.seniorplace.com/communities/show/52b8dec0-f5c6-443c-901e-906005958f5c,https://placement-crm-cdn.s3.us-west-2.amazonaws.com/_entities/communities/b6718e5f9520477b3d1fce48b35d4603.jpg,Assisted Living Home,Assisted Living Home
Casita Senior Living,"5141 Georgia Place Northeast, Rio Rancho, NM 87144",Rio Rancho,NM,87144,https://app.seniorplace.com/communities/show/4e68b53d-5cb0-4402-b880-70faa309e554,,Assisted Living Home,Assisted Living Home
Casita Senior Living,"9846 Academy Street Northwest, Albuquerque, NM 87114",Albuquerque,NM,87114,https://app.seniorplace.com/communities/show/d194180a-90cd-4ebe-a998-2a6238a8ad66,https://placement-crm-cdn.s3.us-west-2.amazonaws.com/_entities/communities/7590b7f67d3409b9beddc8205b421aef.jpg,Assisted Living Home,Assisted Living Home
Christus Surgery Center Indian Wells,"2301 Indian Wells Road, Alamogordo, NM 88310",Alamogordo,NM,88310,https://app.seniorplace.com/communities/show/e5d1898c-fa91-40ee-9f45-cedd58059005,https://placement-crm-cdn.s3.us-west-2.amazonaws.com/_entities/communities/c7b7939b488c33b2e59df1c4d8c63db6.jpg,Assisted Living Home,Assisted Living Home
Cielos Abiertos Assisted Living,"3111 Toreador Drive Northeast, Albuquerque, NM 87111",Albuquerque,NM,87111,https://app.seniorplace.com/communities/show/27b50b72-2d5d-4fcc-81fe-c438aa05359b,https://placement-crm-cdn.s3.us-west-2.amazonaws.com/_entities/communities/4c14b53da5b9109c1422966e59cfa3fb.jpg,Assisted Living Home,Assisted Living Home
Compassionate Care Home,"2908 Indian Farm Lane Northwest, Albuquerque, NM 87107",Albuquerque,NM,87107,https://app.seniorplace.com/communities/show/81503ef4-918c-4bdc-a238-c0bdb162e283,https://placement-crm-cdn.s3.us-west-2.amazonaws.com/_entities/communities/675a9eb4d4e468e9d91f31529f9cf0ba.jpg,Assisted Living Home,Assisted Living Home
Comprehensive Surgical Care of Albuquerque,"4700 Jefferson Street Northeast, Albuquerque, NM 87109",Albuquerque,NM,87109,https://app.seniorplace.com/communities/show/8bf81395-2963-406c-aca4-8b9116be7d31,https://placement-crm-cdn.s3.us-west-2.amazonaws.com/_entities/communities/cc870179ab303556ccbee058e0655d41.jpg,Assisted Living Home,Assisted Living Home
Coronado Villa Retirement Resort - Resort Lifestyle Communities,"6900 San Vicente Ave NE, Albuquerque, NM 87109",Albuquerque,NM,87109,https://app.seniorplace.com/communities/show/f6184350-3ad2-4c24-b667-f2fb9d1223d6,https://app.seniorplace.com/api/files/public/82eec254-2921-460e-b7f9-187e15a9b3a0,Independent Living,Independent Living
Crane'S Roost Care Home,"104 South Park Avenue, Aztec, NM 87410",Aztec,NM,87410,https://app.seniorplace.com/communities/show/4a968e83-60a2-431a-bcc2-8dd9ddd5cfe0,https://placement-crm-cdn.s3.us-west-2.amazonaws.com/_entities/communities/3f0866ce4590aa8a482e42b2c7fd2e46.jpg,Assisted Living Community,Assisted Living Facility
Csnm Christus Surgery Center,"2559 Medical Drive, Alamogordo, NM 88310",Alamogordo,NM,88310,https://app.seniorplace.com/communities/show/1a435d70-b2d3-4e29-9f7d-342b16655c00,https://placement-crm-cdn.s3.us-west-2.amazonaws.com/_entities/communities/1887c598504b4e301bd705e745afe0ba.jpg,Assisted Living Community,Assisted Living Facility
Desert Peaks Assisted Living and Memory Care,"5525 Cottonbloom Court, Las Cruces, NM 88007",Las Cruces,NM,88007,https://app.seniorplace.com/communities/show/acddd540-3659-413f-9c2e-6f744795f10b,https://placement-crm-cdn.s3.us-west-2.amazonaws.com/_entities/communities/00f106f7fb6c32722e154426a9d9d37c.jpg,Assisted Living Community,Assisted Living Facility
Desert Peaks Surgery Center,"1131 Mall Drive, Las Cruces, NM 88011",Las Cruces,NM,88011,https://app.seniorplace.com/communities/show/37875d7f-45b2-48f2-b4cd-5f1079efd1c2,https://placement-crm-cdn.s3.us-west-2.amazonaws.com/_entities/communities/da99eab99d94af199ff7297cdb35c815.jpg,Assisted Living Community,Assisted Living Facility
El Castillo Life Plan Community,"250 E. Alameda St, Santa Fe, NM 87501",Santa Fe,NM,87501,https://app.seniorplace.com/communities/show/9396a0bb-6a38-4f53-8b96-2775857a4873,https://app.seniorplace.com/api/files/public/af040a32-a0fc-4096-aad3-cd48aa51e133,,
El Castillo Memory Center,"239 East De Vargas Street, Santa Fe, NM 87501",Santa Fe,NM,87501,https://app.seniorplace.com/communities/show/0a8e67c1-3f0e-4b83-84de-e4119885f660,https://placement-crm-cdn.s3.us-west-2.amazonaws.com/_entities/communities/a1da9e9f0d9f4f9e01cdf863b6184821.jpg,Assisted Living Home,Assisted Living Home
El Castillo Retirement Residences,"250 East Alameda Street, Santa Fe, NM 87501",Santa Fe,NM,87501,https://app.seniorplace.com/communities/show/c54e90bb-5312-435b-8037-b2e4f39a28d1,,"Assisted Living Community, Nursing Home","Assisted Living Facility, Skilled Nursing"
"Elite Senior Care, Llc - Whitney House","4000 Bermuda Drive Northeast, Albuquerque, NM 87111",Albuquerque,NM,87111,https://app.seniorplace.com/communities/show/b717785f-71b3-4fc9-bc48-0e7547962cc3,https://placement-crm-cdn.s3.us-west-2.amazonaws.com/_entities/communities/82b5f65c9c60ec19a1a0f272d680c4ce.jpg,Assisted Living Home,Assisted Living Home
Enchanted Living of New Mexico-Grande,"12501 Royal Point Court Northeast, Albuquerque, NM 87111",Albuquerque,NM,87111,https://app.seniorplace.com/communities/show/ef1af5bf-39a3-4b5d-9ca3-bf2270fadc1c,https://placement-crm-cdn.s3.us-west-2.amazonaws.com/_entities/communities/3758bc62bd7ae11a39d0e1a3b5442a18.jpg,Assisted Living Home,Assisted Living Home
Enchanted Living of New Mexico-Whitecloud,"2020 White Cloud Street Northeast, Albuquerque, NM 87112",Albuquerque,NM,87112,https://app.seniorplace.com/communities/show/b13554db-f8f3-4638-85e7-a5faee447f84,https://placement-crm-cdn.s3.us-west-2.amazonaws.com/_entities/communities/babcf2697289549e21962e575490e521.jpg,Assisted Living Home,Assisted Living Home
Everest Assisted Living Home,"7524 Bear Canyon Road Northeast, Bear Canyon, NM 87109",Bear Canyon,NM,87109,https://app.seniorplace.com/communities/show/5d654c04-4d7c-428f-97ae-f734fbeb0255,https://placement-crm-cdn.s3.us-west-2.amazonaws.com/_entities/communities/9311d13e6c2831ccde0f1af4368d9544.jpg,Assisted Living Home,Assisted Living Home
Evershine Care Assisted Living,"1213 Juniper Avenue, Las Cruces, NM 88001",Las Cruces,NM,88001,https://app.seniorplace.com/communities/show/767f17c9-5920-4de6-8a3e-587a2cd89bf7,https://placement-crm-cdn.s3.us-west-2.amazonaws.com/_entities/communities/5caad4c1d11e745562efff9ea825695e.jpg,Assisted Living Home,Assisted Living Home
Eye Surgery Centers of Nm Dba Surgery Center of Santa Fe,"2947 Rodeo Park Drive East, Santa Fe, NM 87505",Santa Fe,NM,87505,https://app.seniorplace.com/communities/show/df34df36-6c69-42da-bdd2-8247152854c4,https://placement-crm-cdn.s3.us-west-2.amazonaws.com/_entities/communities/f4469524a7e271e9bfb7ca66dc640ded.jpg,Assisted Living Home,Assisted Living Home
Fairwinds Rio Rancho - Do Not Refer for Now - Not Signing Contract,"920 Riverview Drive Southeast, Rio Rancho, NM 87124",Rio Rancho,NM,87124,https://app.seniorplace.com/communities/show/011ea08f-8259-436e-a7e1-603f7a888b7b,https://app.seniorplace.com/api/files/public/1d17e5ff-98c9-44af-9d2e-6e709f97d6f8,"Assisted Living Community, Independent Living","Independent Living, Assisted Living Facility"
Farmington Alf Llc Dba Three Rivers Estates,"981 West Broadway, Farmington, NM 87401",Farmington,NM,87401,https://app.seniorplace.com/communities/show/87e3a9fc-d0e1-4c3c-852a-1c90c1b8b0a0,https://placement-crm-cdn.s3.us-west-2.amazonaws.com/_entities/communities/dff4bdf728101b3461bfa741fe075ffb.jpg,Assisted Living Community,Assisted Living Facility
Friendship Gardens of Albuquerque,"1909 Morris Street Northeast, Albuquerque, NM 87112",Albuquerque,NM,87112,https://app.seniorplace.com/communities/show/156644c1-f4f1-46f3-8417-eb5717357e78,https://placement-crm-cdn.s3.us-west-2.amazonaws.com/_entities/communities/7ccb526f95451d2b646f3cda39963dd6.jpg,Assisted Living Home,Assisted Living Home
Galaxia Park Arca,"10768 Galaxia Park Drive Northwest, Albuquerque, NM 87114",Albuquerque,NM,87114,https://app.seniorplace.com/communities/show/e45d5bc0-c0b0-4fdb-a68f-407400a55183,https://placement-crm-cdn.s3.us-west-2.amazonaws.com/_entities/communities/fe18c245b048aa2f1c12e2ed57f8726f.jpg,Assisted Living Home,Assisted Living Home
Genney'S Senior Care,"1504 37th Street Southeast, Rio Rancho, NM 87124",Rio Rancho,NM,87124,https://app.seniorplace.com/communities/show/37e699ea-41a0-45fc-bb05-8af4f4969932,https://placement-crm-cdn.s3.us-west-2.amazonaws.com/_entities/communities/658cd99e437909cf1d4161fbed0dd494.jpg,Assisted Living Home,Assisted Living Home
Good Life Assisted Living and Memory Care,"108 Vision Drive, Ruidoso, NM 88345",Ruidoso,NM,88345,https://app.seniorplace.com/communities/show/71c7d5a1-22d7-4362-b86d-0f09daef565a,https://placement-crm-cdn.s3.us-west-2.amazonaws.com/_entities/communities/cc233c723c986693707fad846e83ef18.jpg,Assisted Living Community,Assisted Living Facility
Good Life Memory Care,"800 Juan Andres Road, Los Lunas, NM 87031",Los Lunas,NM,87031,https://app.seniorplace.com/communities/show/7a746265-720d-429d-96bc-94dfc57dbadc,https://placement-crm-cdn.s3.us-west-2.amazonaws.com/_entities/communities/bf91a737e9bb65152d9579d370de9d04.jpg,Assisted Living Community,Assisted Living Facility
Good Life Senior Living and Memory Care,"1706 North 2nd Street, Lovington, NM 88260",Lovington,NM,88260,https://app.seniorplace.com/communities/show/85b590a4-8b13-4b41-9904-0d87aa947a90,https://placement-crm-cdn.s3.us-west-2.amazonaws.com/_entities/communities/562c2d6d0ad29239348509fc7fda3036.jpg,Assisted Living Community,Assisted Living Facility
Good Life Senior Living and Memory Care,"906 Pistachio Trail, Artesia, NM 88210",Artesia,NM,88210,https://app.seniorplace.com/communities/show/a4a0bdfa-5cb3-40c0-bda6-2df10c184774,,Assisted Living Community,Assisted Living Facility
Good Life Senior Living and Memory Care,"601 West Cherry Lane, Carlsbad, NM 88220",Carlsbad,NM,88220,https://app.seniorplace.com/communities/show/ebf524de-6982-4c40-b726-c0421ea4c513,https://placement-crm-cdn.s3.us-west-2.amazonaws.com/_entities/communities/afe9c7275c53d4007c9f9656e14e4578.jpg,Assisted Living Community,Assisted Living Facility
Good Life Senior Living and Memory Care,"1650 Los Lentes Road Northeast, Los Lunas, NM 87031",Los Lunas,NM,87031,https://app.seniorplace.com/communities/show/09c6d910-5900-4973-a42f-55c6c35e12de,https://placement-crm-cdn.s3.us-west-2.amazonaws.com/_entities/communities/827f36c21132c302e8b4e6d2e3dc6b70.jpg,Assisted Living Community,Assisted Living Facility
Good Life Senior Living and Memory Care,"801 West Cherry Lane, Carlsbad, NM 88220",Carlsbad,NM,88220,https://app.seniorplace.com/communities/show/53e90172-b85f-4678-8a89-f248b73718c6,https://placement-crm-cdn.s3.us-west-2.amazonaws.com/_entities/communities/0ddb04ae815145110517a59e73bd3859.jpg,Assisted Living Community,Assisted Living Facility
Good Samaritan Society - Las Cruces Village,"3035 Terrace Drive, Las Cruces, NM 88011",Las Cruces,NM,88011,https://app.seniorplace.com/communities/show/9154a0ce-212a-441e-8575-6246c7750dae,,Assisted Living Community,Assisted Living Facility
Good Samaritan Society Home Care,"3025 Terrace Drive, Las Cruces, NM 88011",Las Cruces,NM,88011,https://app.seniorplace.com/communities/show/ad433016-5d42-4404-958c-c69426c7baac,,"Assisted Living Community, Home Care, Nursing Home","Continuing Care Retirement Community, Skilled Nursing, Home Health"
Goodlife Senior Living and Memory Care,"2013 West 18th Street, Portales, NM 88130",Portales,NM,88130,https://app.seniorplace.com/communities/show/5f87ba7f-a216-4f7a-94e5-d8fcb0df41c2,https://placement-crm-cdn.s3.us-west-2.amazonaws.com/_entities/communities/e6d0b7d252a1fdecfc7254be60f8a752.jpg,Assisted Living Community,Assisted Living Facility
Grace Adult Care Home,"7100 Carriage Road Northeast, Albuquerque, NM 87109",Albuquerque,NM,87109,https://app.seniorplace.com/communities/show/93026d13-f013-4197-a87e-80aae0e87eb9,https://placement-crm-cdn.s3.us-west-2.amazonaws.com/_entities/communities/8eef3f98b429353ecf4261b8768f434f.jpg,Assisted Living Home,Assisted Living Home
Haciendas at Grace Village Unit B,"2802 Corte Dios, Las Cruces, NM 88011",Las Cruces,NM,88011,https://app.seniorplace.com/communities/show/3700ba28-1e8c-4c09-8f30-e3d675f7defa,https://placement-crm-cdn.s3.us-west-2.amazonaws.com/_entities/communities/4281d25e54dcea9ea163066b7e4eb008.jpg,Assisted Living Community,Assisted Living Facility
Hannett House,"4720 Hannett Avenue Northeast, Albuquerque, NM 87110",Albuquerque,NM,87110,https://app.seniorplace.com/communities/show/770e9a55-1547-4a89-a3b9-a06629d06d20,https://placement-crm-cdn.s3.us-west-2.amazonaws.com/_entities/communities/538811c4cdd9f6d55e715e256250859e.jpg,Assisted Living Home,Assisted Living Home
Haven Care - Aspen House,"9701 Camino Del Sol Northeast, Albuquerque, NM 87111",Albuquerque,NM,87111,https://app.seniorplace.com/communities/show/cf8c0654-706c-4b67-9c43-d3fa9c34a96a,https://placement-crm-cdn.s3.us-west-2.amazonaws.com/_entities/communities/4dadd5806a3a376650bd1853a766e1dc.jpg,Assisted Living Home,Assisted Living Home
Haven Care - Birch House,"5320 Van Christopher Drive Northeast, Albuquerque, NM 87111",Albuquerque,NM,87111,https://app.seniorplace.com/communities/show/08838261-9968-4634-b93f-68d13b343682,https://placement-crm-cdn.s3.us-west-2.amazonaws.com/_entities/communities/fc7cdc407e2009d502ce49e4748fd02c.jpg,Assisted Living Home,Assisted Living Home
Haven Care - Cottonwood House,"5305 Queens Court Northeast, Albuquerque, NM 87109",Albuquerque,NM,87109,https://app.seniorplace.com/communities/show/f5243023-631b-42b2-862c-25d15b11b29b,https://placement-crm-cdn.s3.us-west-2.amazonaws.com/_entities/communities/ee7496c90f5a929e775cfb179f9623b6.jpg,Assisted Living Home,Assisted Living Home
Haven Care - Dogwood House,"4014 Saint Andrews Drive Southeast, Rio Rancho, NM 87124",Rio Rancho,NM,87124,https://app.seniorplace.com/communities/show/2e84226d-07ab-438e-b9f6-25ee2d762a6a,https://placement-crm-cdn.s3.us-west-2.amazonaws.com/_entities/communities/13dacacd38933e2f730a5771d4867c75.jpg,Assisted Living Home,Assisted Living Home
Haven Care - Evergreen House,"10400 Calle Contento, Albuquerque, NM 87114",Albuquerque,NM,87114,https://app.seniorplace.com/communities/show/d0a849f0-667a-486f-86df-49d8cc148834,https://placement-crm-cdn.s3.us-west-2.amazonaws.com/_entities/communities/2287ac2516b2c53f7630ad06099f3fd5.jpg,Assisted Living Home,Assisted Living Home
Haven Care - Fir House,"10405 Los Suenos Court Northwest, Albuquerque, NM 87114",Albuquerque,NM,87114,https://app.seniorplace.com/communities/show/f5121679-d0b5-4532-98b6-73584d7642bc,https://placement-crm-cdn.s3.us-west-2.amazonaws.com/_entities/communities/4bc6d5fdb3078488e26ab696183016d6.jpg,Assisted Living Home,Assisted Living Home
Heartfelt Manor,"2210 East Pine Lodge Road, Roswell, NM 88201",Roswell,NM,88201,https://app.seniorplace.com/communities/show/1e365cfa-6f16-4e30-9904-6d31f4b92ea4,https://placement-crm-cdn.s3.us-west-2.amazonaws.com/_entities/communities/a47588ac004ac0998153e5f8cb820a4c.jpg,"Assisted Living Home, Memory Care","Assisted Living Home, Memory Care"
High Resort Eye Surgery Center,"4100 High Resort Boulevard Southeast, High Resort, NM 87124",High Resort,NM,87124,https://app.seniorplace.com/communities/show/95a7128c-9e7f-4e79-9f24-6f91cb0ee372,https://placement-crm-cdn.s3.us-west-2.amazonaws.com/_entities/communities/d9c2c9ad3c640660df270ac03a64b08e.jpg,Assisted Living Home,Assisted Living Home
"Hilldale House (Active Solutions, Inc)","14528 Hilldale Road Northeast, Albuquerque, NM 87123",Albuquerque,NM,87123,https://app.seniorplace.com/communities/show/db7073fa-05b9-49b9-92cb-7a78c6c116d3,https://placement-crm-cdn.s3.us-west-2.amazonaws.com/_entities/communities/566834edfefe282c21e860abbe7aa199.jpg,Assisted Living Home,Assisted Living Home
Holiday Bear Canyon Estates,"4440 Morris St. NE, Albquerque, NM 87111",Albquerque,NM,87111,https://app.seniorplace.com/communities/show/20fa4f34-87ea-4029-a1cc-098ce2cc6f99,https://app.seniorplace.com/api/files/public/f7a14149-6bf5-4d87-ad7d-1f3e144d1b52,,
Home Assisted Living,"5500 Sonata Drive Northeast, Albuquerque, NM 87111",Albuquerque,NM,87111,https://app.seniorplace.com/communities/show/075b52bf-0609-43bc-ba87-83feed61d341,https://placement-crm-cdn.s3.us-west-2.amazonaws.com/_entities/communities/5649639545fdf611dca881f28713ff8a.jpg,Assisted Living Home,Assisted Living Home
Kingston Residence of Santa Fe,"2400 Legacy Court, Santa Fe, NM 87507",Santa Fe,NM,87507,https://app.seniorplace.com/communities/show/48142078-f30f-4d19-8d36-32b98d22a4d1,https://app.seniorplace.com/api/files/public/e455edd4-06d0-44b6-80fe-9e9889b9eb57,"Assisted Living Community, Home Care, Independent Living","Independent Living, Assisted Living Facility, Home Health"
Kingston Residence of Santa Fe,"2400 Legacy Court, Santa Fe, NM 87507",Santa Fe,NM,87507,https://app.seniorplace.com/communities/show/c8dcbf84-83b1-4ef5-bf03-4efa06f66b66,https://app.seniorplace.com/api/files/public/21062da2-8439-4748-ac05-c41bd6180ea0,,
La Posada Assisted Living,"299 Montana Avenue, Las Cruces, NM 88005",Las Cruces,NM,88005,https://app.seniorplace.com/communities/show/7af73e01-8243-40ba-93d8-01612a4ad5f5,,"Assisted Living Community, Home Care","Assisted Living Facility, Hospice"
La Vida Llena/Do Not Refer,"10501 Lagrima De Oro Road Northeast, Albuquerque, NM 87111",Albuquerque,NM,87111,https://app.seniorplace.com/communities/show/a3ade72e-ce2f-488e-a648-3b9c8e61df7e,https://app.seniorplace.com/api/files/public/4bc4d859-792e-4837-9dc8-981a9311ce64,"Assisted Living Community, Home Care, Nursing Home","Continuing Care Retirement Community, Assisted Living Facility, Skilled Nursing, Home Health"
Las Soleras Senior Living - Spectrum Retirement,"5011 Las Soleras Dr, Santa Fe, NM 87507",Santa Fe,NM,87507,https://app.seniorplace.com/communities/show/d53309b3-c38b-4857-85a7-60e3c5182dbf,https://app.seniorplace.com/api/files/public/d96f65e7-8251-4c66-a5d6-37329f53198f,,
Life Spire Assisted Living,"9151 High Assets Way Northwest, Albuquerque, NM 87120",Albuquerque,NM,87120,https://app.seniorplace.com/communities/show/8d225982-f52a-4e70-adba-b3cb767fd01c,https://placement-crm-cdn.s3.us-west-2.amazonaws.com/_entities/communities/10bd4db63f5e960f6ee3e0f828c3ecbd.jpg,"Assisted Living Community, Home Care","Assisted Living Facility, Home Health"
Life Spire Assisted Living of North Albuquerque Acres,"7500 Oakland Avenue Northeast, Albuquerque, NM 87113",Albuquerque,NM,87113,https://app.seniorplace.com/communities/show/97b9e44f-46e2-436a-9b95-965b5ffb49a6,https://placement-crm-cdn.s3.us-west-2.amazonaws.com/_entities/communities/bfc79d524affc7779e9795cf49171e74.jpg,Assisted Living Community,Assisted Living Facility
Life Spire Assisted Living of Rio Rancho,"1001 24th Street Southeast, Rio Rancho, NM 87124",Rio Rancho,NM,87124,https://app.seniorplace.com/communities/show/190331ed-9688-4658-9987-719cfd5ca551,https://placement-crm-cdn.s3.us-west-2.amazonaws.com/_entities/communities/b30aca45eb048868ea49632536d8a45a.jpg,Assisted Living Community,Assisted Living Facility
Little Roses Home Care of the South West,"4917 Regina Circle Northwest, Albuquerque, NM 87105",Albuquerque,NM,87105,https://app.seniorplace.com/communities/show/83cc7b14-c41b-4fbf-8241-4bcf03fcaded,https://placement-crm-cdn.s3.us-west-2.amazonaws.com/_entities/communities/8b4c634609c9397040dbdd424ee66950.jpg,Assisted Living Home,Assisted Living Home
Lohman Endoscopy Center,"4381 East Lohman Avenue, Las Cruces, NM 88011",Las Cruces,NM,88011,https://app.seniorplace.com/communities/show/a880696f-86d7-44b3-b22c-94ad4adff1f4,,Assisted Living Home,Assisted Living Home
Los Alamos Assisted Living,"1010 Sombrillo Court, Los Alamos, NM 87544",Los Alamos,NM,87544,https://app.seniorplace.com/communities/show/691e057d-4069-4dde-bff4-4574ea34b98c,https://placement-crm-cdn.s3.us-west-2.amazonaws.com/_entities/communities/41e8fdce79e355c1b88827f87ba980fd.jpg,Assisted Living Community,Assisted Living Facility
Los Andes Assisted Living,"8501 Rancho Del Cerro Drive Northeast, Albuquerque, NM 87113",Albuquerque,NM,87113,https://app.seniorplace.com/communities/show/6589e4b8-efab-4f17-ad16-d113c032eb0d,https://placement-crm-cdn.s3.us-west-2.amazonaws.com/_entities/communities/f3f22f3f63e9a48fd05bcd83c9c7de94.jpg,Assisted Living Home,Assisted Living Home
Los Soleras Retirement Living - Spectrum Retirment,"5011 Las Soleras Drive, Sante Fe, NM 87507",Sante Fe,NM,87507,https://app.seniorplace.com/communities/show/3b28bc80-e3f9-4d14-b20e-d968359baed7,https://app.seniorplace.com/api/files/public/b26916c4-7c93-43aa-bc22-0143abccc7c7,"Assisted Living Community, Independent Living","Independent Living, Assisted Living Facility"
Los Soleras Retirement Living-Spectrum Retirement,"5011 Las Soleras Drive, Santa Fe, NM 87507",Santa Fe,NM,87507,https://app.seniorplace.com/communities/show/ef6d03c8-a838-4a21-8e4e-809a66e3f70c,https://app.seniorplace.com/api/files/public/b5b8f3f3-36ee-4f1e-98ce-0dd348ffc80c,"Assisted Living Community, Independent Living","Independent Living, Assisted Living Facility"
Marler Manor,"3712 General Patch Street Northeast, Albuquerque, NM 87111",Albuquerque,NM,87111,https://app.seniorplace.com/communities/show/cceb0675-4c08-44bf-a70c-dcf2fbf1a816,https://placement-crm-cdn.s3.us-west-2.amazonaws.com/_entities/communities/4e8bd159b95a9b947fc78d94d6885418.jpg,Assisted Living Home,Assisted Living Home
Meadow City Assisted Living,"813 4th Street, Las Vegas, NM 87701",Las Vegas,NM,87701,https://app.seniorplace.com/communities/show/b23ed5a1-35df-43b7-bdac-fac765bff90b,https://placement-crm-cdn.s3.us-west-2.amazonaws.com/_entities/communities/6bf2b34b70ffc966627b1de67bc64c4b.jpg,Assisted Living Home,Assisted Living Home
Millie'S Assisted Living Community,"600 North Hudson Street, Silver City, NM 88061",Silver City,NM,88061,https://app.seniorplace.com/communities/show/bba3cfa9-b0dd-44ac-b661-a24b147b28e3,https://placement-crm-cdn.s3.us-west-2.amazonaws.com/_entities/communities/12df708612938a3f433133de25def7a2.jpg,Assisted Living Community,Assisted Living Facility
Montecito Santa Fe Memory Care Community (The),"450 Rodeo Road, Santa Fe, NM 87505",Santa Fe,NM,87505,https://app.seniorplace.com/communities/show/994f3889-188d-4dfb-b80f-de094ad7b5bd,https://placement-crm-cdn.s3.us-west-2.amazonaws.com/_entities/communities/d6307542912fcb37bc8ae8c705124e52.jpg,Assisted Living Community,Assisted Living Facility
Morada Albuquerque,"1620 Indian School Road Northeast, Albuquerque, NM 87102",Albuquerque,NM,87102,https://app.seniorplace.com/communities/show/e9a73599-a2e1-44e3-9996-3548bbdde451,https://placement-crm-cdn.s3.us-west-2.amazonaws.com/_entities/communities/c637a723b66319971ada96acea3e1ae7.jpg,"Assisted Living Community, Memory Care","Assisted Living Facility, Memory Care"
Morada Quintessence,"7101 Eubank Boulevard Northeast, Albuquerque, NM 87122",Albuquerque,NM,87122,https://app.seniorplace.com/communities/show/f8363a39-7a36-4b33-b1c8-3461bce4574c,https://app.seniorplace.com/api/files/public/ef1711c0-9d42-4d73-9dd8-93d15a239be8,Assisted Living Community,Assisted Living Facility
Morningstar Assisted Living & Memory Care Rio Rancho,"2301 Golf Course Road Southeast, Rio Rancho, NM 87124",Rio Rancho,NM,87124,https://app.seniorplace.com/communities/show/fae9cedd-57a9-42a6-80f9-689ab7451b2c,https://app.seniorplace.com/api/files/public/ba0f3cce-8c1d-49fb-8767-b0c11f1fbe2b,"Assisted Living Community, Memory Care","Assisted Living Facility, Memory Care"
Morningstar Assisted Living and Memory Care of Santa Fe,"2041 South Pacheco Street, Santa Fe, NM 87505",Santa Fe,NM,87505,https://app.seniorplace.com/communities/show/6cbb9e41-48f3-4c01-9b0d-4897f749297a,https://placement-crm-cdn.s3.us-west-2.amazonaws.com/_entities/communities/891a480ab4cfe09d05fedbf8cf58ca81.jpg,"Assisted Living Community, Memory Care","Assisted Living Facility, Memory Care"
Morningstar Memory Care at North Ridge,"8101 Palomas Ave NE, Albuquerque, NM 87109",Albuquerque,NM,87109,https://app.seniorplace.com/communities/show/470d47d6-1a7e-48d8-b0ba-d68056d6e291,https://app.seniorplace.com/api/files/public/1781900e-3ab2-4e90-9c93-1cd3e16b1d2e,,
Morningstar Memory Care at North Ridge,"8101 Palomas Avenue Northeast, Albuquerque, NM 87109",Albuquerque,NM,87109,https://app.seniorplace.com/communities/show/0ef9c156-ada7-46e3-b480-94b7c8ae7564,https://placement-crm-cdn.s3.us-west-2.amazonaws.com/_entities/communities/38b8d0383ae63b167f028995b2a7bc6a.jpg,"Assisted Living Community, Memory Care","Assisted Living Facility, Memory Care"
Morningstar of Albuquerque,"8051 Palomas Avenue Northeast, Albuquerque, NM 87109",Albuquerque,NM,87109,https://app.seniorplace.com/communities/show/b1a6bbce-5340-4fee-9566-2a8fa159dfdf,https://placement-crm-cdn.s3.us-west-2.amazonaws.com/_entities/communities/715107129ff1a167f8ca81f940d1dfe6.jpg,Assisted Living Community,Assisted Living Facility
Mountain View Manor,"4708 Driftwood Avenue Northwest, Albuquerque, NM 87114",Albuquerque,NM,87114,https://app.seniorplace.com/communities/show/be299dcc-9c4f-4259-884f-4ebeccec6f1b,https://placement-crm-cdn.s3.us-west-2.amazonaws.com/_entities/communities/1e99c9ae76e4422e36ba819fad288e29.jpg,Assisted Living Home,Assisted Living Home
Muros De Salvacion,"10405 Theresa Place Northeast, Albuquerque, NM 87111",Albuquerque,NM,87111,https://app.seniorplace.com/communities/show/a6b14d3d-2239-4467-b793-5c500c068631,https://placement-crm-cdn.s3.us-west-2.amazonaws.com/_entities/communities/cc560b0259b6850feaef45761af55b56.jpg,Assisted Living Home,Assisted Living Home
New Mexico Surgery Center Multi-Specialty,"2400 Unser Boulevard Southeast, Rio Rancho, NM 87124",Rio Rancho,NM,87124,https://app.seniorplace.com/communities/show/d9b177b9-4aa1-4c36-90ac-06c660e6a20e,https://placement-crm-cdn.s3.us-west-2.amazonaws.com/_entities/communities/1a7141d80485a041062010ac0b46f426.jpg,Assisted Living Community,Assisted Living Facility
Night N Gail Assisted Living,"7621 Prospect Avenue Northeast, Albuquerque, NM 87110",Albuquerque,NM,87110,https://app.seniorplace.com/communities/show/849cf28f-878e-486d-a630-72b472c9de01,https://placement-crm-cdn.s3.us-west-2.amazonaws.com/_entities/communities/6edb9c0700c10eee4d65fcf4b27aecb2.jpg,Assisted Living Home,Assisted Living Home
Northgate Unit of Lakeview Christian Home,"1905 West Pierce Street, Carlsbad, NM 88220",Carlsbad,NM,88220,https://app.seniorplace.com/communities/show/980b2632-11f6-4adc-9a84-9cfce80e8650,https://placement-crm-cdn.s3.us-west-2.amazonaws.com/_entities/communities/7835a31b46d69435e341eed015d90c48.jpg,"Assisted Living Community, Nursing Home","Continuing Care Retirement Community, Assisted Living Facility, Skilled Nursing"
Palmilla Senior Living - Spectrum Retirement,"10301 Golf Course Road Northwest, Albuquerque, NM 87114",Albuquerque,NM,87114,https://app.seniorplace.com/communities/show/8dea7f87-f778-4646-b315-ef11ef7a3dcc,https://app.seniorplace.com/api/files/public/4404324c-d729-4ae1-8d8f-05d3c1e89041,"Assisted Living Community, Independent Living, Memory Care","Independent Living, Assisted Living Facility, Memory Care"
Paloma Landing - Hawthorn Community,"8301 Palomas Avenue NE, Albuqerque, NM 87109",Albuqerque,NM,87109,https://app.seniorplace.com/communities/show/9c0cf112-d80a-479e-9c0e-56751652ed58,https://app.seniorplace.com/api/files/public/6c3c4d8c-a3cd-4997-9dfc-af3c2b220f6a,Independent Living,Independent Living
Park Avenue Assisted Living,"1711 Park Avenue Southwest, Albuquerque, NM 87104",Albuquerque,NM,87104,https://app.seniorplace.com/communities/show/d96bc5f9-5d55-40c1-9c67-8a6eec4bb74c,https://placement-crm-cdn.s3.us-west-2.amazonaws.com/_entities/communities/3fa1d34c24bb067d31a2a2f557e549f9.jpg,Assisted Living Home,Assisted Living Home
Peachtree Village Retirement Community,"1301 W Country Club Rd, Roswell, NM 88201",Roswell,NM,88201,https://app.seniorplace.com/communities/show/bbd2e9c2-3317-4322-999c-aaf666c9adf1,https://app.seniorplace.com/api/files/public/b756a04d-f7fa-4e6d-887b-b77ccccdf583,,
Presbyterian Hospice Inpatient Unit,"8300 Constitution Avenue Northeast, Albuquerque, NM 87110",Albuquerque,NM,87110,https://app.seniorplace.com/communities/show/96e4f419-4649-486c-a49d-e478eb1390d1,https://placement-crm-cdn.s3.us-west-2.amazonaws.com/_entities/communities/3ae82b2a894050fa4d03b37816e8d699.jpg,"Assisted Living Community, Home Care","Assisted Living Facility, Hospice"
Presbyterian Hospital Asc,"201 Cedar Street Southeast, Albuquerque, NM 87106",Albuquerque,NM,87106,https://app.seniorplace.com/communities/show/6be6ef3c-4100-47c7-b849-c6ac2e8ad5cc,,Assisted Living Home,Assisted Living Home
Pueblo of Isleta Assisted Living & Mem Care Facil,"1001 Tribal Road 140, Isleta Village Proper, NM 87022",Isleta Village Proper,NM,87022,https://app.seniorplace.com/communities/show/78df7906-3007-4c44-b17b-462fbfaef23b,https://placement-crm-cdn.s3.us-west-2.amazonaws.com/_entities/communities/fff6e9803a2cba754694cc38ce7c4887.jpg,Assisted Living Community,Assisted Living Facility
Ravenna Assisted Living,"3051 Twin Oaks Drive Northwest, Albuquerque, NM 87120",Albuquerque,NM,87120,https://app.seniorplace.com/communities/show/3f7ee94b-13cc-4cd6-9a5d-598b42ffed5e,https://placement-crm-cdn.s3.us-west-2.amazonaws.com/_entities/communities/1d8e61a009a3377ec611cc8a43ddd0e5.jpg,"Assisted Living Community, Assisted Living Home","Assisted Living Facility, Assisted Living Home"
Retreat (The),"4075 Jackie Road Southeast, Rio Rancho, NM 87124",Rio Rancho,NM,87124,https://app.seniorplace.com/communities/show/428a9ab5-1af0-4d3c-ab11-5e449b4de742,https://app.seniorplace.com/api/files/public/19edc703-a94a-4b35-8143-b32c4f34aeaa,Assisted Living Community,Assisted Living Facility
Retreat Gardens,"4100 Jackie Road Southeast, Rio Rancho, NM 87124",Rio Rancho,NM,87124,https://app.seniorplace.com/communities/show/b6f3f0ff-5067-44a7-a6ed-7e0996d570ec,https://placement-crm-cdn.s3.us-west-2.amazonaws.com/_entities/communities/96660fdb6f0bada3dfee76db77e7ca96.jpg,Assisted Living Community,Assisted Living Facility
Retreat Villas,"4060 Jackie Road Southeast, Rio Rancho, NM 87124",Rio Rancho,NM,87124,https://app.seniorplace.com/communities/show/392f8f32-42fa-47d6-a19a-02477425a398,https://placement-crm-cdn.s3.us-west-2.amazonaws.com/_entities/communities/62862dd5f7c67821fde49e5293435cd0.jpg,Assisted Living Community,Assisted Living Facility
Roberta'S Family Care Home,"1642 New Mexico 386, Anton Chico, NM 87711",Anton Chico,NM,87711,https://app.seniorplace.com/communities/show/c42ac587-9e7d-43be-bf93-7c891648bf78,https://placement-crm-cdn.s3.us-west-2.amazonaws.com/_entities/communities/27f304ccb53ad75ac523ce077b186451.jpg,Assisted Living Home,Assisted Living Home
Roswell Surgery Center,"1400 West Country Club Road, Roswell, NM 88201",Roswell,NM,88201,https://app.seniorplace.com/communities/show/88bc6593-b328-4968-82a9-55d59ac303bd,https://placement-crm-cdn.s3.us-west-2.amazonaws.com/_entities/communities/364b3fe68cc05e9cfe3f782f030fd8c7.jpg,Assisted Living Home,Assisted Living Home
Sandia View Bosque Trails,"4631 Mi Cordelia Drive Northwest, Albuquerque, NM 87120",Albuquerque,NM,87120,https://app.seniorplace.com/communities/show/8e7b8efb-f6fc-41c8-9cda-2d4de51ba2c1,https://placement-crm-cdn.s3.us-west-2.amazonaws.com/_entities/communities/4078c48a93489e4dd730dcf7c086cfd6.jpg,Assisted Living Home,Assisted Living Home
Sandia View Fountain Hill,"4551 Vista Fuente Road Northwest, Albuquerque, NM 87114",Albuquerque,NM,87114,https://app.seniorplace.com/communities/show/9a3a0e60-0264-4714-86ba-1b7ce109c2f9,https://placement-crm-cdn.s3.us-west-2.amazonaws.com/_entities/communities/5d5285ccf2cbcb92e7617761ab0798c4.jpg,Assisted Living Community,Assisted Living Facility
Sandia Vista Senior Living - Stellar Living,"500 Paisano St NE, Albuquerque, NM 87123",Albuquerque,NM,87123,https://app.seniorplace.com/communities/show/1d0a2b18-64b5-43e5-bbb7-79c35023bbb5,https://app.seniorplace.com/api/files/public/852ccbec-d509-4e73-b635-5d542d95773c,Independent Living,Independent Living
Senior Living Systems Assisted Living Program,"3214 New Mexico 47, Los Lunas, NM 87031",Los Lunas,NM,87031,https://app.seniorplace.com/communities/show/e507ffe9-1ad4-491e-abcb-1a2650d3b2e0,https://placement-crm-cdn.s3.us-west-2.amazonaws.com/_entities/communities/b9942eb818772e8d2300390d31861d34.jpg,Assisted Living Community,Assisted Living Facility
Seniorcare Llc - Kriss House,"1813 Kriss Place Northeast, Albuquerque, NM 87112",Albuquerque,NM,87112,https://app.seniorplace.com/communities/show/489d5a9d-274f-49ed-8830-e57a6b66f294,https://placement-crm-cdn.s3.us-west-2.amazonaws.com/_entities/communities/223ffdc0916cbbbe2b9558534c484c9d.jpg,Assisted Living Home,Assisted Living Home
Seniorcare Llc - Solano House,"1419 Solano Drive Northeast, Albuquerque, NM 87110",Albuquerque,NM,87110,https://app.seniorplace.com/communities/show/0196084f-a6a6-4b0c-a577-96d3c10c79f1,https://placement-crm-cdn.s3.us-west-2.amazonaws.com/_entities/communities/dd98de3c9947a4386d67b0935ee0acb4.jpg,Assisted Living Home,Assisted Living Home
Seniorcare Llc - Wisconsin House,"2957 Wisconsin Street Northeast, Albuquerque, NM 87110",Albuquerque,NM,87110,https://app.seniorplace.com/communities/show/7dc37a31-a6ec-46e2-8ab0-e9f42d209587,https://placement-crm-cdn.s3.us-west-2.amazonaws.com/_entities/communities/7509b7879dd64c0c886f877a734ad5fd.jpg,Assisted Living Home,Assisted Living Home
Serenity Home Assisted Living,"705 Monte Alto Drive Northeast, Albuquerque, NM 87123",Albuquerque,NM,87123,https://app.seniorplace.com/communities/show/2e1e63d0-2ca0-4ad2-ac0f-11c4e493aaaa,https://placement-crm-cdn.s3.us-west-2.amazonaws.com/_entities/communities/2439207d55d8a8d85a2c0845a4ff17c7.jpg,Assisted Living Home,Assisted Living Home
Shalom Assisted Living,"8711 Delamar Avenue Northeast, Albuquerque, NM 87111",Albuquerque,NM,87111,https://app.seniorplace.com/communities/show/af220987-b238-4cea-b799-8e32055bb72c,https://placement-crm-cdn.s3.us-west-2.amazonaws.com/_entities/communities/b217d099353c34e3828f98609d39f7cb.jpg,Assisted Living Home,Assisted Living Home
Sierra Springs Assisted Living,"503 Los Lentes Road Northeast, Los Lunas, NM 87031",Los Lunas,NM,87031,https://app.seniorplace.com/communities/show/4458b356-1872-42d0-a3d8-7cb72a8a31ab,https://placement-crm-cdn.s3.us-west-2.amazonaws.com/_entities/communities/48f294ad3b201294184293a66cb8d6eb.jpg,Assisted Living Community,Assisted Living Facility
Sierra Vista Retirement Community,"402 Rodeo Road, Santa Fe, NM 87505",Santa Fe,NM,87505,https://app.seniorplace.com/communities/show/d3abd9c9-8483-465e-b0ea-2a26e1a0540b,https://placement-crm-cdn.s3.us-west-2.amazonaws.com/_entities/communities/8308aaf2aeec0a381da4a12bb5f1b38f.jpg,"Assisted Living Community, Home Care","Assisted Living Facility, Home Health"
Singing Arrow Afh,"12904 Piru Boulevard Southeast, Albuquerque, NM 87123",Albuquerque,NM,87123,https://app.seniorplace.com/communities/show/6f954f26-3ce1-4e1d-8f5b-e259383887b3,https://placement-crm-cdn.s3.us-west-2.amazonaws.com/_entities/communities/a31ee4da4736f0418972cb538687dd07.jpg,Assisted Living Home,Assisted Living Home
Sombrillo Nursing & Rehabilitation Center,"1011 Sombrillo Ct, Los Alamos, NM 87544",Los Alamos,NM,87544,https://app.seniorplace.com/communities/show/4c33cd2b-d501-41be-91b0-a47bf7d39a25,,,
Southwest Endoscopy,"7788 Jefferson Street Northeast, Albuquerque, NM 87109",Albuquerque,NM,87109,https://app.seniorplace.com/communities/show/50427d7b-708b-475a-a6a3-8f5e63871a50,https://placement-crm-cdn.s3.us-west-2.amazonaws.com/_entities/communities/62a423cc1cae48cd6ac55d19595f8330.jpg,Assisted Living Home,Assisted Living Home
St Michael'S Namaste House,"800 West 30th Street, Farmington, NM 87401",Farmington,NM,87401,https://app.seniorplace.com/communities/show/0e1871fb-a980-4b88-a1f2-76522ecabf62,https://placement-crm-cdn.s3.us-west-2.amazonaws.com/_entities/communities/a35720f58fcf928715e266bff631fbcb.jpg,Assisted Living Community,Assisted Living Facility
Starlight House,"9109 Galaxia Way Northeast, Albuquerque, NM 87111",Albuquerque,NM,87111,https://app.seniorplace.com/communities/show/516c3d2e-82ff-415f-aa63-2b18af5a78e2,https://placement-crm-cdn.s3.us-west-2.amazonaws.com/_entities/communities/b76fcfbb42ed24cc8d710d58d8b6d6a2.jpg,Assisted Living Home,Assisted Living Home
Sundance Care Home,"209 West Adams Avenue, Gallup, NM 87301",Gallup,NM,87301,https://app.seniorplace.com/communities/show/9351ba0d-c3de-4db8-9cda-d702fdf09a2b,https://placement-crm-cdn.s3.us-west-2.amazonaws.com/_entities/communities/58b86f699ce9fc3fdcbbab313b2c2e36.jpg,Assisted Living Home,Assisted Living Home
Sunny Day Assisted Living,"205 Day Street, Gallup, NM 87301",Gallup,NM,87301,https://app.seniorplace.com/communities/show/054cdbc9-d9e7-4f85-879c-001fbb92d93e,https://placement-crm-cdn.s3.us-west-2.amazonaws.com/_entities/communities/5c011ef9bc697c5bf03a02b1113bba40.jpg,Assisted Living Community,Assisted Living Facility
Sunset Vista,"3650 North Fowler Avenue, Silver City, NM 88061",Silver City,NM,88061,https://app.seniorplace.com/communities/show/696c0792-04db-432f-ab59-c4f3246a2fe8,https://placement-crm-cdn.s3.us-west-2.amazonaws.com/_entities/communities/3be950314199cb8bfd3e1fbe883ff477.jpg,Assisted Living Community,Assisted Living Facility
Taos Retirement Village,"414 Camino De La Placita, Taos, NM 87571",Taos,NM,87571,https://app.seniorplace.com/communities/show/4ef79851-8bef-4029-bf90-19bc39d9b7a1,https://placement-crm-cdn.s3.us-west-2.amazonaws.com/_entities/communities/475e2408fe67109c71b022438babe6b6.jpg,"Assisted Living Community, Home Care","Assisted Living Facility, Home Health"
Tender Heart Assisted Living,"4308 Tulane Drive Northeast, Albuquerque, NM 87107",Albuquerque,NM,87107,https://app.seniorplace.com/communities/show/dadcbf8e-8a2b-4a9f-a0e6-7796c338e157,https://placement-crm-cdn.s3.us-west-2.amazonaws.com/_entities/communities/9642a8c98b88eb8ce64520f70cd76fda.jpg,Assisted Living Community,Assisted Living Facility
Tercer Cielo,"412 Sawtooth Street Southeast, Albuquerque, NM 87123",Albuquerque,NM,87123,https://app.seniorplace.com/communities/show/3eb21be5-5b7e-4a86-a515-2f1f1008760e,https://placement-crm-cdn.s3.us-west-2.amazonaws.com/_entities/communities/d270261e4b3fcf9d91c869c9e70615e5.jpg,Assisted Living Home,Assisted Living Home
Tercer Cielo,"4409 Glenwood Hills Drive Northeast, Glenwood Hills, NM 87111",Glenwood Hills,NM,87111,https://app.seniorplace.com/communities/show/56f7dc3d-ba7d-474a-a103-140520467056,https://placement-crm-cdn.s3.us-west-2.amazonaws.com/_entities/communities/ecf44bde294792a6409ca007cbe33bcd.jpg,Assisted Living Home,Assisted Living Home
The Albuquerque Grand Senior Living,"1501 Tijeras Ave. NE, Albuquerque, NM 87106",Albuquerque,NM,87106,https://app.seniorplace.com/communities/show/0430516b-daff-453e-807e-4093e593535d,https://app.seniorplace.com/api/files/public/ac306a8e-495f-4b71-9fee-bb6074166b10,Independent Living,Independent Living
The Albuquerque Grand Senior Living,"1501 Tijeras Ave NE, Albuquerque, NM 87106",Albuquerque,NM,87106,https://app.seniorplace.com/communities/show/147f775e-6c44-4f8b-b6d4-074147369e47,https://app.seniorplace.com/api/files/public/3427bd34-3ff9-4c1c-8ae2-5054b3c40948,,
The Bridge of Farmington,"1091 West Murray Drive, Farmington, NM 87401",Farmington,NM,87401,https://app.seniorplace.com/communities/show/a4cd59c9-ef30-459b-90ed-44a86a8f2ba8,https://app.seniorplace.com/api/files/public/d49307ae-b89a-4afe-9df0-2d10fa30a7a8,"Assisted Living Community, Independent Living","Independent Living, Assisted Living Facility"
The Garland Home,"7600 Maplewood Drive Northwest, Albuquerque, NM 87120",Albuquerque,NM,87120,https://app.seniorplace.com/communities/show/c9568f1a-10a6-40bf-aca0-eb63fc443293,https://placement-crm-cdn.s3.us-west-2.amazonaws.com/_entities/communities/6c2c3e62a419ea7a8ae7a5acc3cc96e0.jpg,Assisted Living Home,Assisted Living Home
The Heritage Assisted Living,"854 Lettuce Lane, Las Cruces, NM 88001",Las Cruces,NM,88001,https://app.seniorplace.com/communities/show/1414dbbd-23fc-46a2-8c04-33ce19029620,https://placement-crm-cdn.s3.us-west-2.amazonaws.com/_entities/communities/04b619e5ef95f187e36914abe7a89c50.jpg,Assisted Living Home,Assisted Living Home
The Heritage Assisted Living,"846 Lettuce Lane, Las Cruces, NM 88001",Las Cruces,NM,88001,https://app.seniorplace.com/communities/show/a391f6d5-3655-4515-8827-4a0b7e23bd96,https://placement-crm-cdn.s3.us-west-2.amazonaws.com/_entities/communities/60cd28a5ce709e301c2e8b57a7a0150d.jpg,Assisted Living Home,Assisted Living Home
The Heritage Assisted Living,"866 Lettuce Lane, Las Cruces, NM 88001",Las Cruces,NM,88001,https://app.seniorplace.com/communities/show/213fc7b0-cda1-4402-ae0c-9e620626768b,https://placement-crm-cdn.s3.us-west-2.amazonaws.com/_entities/communities/d48812e9b8cb2031b83d11fdba036e7d.jpg,Assisted Living Community,Assisted Living Facility
The Legacy at Santa Fe,"3 Avenida Aldea, Santa Fe, NM 87507",Santa Fe,NM,87507,https://app.seniorplace.com/communities/show/c6eddccf-bea4-4687-ba1c-01dd069dc760,https://app.seniorplace.com/api/files/public/cfa3891b-14b8-4618-9a59-e0f12cb42119,"Assisted Living Community, Memory Care","Assisted Living Facility, Memory Care"
The Monarch,"5004 Mariah Road Northwest, Albuquerque, NM 87120",Albuquerque,NM,87120,https://app.seniorplace.com/communities/show/760eeec7-96b2-461d-a357-593196194410,https://placement-crm-cdn.s3.us-west-2.amazonaws.com/_entities/communities/66cfb4a8e5be3056bca3827a96fd273f.jpg,Assisted Living Home,Assisted Living Home
The Montebello on Academy,"10500 Academy Road NE,, Albuquerque, NM 87111",Albuquerque,NM,87111,https://app.seniorplace.com/communities/show/d72b43f1-6dec-468c-abe9-6d9fcc433e49,https://app.seniorplace.com/api/files/public/288f24bf-7aa3-4439-b992-158f3af5da15,"Assisted Living Community, Independent Living","Independent Living, Assisted Living Facility"
The Montecito Santa Fe,"500 Rodeo Road, Santa Fe, NM 87505",Santa Fe,NM,87505,https://app.seniorplace.com/communities/show/1970f2f5-2de2-4bf8-b761-f9614acae6c0,https://app.seniorplace.com/api/files/public/345b9c7a-95b0-4b99-acf6-9354ec0f31c3,"Assisted Living Community, Independent Living, Memory Care","Independent Living, Assisted Living Facility, Memory Care"
The Neighborhood in Rio Rancho,"900 Loma Colorado Boulevard Northeast, Rio Rancho, NM 87124",Rio Rancho,NM,87124,https://app.seniorplace.com/communities/show/4699a9f1-0b0b-4cab-aedb-204f7b9a8117,https://app.seniorplace.com/api/files/public/44c819fa-5c3f-4c3f-bf18-c0cd72167119,"Assisted Living Community, Independent Living, Memory Care, Nursing Home","Continuing Care Retirement Community, Independent Living, Assisted Living Facility, Memory Care, Skilled Nursing"
The Rio Grande Gracious Retirement Living,"2331 Westside Blvd. SE, Rio Rancho, NM 87124",Rio Rancho,NM,87124,https://app.seniorplace.com/communities/show/86c01e6d-e5ff-40be-9bdb-938318543776,https://app.seniorplace.com/api/files/public/30392c6a-2855-4b44-9159-37a77edde852,Independent Living,Independent Living
The Surgery Center of Las Cruces,"1205 South Telshor Boulevard, Las Cruces, NM 88011",Las Cruces,NM,88011,https://app.seniorplace.com/communities/show/15b97e0a-ae50-44e7-8bef-aeb607aed1cb,https://placement-crm-cdn.s3.us-west-2.amazonaws.com/_entities/communities/daca6e8b9710f13d13b18f0aa725495b.jpg,Assisted Living Community,Assisted Living Facility
The Village at Alameda,"8810 Horizon Boulevard, Albuquerque, NM 87113",Albuquerque,NM,87113,https://app.seniorplace.com/communities/show/a0a9bed6-dc49-4d90-98eb-1014e75df09e,https://app.seniorplace.com/api/files/public/44eb2336-c0a1-4cdc-a453-ec3ebbfd5e27,Assisted Living Community,Assisted Living Facility
The Village at Casa De Paz Senior Assisted Living,"613 Oreja De Oro Drive Southeast, Rio Rancho, NM 87124",Rio Rancho,NM,87124,https://app.seniorplace.com/communities/show/a1e13a71-994e-4455-b8b6-0767ecb497ca,https://app.seniorplace.com/api/files/public/ff64dee5-59b2-4912-995f-2335fadbaabf,Assisted Living Home,Assisted Living Home
The Village at Northrise - Desert Willow I,"2884 Roadrunner Parkway, Las Cruces, NM 88011",Las Cruces,NM,88011,https://app.seniorplace.com/communities/show/36df9cf9-06e5-483d-abdc-6777f18b13ef,,"Assisted Living Community, Nursing Home","Continuing Care Retirement Community, Assisted Living Facility, Skilled Nursing"
The Watermark at Cherry Hills,"6901 San Vicente Avenue Northeast, Albuquerque, NM 87109",Albuquerque,NM,87109,https://app.seniorplace.com/communities/show/7a6e1c56-66b4-4d33-88a4-3291f668256b,https://app.seniorplace.com/api/files/public/257c677e-77cb-4b6b-a202-f27783c42006,"Assisted Living Community, Memory Care","Assisted Living Facility, Memory Care"
The Woodmark at Uptown,"7201 Prospect Place Northeast, Albuquerque, NM 87110",Albuquerque,NM,87110,https://app.seniorplace.com/communities/show/a3a9a196-1cbe-44ef-b198-483caa1b2f27,https://app.seniorplace.com/api/files/public/1fecc4b6-eb72-4724-a9f4-495d924d2736,"Assisted Living Community, Memory Care","Assisted Living Facility, Memory Care"
Tlc Assisted Living Llc Dba Aldea House,"6128 Aldea Avenue Northwest, Albuquerque, NM 87114",Albuquerque,NM,87114,https://app.seniorplace.com/communities/show/f4496656-d7c9-477d-8449-13d5e0e7e0e4,https://placement-crm-cdn.s3.us-west-2.amazonaws.com/_entities/communities/a09cf297a42bde36312908dcbc10637d.jpg,Assisted Living Home,Assisted Living Home
Touched by A White Dove Assisted Living,"1605 Cardenas Drive Northeast, Albuquerque, NM 87110",Albuquerque,NM,87110,https://app.seniorplace.com/communities/show/edd19cca-b69a-481d-94f0-dc084579b6a2,https://placement-crm-cdn.s3.us-west-2.amazonaws.com/_entities/communities/80b831b4b2cf9f8ffc4df0a440236bab.jpg,Assisted Living Home,Assisted Living Home
Tres Hermanas,"6104 McKinney Drive Northeast, Albuquerque, NM 87109",Albuquerque,NM,87109,https://app.seniorplace.com/communities/show/2eb412b8-b8fd-4b20-8769-14b58ba37b75,https://placement-crm-cdn.s3.us-west-2.amazonaws.com/_entities/communities/a636149c366e2bcbf6fc57669cd715d6.jpg,Assisted Living Home,Assisted Living Home
Unm Dental Services - Camino De Salud Asc,"1801 Camino de Salud, Albuquerque, NM 87102",Albuquerque,NM,87102,https://app.seniorplace.com/communities/show/96b18619-3c66-4999-9615-0dfd9967e52a,https://placement-crm-cdn.s3.us-west-2.amazonaws.com/_entities/communities/deec890f3a9f2f12dd2b9d80a0eb885e.jpg,Assisted Living Home,Assisted Living Home
Unm Hospital Ophthalmology-Ambulatory Surgical Center,"1600 University Boulevard Northeast, Albuquerque, NM 87102",Albuquerque,NM,87102,https://app.seniorplace.com/communities/show/466410f0-18c1-4b7e-8e70-528d02971caa,https://placement-crm-cdn.s3.us-west-2.amazonaws.com/_entities/communities/a23fd08df3abfc7a6d9f87c53ead051b.jpg,Assisted Living Home,Assisted Living Home
Unmh Osis Surgery Center Ii,"1201 Camino de Salud, Albuquerque, NM 87102",Albuquerque,NM,87102,https://app.seniorplace.com/communities/show/423a704e-9793-48ff-bbe2-81b9e3deafd7,https://placement-crm-cdn.s3.us-west-2.amazonaws.com/_entities/communities/a4e59e0bffbfbe84d05e23200382b50e.jpg,Assisted Living Home,Assisted Living Home
Veterans Assisted Living of Albuquerque (Vala),"6001 Rogers Avenue Northeast, Albuquerque, NM 87110",Albuquerque,NM,87110,https://app.seniorplace.com/communities/show/942abd74-74f1-4009-b00e-e6529eac143d,https://placement-crm-cdn.s3.us-west-2.amazonaws.com/_entities/communities/1c47d4f53461e00857cc530c586f1c74.jpg,Assisted Living Home,Assisted Living Home
Villa Guadalupe/Little Sisters of the Poor,"1900 Mark Avenue, Gallup, NM 87301",Gallup,NM,87301,https://app.seniorplace.com/communities/show/a0c56183-f6cf-478a-a116-c1f3dffd0d6b,https://placement-crm-cdn.s3.us-west-2.amazonaws.com/_entities/communities/424ae972cb312ef15d9767fc4db28da1.jpg,Assisted Living Community,Assisted Living Facility
Village at Northrise-Morningside (The),"2880 Roadrunner Parkway, Las Cruces, NM 88011",Las Cruces,NM,88011,https://app.seniorplace.com/communities/show/3db5249f-9b2c-4e03-b3e8-c7886f681dbd,https://placement-crm-cdn.s3.us-west-2.amazonaws.com/_entities/communities/c5fc21d8c5395993846c9e3430c4c092.jpg,Assisted Living Community,Assisted Living Facility
Vista Hermosa,"2929 Calle Vera Cruz, Santa Fe, NM 87507",Santa Fe,NM,87507,https://app.seniorplace.com/communities/show/5d67d812-5950-4774-8f7b-b87d66cbc5b6,https://placement-crm-cdn.s3.us-west-2.amazonaws.com/_entities/communities/25afd0b02a90e9c53f12d5f92b6d0c10.jpg,"Assisted Living Community, Home Care","Assisted Living Facility, Home Health"
Vista Sandia,"8604 Camino Osito Northeast, Albuquerque, NM 87111",Albuquerque,NM,87111,https://app.seniorplace.com/communities/show/5c8fe391-3ca9-4577-9eda-c3229f89d6a8,https://placement-crm-cdn.s3.us-west-2.amazonaws.com/_entities/communities/7f436300e04830b85f356ac401efa06a.jpg,Assisted Living Home,Assisted Living Home
Wellesley Care Home,"3209 Wellesley Court Northeast, Albuquerque, NM 87107",Albuquerque,NM,87107,https://app.seniorplace.com/communities/show/33689746-85b5-428f-bfec-7dec16216212,https://placement-crm-cdn.s3.us-west-2.amazonaws.com/_entities/communities/1419847aa0886a39264a83a335e27a04.jpg,Assisted Living Community,Assisted Living Facility
West Ridge Village,"3130 Vista Grande Drive Northwest, Albuquerque, NM 87120",Albuquerque,NM,87120,https://app.seniorplace.com/communities/show/f7e6a7bb-7831-4961-a617-80db5da6b0e7,https://placement-crm-cdn.s3.us-west-2.amazonaws.com/_entities/communities/a9b05783adb196aaa72f747d0acda82c.jpg,Assisted Living Community,Assisted Living Facility
Westwind House,"6600 Los Volcanes Road Northwest, Los Volcanes, NM 87121",Los Volcanes,NM,87121,https://app.seniorplace.com/communities/show/a890e6d4-0322-4a46-aaee-bbadcc7bdcd9,https://placement-crm-cdn.s3.us-west-2.amazonaws.com/_entities/communities/e8e0b31a869867ab54418a0617f00608.jpg,Assisted Living Community,Assisted Living Facility
Wheatfields Senior Living Community,"4701 North Prince Street, Clovis, NM 881019722",Clovis,NM,881019722,https://app.seniorplace.com/communities/show/c6dc9df9-6012-49b2-891c-e641212b709f,,Assisted Living Community,Assisted Living Facility
Willow Manor,"815 West Adobe Drive, Deming, NM 88030",Deming,NM,88030,https://app.seniorplace.com/communities/show/e34d0dc6-353d-47ab-8ff1-5454f72972c8,https://placement-crm-cdn.s3.us-west-2.amazonaws.com/_entities/communities/a26269c22656067a2c40be4193bfb299.jpg,Assisted Living Community,Assisted Living Facility
Willow Wood,"1008 Chiricahua Court Southeast, Albuquerque, NM 87123",Albuquerque,NM,87123,https://app.seniorplace.com/communities/show/eab85e1d-dd98-410f-9708-e58bebdc6a60,https://placement-crm-cdn.s3.us-west-2.amazonaws.com/_entities/communities/86d132413a7d6a95d8c824be4907a07f.jpg,Assisted Living Home,Assisted Living Home
