title,address,city,state,zip,url,featured_image,care_types,care_types_raw
A-Plus Healthcare at Home - Home Health,"1443 North 1200 West, Orem, UT 84057",Orem,UT,84057,https://app.seniorplace.com/communities/show/0ce44f1f-5f60-4f95-b501-f22e1fe7de8b,https://placement-crm-cdn.s3.us-west-2.amazonaws.com/_entities/communities/92217045bfcd4f0a7338cd3838958720.jpg,Home Care,"Home Health, Hospice"
Abbington Manor Al I,"215 North Center Street, Lehi, UT 84043",Lehi,UT,84043,https://app.seniorplace.com/communities/show/658dad7d-865e-41de-8960-9abea14ca467,https://app.seniorplace.com/api/files/public/bfcd9e8c-d089-4f14-b981-a26c989fffa2,"Assisted Living Community, Independent Living, Memory Care","Independent Living, Assisted Living Facility, Memory Care"
Abbington Manor Memory Care,"855 West 1500 North, Lehi, UT 84043",Lehi,UT,84043,https://app.seniorplace.com/communities/show/7f28c3fe-7e20-4f3c-a87c-e3a979911651,https://placement-crm-cdn.s3.us-west-2.amazonaws.com/_entities/communities/b88294025fe6ed951178f6a5d2fa5bec.jpg,Assisted Living Community,Assisted Living Facility
Abbington Senior Living of St George Does Not Work With Referral Agents,"782 S 1450 E, St. George, UT 84790",St. George,UT,84790,https://app.seniorplace.com/communities/show/09f1ffdb-8c40-44da-a6ee-cd6be7356d66,https://app.seniorplace.com/api/files/public/0222fbb4-1db0-40e7-90c7-d4e6ba0f06df,Assisted Living Community,Assisted Living Facility
Ability Hospice,"406 West South Jordan Parkway, South Jordan, UT 84095",South Jordan,UT,84095,https://app.seniorplace.com/communities/show/0208c275-e1be-4a5b-aa23-cb51890e243a,https://placement-crm-cdn.s3.us-west-2.amazonaws.com/_entities/communities/85051756f31db947300544d3eaa2cce9.jpg,Home Care,Hospice
Active Hospice,"8180 South 700 East, Sandy, UT 84070",Sandy,UT,84070,https://app.seniorplace.com/communities/show/f5b77519-9659-4710-b407-1c4f29a13b24,https://placement-crm-cdn.s3.us-west-2.amazonaws.com/_entities/communities/6d0544be3e0bcf4d6a03dcdfea6e52dd.jpg,Home Care,"Home Health, Hospice"
Aegis Hospice,"258 South Main Street, Logan, UT 84321",Logan,UT,84321,https://app.seniorplace.com/communities/show/81c8f036-2617-4508-9d61-792554058957,https://placement-crm-cdn.s3.us-west-2.amazonaws.com/_entities/communities/25a513e9e3bdba5381e0ebece59f6647.jpg,Home Care,Hospice
Afi Hospice,"1133 North Main Street, Layton, UT 84041",Layton,UT,84041,https://app.seniorplace.com/communities/show/bfc1aaab-5c32-4c6f-9fa2-73b656f0a3da,https://placement-crm-cdn.s3.us-west-2.amazonaws.com/_entities/communities/b49ef836a5f62146c8e008df4eed05b4.jpg,Home Care,"Home Health, Hospice"
All Seasons of Cedar City,"432 West 1325 North, Cedar City, UT 84721",Cedar City,UT,84721,https://app.seniorplace.com/communities/show/42bd028e-0429-4df8-a19b-b3282117abc6,https://placement-crm-cdn.s3.us-west-2.amazonaws.com/_entities/communities/93c08339eafbcc3cf2a770ddb107aa64.jpg,Assisted Living Community,Assisted Living Facility
All Seasons of West Jordan #2,"8912 South 2700 West, West Jordan, UT 84088",West Jordan,UT,84088,https://app.seniorplace.com/communities/show/5dce357b-b657-4a2b-a9d7-1ed25fb082c2,,Assisted Living Community,Assisted Living Facility
Alta Ridge - Sandy Al,"1360 East 9400 South, Sandy, UT 84093",Sandy,UT,84093,https://app.seniorplace.com/communities/show/2bb491ba-067c-43eb-a879-c0581fb31d98,https://placement-crm-cdn.s3.us-west-2.amazonaws.com/_entities/communities/79e023236d63efa2df4bb699311995a2.jpg,Assisted Living Community,Assisted Living Facility
Alta Ridge-Sandy Mc,"1375 East 9400 South, Sandy, UT 84093",Sandy,UT,84093,https://app.seniorplace.com/communities/show/6ff5cf73-acf0-4e13-afa7-a942e62ca883,https://placement-crm-cdn.s3.us-west-2.amazonaws.com/_entities/communities/1bc9940aec5d0e9de2b97b59083edece.jpg,Assisted Living Community,Assisted Living Facility
Angels Crossing Home Hospice,"75 East Fort Union Boulevard, Midvale, UT 84047",Midvale,UT,84047,https://app.seniorplace.com/communities/show/6ac3ee40-c40c-416d-8193-aab1b5f44fa7,https://placement-crm-cdn.s3.us-west-2.amazonaws.com/_entities/communities/818655535a416cd254a04f2fd89d3759.jpg,Home Care,Hospice
Apple Tree Assisted Living,"565 North 300 West, Kaysville, UT 84037",Kaysville,UT,84037,https://app.seniorplace.com/communities/show/6aff27fd-d0c0-4dce-8b2e-dec210a57b5b,,Assisted Living Community,Assisted Living Facility
Apple Village Assisted Living,"2600 Hobbs View Circle, Layton, UT 84040",Layton,UT,84040,https://app.seniorplace.com/communities/show/f3bc3a55-a620-4356-8f65-7197b794d1dd,https://placement-crm-cdn.s3.us-west-2.amazonaws.com/_entities/communities/d0db02b0544fc5aeacb611ffd0f913b3.jpg,Assisted Living Community,Assisted Living Facility
Applegate Homecare,"1492 East Ridgeline Drive, South Ogden, UT 84405",South Ogden,UT,84405,https://app.seniorplace.com/communities/show/a3c58dca-98a1-40e5-9f99-ce695035a995,https://placement-crm-cdn.s3.us-west-2.amazonaws.com/_entities/communities/77ca8edefee7038ce3a7e2c2d28a30a4.jpg,Home Care,"Home Health, Hospice"
Ashford Assisted Living and Memory Care of Springville,"333 South 950 West, Springville, UT 84663",Springville,UT,84663,https://app.seniorplace.com/communities/show/94471319-c9b0-49ff-9b24-655c79cdf59c,https://placement-crm-cdn.s3.us-west-2.amazonaws.com/_entities/communities/61836bd54bcc493ba5e49e7db29bddf3.jpg,Assisted Living Community,Assisted Living Facility
Ashford Memory Care,"14178 South Bangerter Parkway, Draper, UT 84020",Draper,UT,84020,https://app.seniorplace.com/communities/show/f4210248-4a4a-4eac-8c9d-9a5325a75087,https://app.seniorplace.com/api/files/public/6d7f94a4-0024-4727-9f79-6f2ac24265b3,"Assisted Living Community, Memory Care","Assisted Living Facility, Memory Care"
Aspen Ridge Hospice,"151 East 5600 South, Murray, UT 84107",Murray,UT,84107,https://app.seniorplace.com/communities/show/76c80b52-fd6c-48bd-8fee-697d0bc0aa36,https://placement-crm-cdn.s3.us-west-2.amazonaws.com/_entities/communities/9e5749a98836f18f3ca69e494d38965c.jpg,Home Care,"Home Health, Hospice"
Aspen Ridge Residences of Lehi - Do Not Refer Not Working With Us,"564 W Main St, Lehi, UT 84043",Lehi,UT,84043,https://app.seniorplace.com/communities/show/e12156c6-4761-4720-9097-aacedd179891,https://app.seniorplace.com/api/files/public/11a62b37-3874-478d-ab17-bfed9b733b0f,"Assisted Living Community, Independent Living","Independent Living, Assisted Living Facility"
Aspire Hospice Care,"1020 West Atherton Drive, Taylorsville, UT 84123",Taylorsville,UT,84123,https://app.seniorplace.com/communities/show/01623e3c-cd31-46d3-af74-27986efe8fc8,https://placement-crm-cdn.s3.us-west-2.amazonaws.com/_entities/communities/83275b8c73824d745db4882c844e3131.jpg,Home Care,"Home Health, Hospice"
Assisted Living of Draper,"217 East Scenic Peak Cove, Draper, UT 84020",Draper,UT,84020,https://app.seniorplace.com/communities/show/b8fd9c73-628f-4f50-8e7d-b850e624008e,,Assisted Living Home,Assisted Living Home
At Home Health Care,"45 North 100 West, Salina, UT 84654",Salina,UT,84654,https://app.seniorplace.com/communities/show/c0e3fde2-dc54-4aa3-819b-d66f91e85b87,https://placement-crm-cdn.s3.us-west-2.amazonaws.com/_entities/communities/92217045bfcd4f0a7338cd3838958720.jpg,Home Care,"Home Health, Hospice"
Atlas Hospice,"880 Heritage Park Boulevard, Layton, UT 840415680",Layton,UT,840415680,https://app.seniorplace.com/communities/show/300f44e7-118d-4261-97a0-0496056f6f54,https://placement-crm-cdn.s3.us-west-2.amazonaws.com/_entities/communities/4a5e0266e73c98c8d1370a5984673b6a.jpg,Home Care,"Home Health, Hospice"
Atlas Hospice of Southern Utah,"1525 East Ovation Place, Washington, UT 84780",Washington,UT,84780,https://app.seniorplace.com/communities/show/49a38745-4f00-400c-b439-65f47bfd32a3,https://placement-crm-cdn.s3.us-west-2.amazonaws.com/_entities/communities/5642b35d20be674542f44d8e02f88be6.jpg,Home Care,"Home Health, Hospice"
"Autumn Care Living Center, Building #1","332 W 300 North, Hyde Park, UT 84318",Hyde Park,UT,84318,https://app.seniorplace.com/communities/show/9cf333f2-f762-4d44-8f17-a0409bece751,https://app.seniorplace.com/api/files/public/242bce11-526e-4b91-9824-0b511104b69e,"Assisted Living Community, Memory Care","Assisted Living Facility, Memory Care"
"Autumn Care Living Center, Building #2","332 West 300 North, Hyde Park, UT 84318",Hyde Park,UT,84318,https://app.seniorplace.com/communities/show/902da37b-8cbf-4ec8-b991-efee7b2188ec,,"Assisted Living Community, Memory Care","Assisted Living Facility, Memory Care"
"Autumn Care Living Center, Building #3","336 West 300 North, Hyde Park, UT 84318",Hyde Park,UT,84318,https://app.seniorplace.com/communities/show/c1f586db-5a32-41d5-9185-a260b7720107,,"Assisted Living Community, Memory Care","Assisted Living Facility, Memory Care"
Autumn Park Assisted Living,"548 North 1100 East, Washington, UT 84780",Washington,UT,84780,https://app.seniorplace.com/communities/show/694b1e21-6de1-4e9c-8074-7bc52244f8b2,https://placement-crm-cdn.s3.us-west-2.amazonaws.com/_entities/communities/ea57a5de44cfa99ea8de6f2ac32c31f7.jpg,Assisted Living Community,Assisted Living Facility
Avalon Care Center-Bountiful,"523 North Main Street, Bountiful, UT 84010",Bountiful,UT,84010,https://app.seniorplace.com/communities/show/d3f85b78-43cd-410f-b61f-e187b537b012,https://placement-crm-cdn.s3.us-west-2.amazonaws.com/_entities/communities/831a6cc305a13cb869a793d0e68d1bf1.jpg,Nursing Home,Skilled Nursing
Avamere at Mountain Ridge,"1885 Skyline Drive, South Ogden, UT 84403",South Ogden,UT,84403,https://app.seniorplace.com/communities/show/deabba6f-9b19-45d9-b7f1-fbe31b4719dc,https://app.seniorplace.com/api/files/public/82349750-7769-4d01-8196-bc65fc8e2134,"Assisted Living Community, Memory Care","Assisted Living Facility, Memory Care"
Barrington Place Alzheimer'S Special Care Center,"1404 North 2000 West, Clinton, UT 84015",Clinton,UT,84015,https://app.seniorplace.com/communities/show/3c18ed35-c654-4f3f-b36a-47b1294283b4,https://placement-crm-cdn.s3.us-west-2.amazonaws.com/_entities/communities/5abe02a62dde7c3392a03378c1d7b5c0.jpg,Assisted Living Community,Assisted Living Facility
Barton Creek Senior Living,"499 500 S, Bountiful, UT 84010",Bountiful,UT,84010,https://app.seniorplace.com/communities/show/3479eb2d-547e-4568-9e2a-a341162a07cc,https://app.seniorplace.com/api/files/public/bc3527a9-b71f-4da4-865f-a21228d98dce,"Assisted Living Community, Independent Living","Independent Living, Assisted Living Facility"
Beacon Crest Management of Draper,"591 Pioneer Road, Draper, UT 84020",Draper,UT,84020,https://app.seniorplace.com/communities/show/26fc8b5f-bf5a-4326-a236-b1435a0d84cb,https://placement-crm-cdn.s3.us-west-2.amazonaws.com/_entities/communities/fb1f97ee7ad6ba869f562f78d78fe3a6.jpg,Assisted Living Community,Assisted Living Facility
Beacon Crest Senior Living,"591 East Pioneer Road,, Draper, UT 84020",Draper,UT,84020,https://app.seniorplace.com/communities/show/0b2d8176-5e0b-40d0-86af-48e2df3e3376,https://app.seniorplace.com/api/files/public/59a599bf-17f1-4d4f-828f-e8c7e873c203,,
Beaver Valley Hospital,"1109 North 100 West Street, Beaver, UT 84713",Beaver,UT,84713,https://app.seniorplace.com/communities/show/ab65088e-87f1-4aaf-9e72-a410d8100ad7,,Home Care,"Home Health, Hospice"
Beehive Cottages,"2041 S. Mesa Palms Dr., St. George, UT 84770",St. George,UT,84770,https://app.seniorplace.com/communities/show/0890c1c5-38d3-4ed1-9a15-109742b798df,https://app.seniorplace.com/api/files/public/57b4b6be-8903-404a-ba85-514ec77453d6,Independent Living,Independent Living
Beehive Homes of Kanab,"1364 South Powell Drive, Kanab, UT 84741",Kanab,UT,84741,https://app.seniorplace.com/communities/show/09c1b308-3ebb-4143-a3fc-d2ac1dda23bb,https://placement-crm-cdn.s3.us-west-2.amazonaws.com/_entities/communities/5399b2ae60ce82e9231da8ac12746e9c.jpg,"Assisted Living Community, Assisted Living Home","Assisted Living Facility, Assisted Living Home"
Beehive Homes of Maeser,"940 North 2335 West, Vernal, UT 84078",Vernal,UT,84078,https://app.seniorplace.com/communities/show/66259c9a-c601-4425-83c7-3a3728cc4447,,Assisted Living Community,Assisted Living Facility
Beehive Homes of Magna,"3346 South 8000 West, Magna, UT 84044",Magna,UT,84044,https://app.seniorplace.com/communities/show/b5725a65-b438-4a75-906f-2834de42dd63,https://placement-crm-cdn.s3.us-west-2.amazonaws.com/_entities/communities/d701413d8efb7e1f58232f75657230c4.jpg,Assisted Living Community,Assisted Living Facility
Beehive Homes of Naples,"1923 South 2000 East, Vernal, UT 84078",Vernal,UT,84078,https://app.seniorplace.com/communities/show/1b745d96-c166-4b88-9afd-dcc1f108bfc7,https://placement-crm-cdn.s3.us-west-2.amazonaws.com/_entities/communities/14f64151560044332309373b1ea355e6.jpg,Assisted Living Community,Assisted Living Facility
Beehive Homes of Payson,"661 East 700 South Street, Payson, UT 84651",Payson,UT,84651,https://app.seniorplace.com/communities/show/1e91e0ec-5a3b-40ce-ae4c-0f05850bc36e,https://placement-crm-cdn.s3.us-west-2.amazonaws.com/_entities/communities/47400168664c1e328f8a0c9d00c5fda8.jpg,Assisted Living Community,Assisted Living Facility
Beehive Homes of Perry,"126 West 1550 South, Brigham City, UT 84302",Brigham City,UT,84302,https://app.seniorplace.com/communities/show/109a1f87-c9e0-400e-a44e-30c50c1cc9be,https://placement-crm-cdn.s3.us-west-2.amazonaws.com/_entities/communities/6ff9b36ef8adf4179c70d7f25995fa63.jpg,Assisted Living Community,Assisted Living Facility
Beehive Homes of Provo,"3144 West Center Street, Provo, UT 84601",Provo,UT,84601,https://app.seniorplace.com/communities/show/75bd02ff-b0dd-41ae-92c4-a26cb5629923,https://app.seniorplace.com/api/files/public/cdf78372-8a62-4fe5-84c9-82254b86139c,Assisted Living Community,Assisted Living Facility
Beehive Homes of Provo Ii,"3138 W. Center St., Provo, UT 84601",Provo,UT,84601,https://app.seniorplace.com/communities/show/08fa0a74-4a25-47e4-ab02-37dbc56c6634,,,
Beehive Homes of Richfield #1,"540 North 600 West, Richfield, UT 84701",Richfield,UT,84701,https://app.seniorplace.com/communities/show/24d355ca-a12f-4e9b-9cb6-b7e107c640ab,https://placement-crm-cdn.s3.us-west-2.amazonaws.com/_entities/communities/696c76cf69fff19a8cd2deadd90e4ec8.jpg,Assisted Living Community,Assisted Living Facility
Beehive Homes of Richfield #2,"535 North 600 West, Richfield, UT 84701",Richfield,UT,84701,https://app.seniorplace.com/communities/show/9653c3af-2687-4d8c-9c3e-53b73b023ec2,https://placement-crm-cdn.s3.us-west-2.amazonaws.com/_entities/communities/da780f481d7b2dceab64d75672f6b1ba.jpg,"Assisted Living Community, Assisted Living Home","Assisted Living Facility, Assisted Living Home"
Beehive Homes of Riverton,"12524 South Doreen Drive, Riverton, UT 84065",Riverton,UT,84065,https://app.seniorplace.com/communities/show/10ccb021-3d93-42b1-abff-2a9fdaf49949,https://app.seniorplace.com/api/files/public/8d20dd3b-dd3b-4af0-94e6-15c055b937d8,Assisted Living Community,Assisted Living Facility
Beehive Homes of Salem,"1015 South 550 West Street, Salem, UT 84653",Salem,UT,84653,https://app.seniorplace.com/communities/show/7fa5ff43-6d7f-45b1-ba43-94c1591fcdc3,https://placement-crm-cdn.s3.us-west-2.amazonaws.com/_entities/communities/b191179e69c51b2469473f0ddef8f9f4.jpg,Assisted Living Community,Assisted Living Facility
Beehive Homes of Salt Lake City,"2891 South 2000 East, Salt Lake City, UT 84109",Salt Lake City,UT,84109,https://app.seniorplace.com/communities/show/bd3c43e2-5421-40d4-9db3-7692f78d0aac,https://app.seniorplace.com/api/files/public/11fa3ac2-8471-4354-8fe9-49bc534758d7,Assisted Living Community,Assisted Living Facility
Beehive Homes of Santaquin,"409 South 300 West, Santaquin, UT 84655",Santaquin,UT,84655,https://app.seniorplace.com/communities/show/fc7ede9c-f16d-4c7a-8e72-caeabd141b23,https://placement-crm-cdn.s3.us-west-2.amazonaws.com/_entities/communities/f0bbf8ef6564b66c9cda00811b907200.jpg,Assisted Living Community,Assisted Living Facility
Beehive Homes of South Jordan,"3430 West 11400 South, South Jordan, UT 84095",South Jordan,UT,84095,https://app.seniorplace.com/communities/show/e02faf40-998e-4fe6-bf5b-9c2b73e19f29,https://placement-crm-cdn.s3.us-west-2.amazonaws.com/_entities/communities/530038fbdcc058d247d0dc627d0bc285.jpg,Assisted Living Community,Assisted Living Facility
Beehive Homes of Spanish Fork,"858 East 100 South, Spanish Fork, UT 84660",Spanish Fork,UT,84660,https://app.seniorplace.com/communities/show/37732554-af69-45a8-9d17-6f1662953251,https://placement-crm-cdn.s3.us-west-2.amazonaws.com/_entities/communities/d6f2833522e4e63e6572d1fb1305febf.jpg,Assisted Living Community,Assisted Living Facility
Beehive Homes of St George #1,"1542 West 1170 North, St. George, UT 84770",St. George,UT,84770,https://app.seniorplace.com/communities/show/f03a7820-0270-4327-bc39-2a0097ff96c1,https://placement-crm-cdn.s3.us-west-2.amazonaws.com/_entities/communities/98b51b7c155ec105837533d77a93d252.jpg,Assisted Living Community,Assisted Living Facility
Beehive Homes of St George #2,"1555 West 1170 North, St. George, UT 84770",St. George,UT,84770,https://app.seniorplace.com/communities/show/5a1e26b3-67a9-4d12-ad22-22baf13797ed,https://placement-crm-cdn.s3.us-west-2.amazonaws.com/_entities/communities/817dfc16074ede8d4113294616397bb4.jpg,Assisted Living Community,Assisted Living Facility
Beehive Homes of Syracuse,"1407 South 2000 West, Syracuse, UT 84075",Syracuse,UT,84075,https://app.seniorplace.com/communities/show/164cdfce-d694-45e0-ad81-b1b45ad64847,https://placement-crm-cdn.s3.us-west-2.amazonaws.com/_entities/communities/3d45abc406c1e5f26d8dfb6953361ea8.jpg,Assisted Living Community,Assisted Living Facility
Beehive Homes of Tooele,"464 South Main Street, Tooele, UT 84074",Tooele,UT,84074,https://app.seniorplace.com/communities/show/e775703b-435e-42c6-8b46-6352665c58cc,https://placement-crm-cdn.s3.us-west-2.amazonaws.com/_entities/communities/59ac4ff12b4acea88ddc966ac391f912.jpg,Assisted Living Community,Assisted Living Facility
Beehive Homes of Vernal,"540 2050 West Street, Vernal, UT 84078",Vernal,UT,84078,https://app.seniorplace.com/communities/show/7f91faa5-f52d-4aee-9923-149d7622002f,https://placement-crm-cdn.s3.us-west-2.amazonaws.com/_entities/communities/03bf12261af9ce3535a5974c723cd4d8.jpg,Assisted Living Community,Assisted Living Facility
Beehive Homes of Washington County #3,"831 South 700 West, Hurricane, UT 84737",Hurricane,UT,84737,https://app.seniorplace.com/communities/show/b1e4be9d-bc99-44c0-9ff1-fc2136311850,https://placement-crm-cdn.s3.us-west-2.amazonaws.com/_entities/communities/f73cc5bcc81c1c8ab047ed90a87e35cb.jpg,Assisted Living Community,Assisted Living Facility
Beehive Homes of Washington County #5,"1122 North Coral Canyon Boulevard, Washington, UT 84780",Washington,UT,84780,https://app.seniorplace.com/communities/show/3be1efb3-b192-4b65-a2c6-19d53c954a05,https://placement-crm-cdn.s3.us-west-2.amazonaws.com/_entities/communities/27e78811a625a0e3830eaf4b99ac0142.jpg,Assisted Living Community,Assisted Living Facility
Beehive Homes of Washington County #7,"1078 North Coral Canyon Boulevard, Washington, UT 84780",Washington,UT,84780,https://app.seniorplace.com/communities/show/34565f26-6dd8-4ddc-91d1-936965b2f01f,https://placement-crm-cdn.s3.us-west-2.amazonaws.com/_entities/communities/68fef1208861102980dd14c37a31d1f2.jpg,Assisted Living Community,Assisted Living Facility
Beehive Homes of Washington County #8,"2397 South River Road, St. George, UT 84790",St. George,UT,84790,https://app.seniorplace.com/communities/show/8dcfd7a1-ac6c-4f1e-a064-f2c533fecd34,https://placement-crm-cdn.s3.us-west-2.amazonaws.com/_entities/communities/7e2b8943e7bdc80eeb2d65dd681b12bc.jpg,Assisted Living Community,Assisted Living Facility
Bel Aire Homes,"436 East 700 North, Orem, UT 84097",Orem,UT,84097,https://app.seniorplace.com/communities/show/4c621527-19e0-4617-81c0-c05327b9af8f,https://placement-crm-cdn.s3.us-west-2.amazonaws.com/_entities/communities/b2ad0a994abf9ff062c4bbfe21d09925.jpg,Assisted Living Community,Assisted Living Facility
Bel Aire Senior Living - Can Not Get in Touch With Sales Team or Mgr,"1088 East 390 South, American Fork, UT 84003",American Fork,UT,84003,https://app.seniorplace.com/communities/show/707b1001-aa65-4b28-a733-92c828bfcd73,https://placement-crm-cdn.s3.us-west-2.amazonaws.com/_entities/communities/486a58dd12db9b5a3fb505ff1a905d11.jpg,"Assisted Living Community, Assisted Living Home, Memory Care","Assisted Living Facility, Assisted Living Home, Memory Care"
Bella Terra St George,"178 South 1200 East, St. George, UT 84790",St. George,UT,84790,https://app.seniorplace.com/communities/show/2c2731c4-2294-4002-ac53-ca17e328e7c6,https://placement-crm-cdn.s3.us-west-2.amazonaws.com/_entities/communities/a0a2563c1364d4f4a743512c61550f84.jpg,Nursing Home,Skilled Nursing
Belle Vie Hospice,"2901 Bluegrass Boulevard, Lehi, UT 84043",Lehi,UT,84043,https://app.seniorplace.com/communities/show/1bc495a7-10a6-464b-bed8-c7eb3dbb3c35,https://placement-crm-cdn.s3.us-west-2.amazonaws.com/_entities/communities/1b63aacaeebc31cbff4261072f78868d.jpg,Home Care,Hospice
Best Assisted Living,"2270 High Mountain Drive, Sandy, UT 84092",Sandy,UT,84092,https://app.seniorplace.com/communities/show/aabc92cc-1f77-475a-8929-f7f43f67a1ba,https://placement-crm-cdn.s3.us-west-2.amazonaws.com/_entities/communities/8625bb47de3ef993011418a9f696dc44.jpg,"Assisted Living Community, Assisted Living Home","Assisted Living Facility, Assisted Living Home"
Best Assisted Living,"2499 Charros Road, Sandy, UT 84092",Sandy,UT,84092,https://app.seniorplace.com/communities/show/76f1ce14-136e-4172-988a-b1ec17ff6afd,https://placement-crm-cdn.s3.us-west-2.amazonaws.com/_entities/communities/ebe1ea8256cd2eef6dadcb9b15ce89a5.jpg,"Assisted Living Community, Assisted Living Home","Assisted Living Facility, Assisted Living Home"
Birch Creek Assisted Living,"532 South Main Street, Smithfield, UT 84335",Smithfield,UT,84335,https://app.seniorplace.com/communities/show/2a1db854-9ea6-4266-821c-1ff491b2eba6,https://placement-crm-cdn.s3.us-west-2.amazonaws.com/_entities/communities/38ac2cc6a4e047886b59848d0710b29b.jpg,"Assisted Living Community, Memory Care","Assisted Living Facility, Memory Care"
Blacksmith Fork Assisted Living,"680 East Main Street, Hyrum, UT 84319",Hyrum,UT,84319,https://app.seniorplace.com/communities/show/2ca77195-1da5-4afa-b7a9-1cfe9a2f9b55,https://placement-crm-cdn.s3.us-west-2.amazonaws.com/_entities/communities/988890edbb15fdd350ea71ea927c30ee.jpg,Assisted Living Community,Assisted Living Facility
Brightenlife Hospice,"2333 East Dinosaur Crossing Drive, St. George, UT 84790",St. George,UT,84790,https://app.seniorplace.com/communities/show/93736feb-628e-4eb6-9ce5-13884b293d39,https://placement-crm-cdn.s3.us-west-2.amazonaws.com/_entities/communities/f6ac78aaddb44fca1528729e04b7c680.jpg,Home Care,Hospice
Brighton House of Riverton,"12894 South 1615 West, Riverton, UT 84065",Riverton,UT,84065,https://app.seniorplace.com/communities/show/d036f53d-ef84-4bbb-a9d2-2e1708d2d370,https://placement-crm-cdn.s3.us-west-2.amazonaws.com/_entities/communities/51dab3fccc6b02f3d0468e3dbf686e61.jpg,"Assisted Living Community, Assisted Living Home","Assisted Living Facility, Assisted Living Home"
Brighton House of South Jordan See Also Brighton House of Riverton,"10386 2200 West, South Jordan, UT 84095",South Jordan,UT,84095,https://app.seniorplace.com/communities/show/ba096424-287f-464b-9259-106d9a057f31,https://placement-crm-cdn.s3.us-west-2.amazonaws.com/_entities/communities/89f8f207591762e8cf98c7720ac0007e.jpg,"Assisted Living Community, Assisted Living Home","Assisted Living Facility, Assisted Living Home"
Brightwork Villa American Fork,"272 West 500 North, American Fork, UT 84003",American Fork,UT,84003,https://app.seniorplace.com/communities/show/fa6031c9-1aaf-43ef-a995-e8dbf9186abb,https://placement-crm-cdn.s3.us-west-2.amazonaws.com/_entities/communities/5be00cbdaf736051fdc873b1fd227025.jpg,Assisted Living Community,Assisted Living Facility
Brightwork Villa Park Place,"565 East 300 South Street, Pleasant Grove, UT 84062",Pleasant Grove,UT,84062,https://app.seniorplace.com/communities/show/8150308d-fb02-4ac6-a36e-b46d95b22550,https://placement-crm-cdn.s3.us-west-2.amazonaws.com/_entities/communities/16b5efd9353949b54914778b4ebb7d5b.jpg,"Assisted Living Community, Assisted Living Home","Assisted Living Facility, Assisted Living Home"
Bristol Hospice - Utah Ii,"1106 East 6600 South, Murray, UT 84121",Murray,UT,84121,https://app.seniorplace.com/communities/show/8e0d9816-a7ec-4da2-bd9e-26988d87af2f,https://placement-crm-cdn.s3.us-west-2.amazonaws.com/_entities/communities/621c4619697018d251b7d5837348f2a2.jpg,Home Care,Hospice
Bristol Hospice - Utah,"1638 North Washington Boulevard, North Ogden, UT 84404",North Ogden,UT,84404,https://app.seniorplace.com/communities/show/61577e61-5f4a-4313-a002-349a5fb6b05e,https://placement-crm-cdn.s3.us-west-2.amazonaws.com/_entities/communities/af966b6825ebd2ecb7f939c943eb7de4.jpg,Home Care,Hospice
Cache Valley Assisted Living,"233 North Main Street, Providence, UT 84332",Providence,UT,84332,https://app.seniorplace.com/communities/show/055cb88e-86e6-45b4-9233-41ef6ffff12a,https://placement-crm-cdn.s3.us-west-2.amazonaws.com/_entities/communities/f016e98948a9d8fdb6f86a15145944ad.jpg,"Assisted Living Community, Independent Living, Memory Care","Independent Living, Assisted Living Facility, Memory Care"
Canterbury Assisted Living,"198 South 1300 East, Springville, UT 84663",Springville,UT,84663,https://app.seniorplace.com/communities/show/a0fdf4ff-165d-46c5-9755-80aab8852699,https://placement-crm-cdn.s3.us-west-2.amazonaws.com/_entities/communities/a917b94673109785e63c8736722e302d.jpg,"Assisted Living Community, Assisted Living Home","Assisted Living Facility, Assisted Living Home"
Canterbury Assisted Living (West),"554 South 400 East Street, Springville, UT 84663",Springville,UT,84663,https://app.seniorplace.com/communities/show/a7ff4ecc-00bc-428b-98a7-b540cf54f763,https://placement-crm-cdn.s3.us-west-2.amazonaws.com/_entities/communities/872a59c6bfb3d6e1cbd4520dc05e2f5c.jpg,Assisted Living Community,Assisted Living Facility
Canyon Hospice,"302 West 5400 South, Murray, UT 84107",Murray,UT,84107,https://app.seniorplace.com/communities/show/6ebc7638-0a60-4fc5-98bc-0ca0949fcacf,https://placement-crm-cdn.s3.us-west-2.amazonaws.com/_entities/communities/8cddeaa034343893ece727d2bfb200e3.jpg,Home Care,"Home Health, Hospice"
Canyon Hospice of Southern Utah,"640 East 700 South, St. George, UT 84770",St. George,UT,84770,https://app.seniorplace.com/communities/show/72914057-667c-4d03-8ca5-cd75cbeb7bb3,https://placement-crm-cdn.s3.us-west-2.amazonaws.com/_entities/communities/b736977141d3b7b0ecb2e380d579df88.jpg,Home Care,"Home Health, Hospice"
Canyon Hospice of Utah County,"451 South Main Street, Springville, UT 84663",Springville,UT,84663,https://app.seniorplace.com/communities/show/4262706b-1bb4-40a5-9e93-e982ef75a87b,https://placement-crm-cdn.s3.us-west-2.amazonaws.com/_entities/communities/829e56843574d25323340dcfe8761605.jpg,Home Care,Hospice
Canyon Rim Care Center,"2730 East 3300 South, Salt Lake City, UT 84109",Salt Lake City,UT,84109,https://app.seniorplace.com/communities/show/12121c8b-4a10-418f-9862-ccfc6b6b0f10,https://placement-crm-cdn.s3.us-west-2.amazonaws.com/_entities/communities/3abeefc32a1cd6c958e5329de4ae66a1.jpg,Nursing Home,Skilled Nursing
Capitol Hill Senior Living,"76 South 500 East, Salt Lake City, UT 84102",Salt Lake City,UT,84102,https://app.seniorplace.com/communities/show/99e2d44c-fbfe-41f6-aafd-d51f8da37f4f,https://placement-crm-cdn.s3.us-west-2.amazonaws.com/_entities/communities/81da6e0d5094f28169c0253962b3c019.jpg,Assisted Living Community,Assisted Living Facility
Caregiver Support Network Hospice,"570 North Main Street, Farmington, UT 84025",Farmington,UT,84025,https://app.seniorplace.com/communities/show/12a7dc29-caf8-4992-987f-82bf9a0ec37b,https://placement-crm-cdn.s3.us-west-2.amazonaws.com/_entities/communities/476864fc33f4326e853bb03980ffab47.jpg,Home Care,Hospice
Carrington Court Assisted Living and Memory Care/Do Not Refer,"1928 West 9800 South, South Jordan, UT 84095, South Jordan, UT 84095",South Jordan,UT,84095,https://app.seniorplace.com/communities/show/9a7af8d6-fa42-490b-8fc6-7d1a70e242ce,https://app.seniorplace.com/api/files/public/25b0a824-def5-4ef4-8021-fe967e7631be,"Assisted Living Community, Independent Living, Memory Care","Independent Living, Assisted Living Facility, Memory Care"
Cascades at Orchard Park,"740 300 East, Orem, UT 84057",Orem,UT,84057,https://app.seniorplace.com/communities/show/407f9553-e0ae-485f-8c1e-bb0455fe2e6c,https://placement-crm-cdn.s3.us-west-2.amazonaws.com/_entities/communities/b19ee6cfdc08931980b55a8868f424ab.jpg,Nursing Home,Skilled Nursing
Cascades at Riverwalk,"1012 Jordan River Boulevard, Midvale, UT 84047",Midvale,UT,84047,https://app.seniorplace.com/communities/show/b5740806-afc7-4c71-9938-f1076343fed9,https://placement-crm-cdn.s3.us-west-2.amazonaws.com/_entities/communities/bc716c8d181f25401600acaf19f9588a.jpg,Nursing Home,Skilled Nursing
Cedar Health and Rehabilitation,"411 West 1325 North, Cedar City, UT 84721",Cedar City,UT,84721,https://app.seniorplace.com/communities/show/54d0a4ba-7d82-442d-b3db-282a1dbac368,,Nursing Home,Skilled Nursing
Cedarwood at Sandy Assisted Living,"625 East 11000 South, Sandy, UT 84070",Sandy,UT,84070,https://app.seniorplace.com/communities/show/ddc62b1d-b00d-4bdc-8c49-883f2736020b,https://app.seniorplace.com/api/files/public/f3f8dca8-b8b3-48b5-89f7-8e9647e64dbe,"Assisted Living Community, Independent Living, Memory Care","Independent Living, Assisted Living Facility, Memory Care"
Centerfield Healthcare,"736 South 900 East, St. George, UT 84790",St. George,UT,84790,https://app.seniorplace.com/communities/show/ecbf9b7e-5e73-441a-a3f7-6f18e204bea6,https://placement-crm-cdn.s3.us-west-2.amazonaws.com/_entities/communities/dee398ca340236bd39386583a0f642fd.jpg,Home Care,"Home Health, Hospice"
Central Valley Hospice,"152 West 1500 North, Nephi, UT 84648",Nephi,UT,84648,https://app.seniorplace.com/communities/show/c79eb4b6-fe06-4348-b518-34775b16b5ae,https://placement-crm-cdn.s3.us-west-2.amazonaws.com/_entities/communities/838b7bbaac622e97d4771148e2fb35c2.jpg,Home Care,"Home Health, Hospice"
Chancellor Gardens of Clearfield,"1425 South 1500 East, Clearfield, UT 84015",Clearfield,UT,84015,https://app.seniorplace.com/communities/show/90d33698-22cf-47cc-9a50-edc99dfb0c4e,https://placement-crm-cdn.s3.us-west-2.amazonaws.com/_entities/communities/a7a60cc996596ad8995a9c0a01c97ae4.jpg,Assisted Living Community,Assisted Living Facility
Charter Healthcare of West Jordan,"623 East Fort Union Boulevard, Midvale, UT 84047",Midvale,UT,84047,https://app.seniorplace.com/communities/show/f2541c0e-f5c6-4eee-8628-91fde28b92a2,https://placement-crm-cdn.s3.us-west-2.amazonaws.com/_entities/communities/ec869240d44924187bcf128feda18a6c.jpg,Home Care,"Home Health, Hospice"
City Creek Post Acute,"165 South 1000 East, Salt Lake City, UT 84102",Salt Lake City,UT,84102,https://app.seniorplace.com/communities/show/586476e2-b2bf-4bda-9d47-c222cf2f51a1,https://placement-crm-cdn.s3.us-west-2.amazonaws.com/_entities/communities/df856dbef56855b1907f71cb2cd646e9.jpg,Nursing Home,Skilled Nursing
Cns Community Hospice - Providence,"221 North Gateway Drive, Providence, UT 84332",Providence,UT,84332,https://app.seniorplace.com/communities/show/a1e74f80-3818-4dfa-be4b-7bc43592f77a,https://placement-crm-cdn.s3.us-west-2.amazonaws.com/_entities/communities/88b9a01431fedce4eb9b96c328a8f48f.jpg,Home Care,Hospice
Cogir of Lotus Park Senior Living,"2639 West 3520 South, West Haven, UT 84401",West Haven,UT,84401,https://app.seniorplace.com/communities/show/1627c0bf-77e6-4b63-8fbd-51a18bbcdcd0,https://app.seniorplace.com/api/files/public/2086dd09-6f78-4df8-8fc5-e2424867d026,"Assisted Living Community, Memory Care","Assisted Living Facility, Memory Care"
Community Nursing Services,"2830 South Redwood Road, West Valley City, UT 84119",West Valley City,UT,84119,https://app.seniorplace.com/communities/show/45a58df2-c707-4524-9af8-231593401b96,https://placement-crm-cdn.s3.us-west-2.amazonaws.com/_entities/communities/ee2012767372a646f9def8c83e626049.jpg,Home Care,"Home Health, Hospice"
Community Nursing Services,"480 South Carbon Avenue, Price, UT 84501",Price,UT,84501,https://app.seniorplace.com/communities/show/4830acdc-8fb5-4437-8bf9-a317d009e00d,https://placement-crm-cdn.s3.us-west-2.amazonaws.com/_entities/communities/078ae9bd8f85800bce57e8e904637f29.jpg,Home Care,Hospice
Copper Creek Senior Living,"10569 River Heights Drive, South Jordan, UT 84095",South Jordan,UT,84095,https://app.seniorplace.com/communities/show/cb9b1290-30a3-4a9e-8816-49c2c3fff4bb,https://app.seniorplace.com/api/files/public/36b92dac-3c22-4fd9-9963-591496da4ce7,"Assisted Living Community, Independent Living, Memory Care","Independent Living, Assisted Living Facility, Memory Care"
Copper Ridge Health Care,"3706 West 9000 South, West Jordan, UT 84088",West Jordan,UT,84088,https://app.seniorplace.com/communities/show/f3923d22-79e0-4bf6-be91-60543a2b3825,https://placement-crm-cdn.s3.us-west-2.amazonaws.com/_entities/communities/1319c70e2ed32187ebaced44b7772410.jpg,Nursing Home,Skilled Nursing
Coral Desert Rehabilitation and Care,"1490 Foremaster Drive, St. George, UT 84790",St. George,UT,84790,https://app.seniorplace.com/communities/show/3eb14dbb-b8b3-4aa4-a1fe-08ea28b43ffd,,Nursing Home,Skilled Nursing
Cottage Glen Assisted Living,"1892 North Aaron Drive, Tooele, UT 84074",Tooele,UT,84074,https://app.seniorplace.com/communities/show/ff6dbd2b-70d6-44fe-8601-c34f31a24f98,https://app.seniorplace.com/api/files/public/fc7ad532-41f3-4759-b00d-6ffd8842c23d,Assisted Living Community,Assisted Living Facility
Cottonwood Creek,"1245 East Murray Holladay Road, Millcreek, UT 84117",Millcreek,UT,84117,https://app.seniorplace.com/communities/show/11f20a1d-bb65-4b03-838c-03ca713c9541,https://app.seniorplace.com/api/files/public/265fcaa3-8e9d-4b85-8f95-9edeedba87ca,"Assisted Living Community, Independent Living","Independent Living, Assisted Living Facility"
Country Care,"950 West, Farmington, UT 84025",Farmington,UT,84025,https://app.seniorplace.com/communities/show/41e8be91-c20b-4f13-bf92-a384061c46fc,https://placement-crm-cdn.s3.us-west-2.amazonaws.com/_entities/communities/93772399f0a5587e700bbd284b2010fe.jpg,Assisted Living Community,Assisted Living Facility
Country Care Ii,"533 950 West, Farmington, UT 84025",Farmington,UT,84025,https://app.seniorplace.com/communities/show/f7bb1568-c359-4d51-b2cb-6da8dc191c7b,https://placement-crm-cdn.s3.us-west-2.amazonaws.com/_entities/communities/a0a96728f3a9cde22ca81f5e9519a64e.jpg,Assisted Living Community,Assisted Living Facility
Country Home Assisted Living,"565 Medical Drive, Bountiful, UT 84010",Bountiful,UT,84010,https://app.seniorplace.com/communities/show/85ce9fde-a948-44fa-a615-629ce1c68467,https://placement-crm-cdn.s3.us-west-2.amazonaws.com/_entities/communities/130bdf6af58d27b26af45980d90b08f6.jpg,"Assisted Living Community, Assisted Living Home, Memory Care","Assisted Living Facility, Assisted Living Home, Memory Care"
Country Lane Ogden,"931 1225 N St, Ogden, UT 84404",Ogden,UT,84404,https://app.seniorplace.com/communities/show/d2874075-308b-45fb-a4b6-b65391234465,,Assisted Living Home,Assisted Living Home
Country Oaks Assisted Living of Layton,"1635 North Angel Street, Layton, UT 84041",Layton,UT,84041,https://app.seniorplace.com/communities/show/92423e58-d7e7-41ca-b5a4-ce978811eb4f,https://placement-crm-cdn.s3.us-west-2.amazonaws.com/_entities/communities/ed3ccab6460e14c20f18d2574aacdf3c.jpg,Assisted Living Community,Assisted Living Facility
Country Pines Retirement Community,"1748 West 1800 North, Clinton, UT 84015",Clinton,UT,84015,https://app.seniorplace.com/communities/show/98143e33-71e3-4c20-b9b7-dd1591c17355,https://app.seniorplace.com/api/files/public/2be3ec0d-bc5e-46d2-aef7-3bcdbb25fc39,Assisted Living Community,Assisted Living Facility
Country View Assisted Living,"2901 West Center Street, Provo, UT 84601",Provo,UT,84601,https://app.seniorplace.com/communities/show/20623262-23e7-4033-b53d-525803168570,https://placement-crm-cdn.s3.us-west-2.amazonaws.com/_entities/communities/855653a4cd4b92a3468cdec856fa68ad.jpg,Assisted Living Community,Assisted Living Facility
Courtyard at Jamestown,"3352 North 100 East,, Provo, UT 84604",Provo,UT,84604,https://app.seniorplace.com/communities/show/c466e588-09c8-4647-9901-63d8bdfce6ac,https://app.seniorplace.com/api/files/public/bfb14c3b-dde5-4e4c-8d06-97ab67885d70,,
Courtyard at Jamestown Assisted Living,"3352 North 100 East Street, Provo, UT 84604",Provo,UT,84604,https://app.seniorplace.com/communities/show/d4a63482-c876-4766-a0e9-ac893994f9b1,https://app.seniorplace.com/api/files/public/5adc7b91-c0aa-4166-b746-477b542d57ef,"Assisted Living Community, Independent Living, Memory Care","Independent Living, Assisted Living Facility, Memory Care"
Cove Point Retirement,"1988 North Cove Point Lane, Provo, UT 84604",Provo,UT,84604,https://app.seniorplace.com/communities/show/4b823e96-9442-45a5-97d3-1949b487a109,https://app.seniorplace.com/api/files/public/07de7aad-fc61-419f-aa52-0ee6221184f1,"Assisted Living Community, Independent Living","Independent Living, Assisted Living Facility"
Covington Senior Living of Farmington,"430 South Brookside Drive, Farmington, UT 84025",Farmington,UT,84025,https://app.seniorplace.com/communities/show/8c1fd0e4-9648-4a20-bfd6-687ae7b150e4,,Assisted Living Community,Assisted Living Facility
Covington Senior Living of Lehi,"301 North 1200 East, Lehi, UT 84043",Lehi,UT,84043,https://app.seniorplace.com/communities/show/074cc179-7df1-498a-b8d8-523de9c69275,https://app.seniorplace.com/api/files/public/635e3ec1-c8df-4db8-89c2-c4ee982c354d,"Assisted Living Community, Independent Living, Memory Care","Independent Living, Assisted Living Facility, Memory Care"
Covington Senior Living/Do Not Refer (See Notes),"1925 North State Street, Orem, UT 84057",Orem,UT,84057,https://app.seniorplace.com/communities/show/365e7c6c-e6fe-4f72-90fa-b51951eb26e0,https://app.seniorplace.com/api/files/public/70f045b3-5ca8-4dbb-9e30-129ac04c8bba,Assisted Living Community,Assisted Living Facility
Creekside Senior Living,"430 West 400 North, Bountiful, UT 84010",Bountiful,UT,84010,https://app.seniorplace.com/communities/show/77db3fb9-5212-4f73-bb07-9ccf8f936751,https://app.seniorplace.com/api/files/public/51b22aa1-3b24-4626-b246-9fea1c84f30c,"Assisted Living Community, Independent Living, Memory Care","Independent Living, Assisted Living Facility, Memory Care"
Crescent Senior Living,"11052 South Grapevine Cove, Sandy, UT 84070",Sandy,UT,84070,https://app.seniorplace.com/communities/show/569628af-33bf-4418-be44-8844ad44f0ef,https://app.seniorplace.com/api/files/public/d55a0f46-7c78-49b6-afcf-ce3c1951a303,Assisted Living Community,Assisted Living Facility
Crestwood Rehabilitation and Nursing,"3665 Brinker Avenue, Ogden, UT 84403",Ogden,UT,84403,https://app.seniorplace.com/communities/show/da1c9172-5580-4ed3-8cdd-586a247e8389,https://placement-crm-cdn.s3.us-west-2.amazonaws.com/_entities/communities/ef2348889ad57918e8651c6b8d1263dc.jpg,Nursing Home,Skilled Nursing
"Desert Oaks Assisted Living and Desert Willows Memory Care Formerly ""The Meadows at Escalante""","950 South 400 East, St. George, UT 84770",St. George,UT,84770,https://app.seniorplace.com/communities/show/3687c5b9-69d2-4097-a83f-4e518fd9b2a0,https://app.seniorplace.com/api/files/public/07932fbb-eb34-4170-8848-11bb60e34a84,"Assisted Living Community, Memory Care","Assisted Living Facility, Memory Care"
Diamond Jane'S Assisted Living,"345 South Hale Street, Grantsville, UT 84029",Grantsville,UT,84029,https://app.seniorplace.com/communities/show/a8df4645-54e4-4cbc-85e8-f4ee3c3ab441,https://placement-crm-cdn.s3.us-west-2.amazonaws.com/_entities/communities/cb4511e72e3d5ee109818c81eb3f7308.jpg,Assisted Living Community,Assisted Living Facility
Dignity Hospice of Utah,"174 South 1100 East, American Fork, UT 84003",American Fork,UT,84003,https://app.seniorplace.com/communities/show/f664eea3-1692-4151-8dc1-862c6e48c72c,https://placement-crm-cdn.s3.us-west-2.amazonaws.com/_entities/communities/f2420d29268aa2c048465dbbd3e521d5.jpg,Home Care,"Home Health, Hospice"
Do Not Refer Bellaview Assisted Living and Memory Care,"1049 West 3200 North, Lehi, UT 84043",Lehi,UT,84043,https://app.seniorplace.com/communities/show/10237417-1046-48a5-bf72-5e3b3fb1dd2a,https://app.seniorplace.com/api/files/public/5bfd1ab8-a750-49f1-a511-c8d5e8ed1789,"Assisted Living Community, Memory Care","Assisted Living Facility, Memory Care"
Draper Rehabilitation and Care Center,"12702 South Fort Street, Draper, UT 84020",Draper,UT,84020,https://app.seniorplace.com/communities/show/dcfdc625-eb96-4aa0-a2cd-2abec8191ec9,https://placement-crm-cdn.s3.us-west-2.amazonaws.com/_entities/communities/1aa67a2f3e76a130dc731f4be731d21d.jpg,Nursing Home,Skilled Nursing
Elevate Home Health,"88 East 100 South, Price, UT 84501",Price,UT,84501,https://app.seniorplace.com/communities/show/9ffccacc-c377-4ab5-81c1-8c6456cbcd62,https://placement-crm-cdn.s3.us-west-2.amazonaws.com/_entities/communities/eee92b619f194fb6178d13510de90804.jpg,Home Care,"Home Health, Hospice"
Elk Ridge Assisted Living,"218 West Olympic Lane, Elk Ridge, UT 84651",Elk Ridge,UT,84651,https://app.seniorplace.com/communities/show/bd3b9c45-1a9e-4da6-82ef-b6c7e0a29090,https://placement-crm-cdn.s3.us-west-2.amazonaws.com/_entities/communities/102c05d3cf6507a2ff3376c34a080174.jpg,Assisted Living Community,Assisted Living Facility
Enhabit Hospice,"5223 West Ascension Way, Murray, UT 84123",Murray,UT,84123,https://app.seniorplace.com/communities/show/c4064b73-3b4d-4920-9ac1-748fbb436883,https://placement-crm-cdn.s3.us-west-2.amazonaws.com/_entities/communities/e1852b3d32874d5827a729b605cc8afa.jpg,Home Care,"Home Health, Hospice"
Envision Hospice,"990 West Atherton Drive, Taylorsville, UT 84123",Taylorsville,UT,84123,https://app.seniorplace.com/communities/show/81e445c0-014b-446a-9b7f-bfe74931ca5d,https://placement-crm-cdn.s3.us-west-2.amazonaws.com/_entities/communities/5289576af1cd63ba71496bb139472c82.jpg,Home Care,Hospice
Escalante at Coventry,"6898 South 2300 E,, Salt Lake City, UT 84121",Salt Lake City,UT,84121,https://app.seniorplace.com/communities/show/aa2aeac7-dc89-40ee-8301-69dce8f1438d,https://app.seniorplace.com/api/files/public/097b2e21-ca3a-4d4d-9442-75eaaa65c03e,"Assisted Living Community, Independent Living, Memory Care, Respite Care","Independent Living, Assisted Living Facility, Memory Care, Respite Care"
Escalante at Coventry Iii,"6895 Whitmore Way, Cottonwood Heights, UT 84121",Cottonwood Heights,UT,84121,https://app.seniorplace.com/communities/show/ffa99c0c-b83b-4eae-b747-aa944af90731,https://placement-crm-cdn.s3.us-west-2.amazonaws.com/_entities/communities/2117f343f505ab1c9dcd4fafcc53710d.jpg,Assisted Living Community,Assisted Living Facility
Escalante at Draper,"11631 South 700 East, Draper, UT 84020",Draper,UT,84020,https://app.seniorplace.com/communities/show/4e36b00a-b2be-45ac-92f8-585fed6c7f2c,https://app.seniorplace.com/api/files/public/6e6c4b62-464a-4db9-b6c7-ef24dad3efb7,Assisted Living Community,Assisted Living Facility
Exemplar Healthcare,"308 East 4500 South, Murray, UT 84107",Murray,UT,84107,https://app.seniorplace.com/communities/show/56745fa4-679a-42c0-a294-bd5659240ee7,https://placement-crm-cdn.s3.us-west-2.amazonaws.com/_entities/communities/02a9795602417ccd2e6607675d3d2c21.jpg,Home Care,"Home Health, Hospice"
Fairfield Village,"1205 N Fairfield Road, Layton, UT 84041",Layton,UT,84041,https://app.seniorplace.com/communities/show/542e18e3-089f-471b-ac28-20a506897d8d,https://app.seniorplace.com/api/files/public/204ee776-e6c4-4d07-b59b-d8bfa33aa73b,Independent Living,Independent Living
Fairfield Village of Layton,"1201 North Fairfield Road, Layton, UT 84041",Layton,UT,84041,https://app.seniorplace.com/communities/show/425b5cf8-a961-4e57-8392-6f47316a182e,https://placement-crm-cdn.s3.us-west-2.amazonaws.com/_entities/communities/56a96e72fd2f270e7318fc4c09a68fbe.jpg,"Assisted Living Community, Independent Living, Memory Care","Independent Living, Assisted Living Facility, Memory Care"
Family Tree of Morgan,"862 Mahogany Ridge Road, Morgan, UT 84050",Morgan,UT,84050,https://app.seniorplace.com/communities/show/a31b3567-f19e-4a93-9859-78c1b3ee1a2a,https://app.seniorplace.com/api/files/public/3d4f66c6-c2f8-438f-a76e-dd9de5692786,Assisted Living Community,Assisted Living Facility
Family Tree of West Point,"421 North 3150 West, West Point, UT 84015",West Point,UT,84015,https://app.seniorplace.com/communities/show/450b4d03-e163-4ec2-8494-6fd343089dc5,https://app.seniorplace.com/api/files/public/a0278701-88ef-4bba-87c2-20ad85884f82,Assisted Living Community,Assisted Living Facility
First Choice Hospice,"560 West 800 North, Orem, UT 84057",Orem,UT,84057,https://app.seniorplace.com/communities/show/f8dffb48-6b66-4f03-8382-3cdc0ea162cd,,Home Care,"Home Health, Hospice"
Four Corners Regional Care Center,"818 North 400 West, Blanding, UT 84511",Blanding,UT,84511,https://app.seniorplace.com/communities/show/4fb8f52a-1d4b-4d5b-ab4c-7afe4defff07,,Nursing Home,Skilled Nursing
Gables of Brigham City,"997 South 800 West, Brigham City, UT 84302",Brigham City,UT,84302,https://app.seniorplace.com/communities/show/5c12a796-4f17-4fd6-846b-1ae946cc36c5,https://placement-crm-cdn.s3.us-west-2.amazonaws.com/_entities/communities/edebe590eed4adaab448c35586622575.jpg,"Assisted Living Community, Memory Care","Assisted Living Facility, Memory Care"
Gables of North Logan Assisted Living,"455 East 2500 North, North Logan, UT 84341",North Logan,UT,84341,https://app.seniorplace.com/communities/show/ae09982d-f66c-4d7b-9967-1bc9944db152,https://app.seniorplace.com/api/files/public/a5fea789-3002-4181-8207-2e37c905a4b0,"Assisted Living Community, Memory Care","Assisted Living Facility, Memory Care"
Gardens Assisted Living,"1450 9th Street, Ogden, UT 84404",Ogden,UT,84404,https://app.seniorplace.com/communities/show/6e9ee737-a674-49ab-9da4-494203688591,https://app.seniorplace.com/api/files/public/c89c956d-68f1-4308-b84f-840de9679a79,Assisted Living Community,Assisted Living Facility
George E Wahlen Ogden Veterans Home,"1102 1200 West Street, Ogden, UT 84404",Ogden,UT,84404,https://app.seniorplace.com/communities/show/6f9b04cc-b0a2-4412-9a35-64f24833540b,https://placement-crm-cdn.s3.us-west-2.amazonaws.com/_entities/communities/7c7ecb6cde480792118c7e58434a966d.jpg,Nursing Home,Skilled Nursing
Golden Skyline Assisted Living,"76 North 100 West, Ephraim, UT 84627",Ephraim,UT,84627,https://app.seniorplace.com/communities/show/5fb84bab-abe2-43ee-b524-b770e5f5ddd9,https://placement-crm-cdn.s3.us-west-2.amazonaws.com/_entities/communities/c9f29c18f35c3af895e4823da399697d.jpg,Assisted Living Community,Assisted Living Facility
Good Life Senior Living,"15 West 100 North Street, Elmo, UT 84521",Elmo,UT,84521,https://app.seniorplace.com/communities/show/8bd003db-d35e-41ff-b24e-9a969ba93a74,https://placement-crm-cdn.s3.us-west-2.amazonaws.com/_entities/communities/be0d296e66c525f826e3c88383101ea5.jpg,Assisted Living Community,Assisted Living Facility
Good Life Senior Living Mount Pleasant,"160 East 200 North, Mount Pleasant, UT 84647",Mount Pleasant,UT,84647,https://app.seniorplace.com/communities/show/76a36847-62a3-45cc-a67f-70ef0165fe2f,https://placement-crm-cdn.s3.us-west-2.amazonaws.com/_entities/communities/51b5db20cc827a0869b4dbc269d4598b.jpg,Assisted Living Community,Assisted Living Facility
Good Life Senior Living Price,"1025 West 470 North, Price, UT 84501",Price,UT,84501,https://app.seniorplace.com/communities/show/c0211dae-eda0-4642-8185-93e6b8e259c7,https://placement-crm-cdn.s3.us-west-2.amazonaws.com/_entities/communities/c75d4bb0ad7c32e80d03303592d036e0.jpg,Assisted Living Community,Assisted Living Facility
Good Shepherd Home Care and Hospice of Eastern Uta,"1680 U.S. 40, Vernal, UT 84078",Vernal,UT,84078,https://app.seniorplace.com/communities/show/52e2ac28-0232-408e-83f0-c40212c1f30e,https://placement-crm-cdn.s3.us-west-2.amazonaws.com/_entities/communities/2ca3633cb448470ceda85a38bcb8a1ef.jpg,Home Care,"Home Health, Hospice"
Gunnison Valley Hospice,"45 East 100 North Street, Gunnison, UT 84634",Gunnison,UT,84634,https://app.seniorplace.com/communities/show/e061251a-6ae5-4ea9-9358-04d42503b369,https://placement-crm-cdn.s3.us-west-2.amazonaws.com/_entities/communities/ab17127ae5289e5239fd82333b904ad9.jpg,Home Care,"Home Health, Hospice"
Harmony Hospice,"5650 South Green Street, Murray, UT 84123",Murray,UT,84123,https://app.seniorplace.com/communities/show/076a5e2e-91da-4730-8b33-839e97764d12,https://placement-crm-cdn.s3.us-west-2.amazonaws.com/_entities/communities/d7c5c03d87d86beeac6b1df250e7bf7f.jpg,Home Care,"Home Health, Hospice"
Harrison Pointe Healthcare and Rehabilitation,"3430 Harrison Boulevard, Ogden, UT 84403",Ogden,UT,84403,https://app.seniorplace.com/communities/show/097b2a03-ca5b-43fb-92e2-50f6cd518d26,https://placement-crm-cdn.s3.us-west-2.amazonaws.com/_entities/communities/2f9a91607979bb1f2d0849e99ec61e18.jpg,Nursing Home,Skilled Nursing
Haven at Sky Mountain,"2192 West 100 North, Hurricane, UT 84737",Hurricane,UT,84737,https://app.seniorplace.com/communities/show/baa3a107-1705-4706-89e0-a59bdb26bbbe,https://app.seniorplace.com/api/files/public/24bf715d-bd8d-48c1-803a-470243ab4251,Assisted Living Community,Assisted Living Facility
Haven Creek Assisted Living,"4607 Midland Drive, West Haven, UT 84401",West Haven,UT,84401,https://app.seniorplace.com/communities/show/bff32400-ba9d-4980-a720-9d92d63946a9,https://app.seniorplace.com/api/files/public/b42ca992-c753-4306-b2d5-4661ea219caa,Assisted Living Community,Assisted Living Facility
Health Watch Hospice of Utah,"1485 East 840 North, Orem, UT 84097",Orem,UT,84097,https://app.seniorplace.com/communities/show/8cfe7898-a71f-4f2e-8339-c738404f1d8e,https://placement-crm-cdn.s3.us-west-2.amazonaws.com/_entities/communities/aade7433e51e3854703e6935c52ea101.jpg,Home Care,"Home Health, Hospice"
Hearthstone Manor Assisted Living,"1424 South 1700 East Street, Spanish Fork, UT 84660",Spanish Fork,UT,84660,https://app.seniorplace.com/communities/show/6e83f22f-42d6-4b66-bdb8-f9515d6fe3a2,https://placement-crm-cdn.s3.us-west-2.amazonaws.com/_entities/communities/abc0b63820150cedb0f287e7f53f0805.jpg,Assisted Living Community,Assisted Living Facility
Heber Valley Assisted Living,"905 South Field Road, Heber City, UT 84032",Heber City,UT,84032,https://app.seniorplace.com/communities/show/4a1f836a-be7b-4186-bb39-2162be507ead,https://app.seniorplace.com/api/files/public/58b93c71-aaf6-452c-9ca1-0440271ab8e9,Assisted Living Community,Assisted Living Facility
Heirloom Inn,"145 North Carbon Avenue, Price, UT 84501",Price,UT,84501,https://app.seniorplace.com/communities/show/d133a664-3824-4e4c-8272-01a2086489fc,https://placement-crm-cdn.s3.us-west-2.amazonaws.com/_entities/communities/15bd99b25cffcd98f12dda22b37f6d05.jpg,Assisted Living Community,Assisted Living Facility
"Heritage Gardens of Springville, Utah","321 East 800 South Street, Springville, UT 84663",Springville,UT,84663,https://app.seniorplace.com/communities/show/ef3dc336-9843-4ac4-bf66-493eee67a5fa,https://placement-crm-cdn.s3.us-west-2.amazonaws.com/_entities/communities/c4584429dd57d2c50b70fc7341a6f104.jpg,Assisted Living Community,Assisted Living Facility
Heritage Home,"45 North 100 West, Hurricane, UT 84737",Hurricane,UT,84737,https://app.seniorplace.com/communities/show/3e0dd2b5-ac58-4f20-a042-49b2f08bc6b6,https://placement-crm-cdn.s3.us-west-2.amazonaws.com/_entities/communities/ad4c10b5bf8579bddefcc65f7624b934.jpg,Assisted Living Community,Assisted Living Facility
Heritage Home,"45 North 100 West, Hurricane, UT 84737",Hurricane,UT,84737,https://app.seniorplace.com/communities/show/e021444b-a0ad-4ddb-b498-3477ef7e85a1,,,
Heritage Park Healthcare and Rehabilitation,"2700 West 5600 South, Roy, UT 84067",Roy,UT,84067,https://app.seniorplace.com/communities/show/666d9334-dc74-4124-a202-962d5941a411,https://placement-crm-cdn.s3.us-west-2.amazonaws.com/_entities/communities/0462d25fcc110fea19023e3e0d242a80.jpg,Nursing Home,Skilled Nursing
Hidden Valley Assisted Living,"1401 Shadow Valley Drive, Ogden, UT 84403",Ogden,UT,84403,https://app.seniorplace.com/communities/show/9ac66aae-84be-4b59-b570-14c9f9a3dc89,https://app.seniorplace.com/api/files/public/3bc943c4-95cc-4d2f-8955-1f671ccd05f3,"Assisted Living Community, Memory Care","Assisted Living Facility, Memory Care"
Highland Care Center,"4285 South Highland Drive, Millcreek, UT 84124",Millcreek,UT,84124,https://app.seniorplace.com/communities/show/68a201c9-cf3d-4ee7-8912-c89d66a9aa5e,https://placement-crm-cdn.s3.us-west-2.amazonaws.com/_entities/communities/048c3a0d0e0ec1238c5d6e3aa46c6239.jpg,Nursing Home,Skilled Nursing
Highland Cove Retirement Community,"3750 South Highland Drive, Salt Lake City, UT 84106",Salt Lake City,UT,84106,https://app.seniorplace.com/communities/show/1ccc210c-55b6-42b4-9e45-54e2636a2125,https://app.seniorplace.com/api/files/public/0ece9755-a2b7-4ecc-a966-264932ad8eb1,"Assisted Living Community, Independent Living","Independent Living, Assisted Living Facility"
Highland Glen,"10322 North 4800 West, Highland, UT 84003",Highland,UT,84003,https://app.seniorplace.com/communities/show/19b2b22f-22ec-43fd-b6c3-15b671194247,https://placement-crm-cdn.s3.us-west-2.amazonaws.com/_entities/communities/1708c18e74b0645f01dedef6453ae84b.jpg,"Assisted Living Community, Memory Care","Assisted Living Facility, Memory Care"
Holiday Harrison Regent,"4481 Harrison Blvd, Ogden, UT 84403",Ogden,UT,84403,https://app.seniorplace.com/communities/show/e7da13d7-3c18-4d94-b5d2-24a84116b774,https://app.seniorplace.com/api/files/public/2a9ba2ad-ee2b-447d-b8f4-d1f9b70868d7,Independent Living,Independent Living
Holladay Healthcare Center,"4782 South Holladay Boulevard, Holladay, UT 84117",Holladay,UT,84117,https://app.seniorplace.com/communities/show/37cbed12-c0bf-4eea-b0f9-f6f9312ad8c4,https://placement-crm-cdn.s3.us-west-2.amazonaws.com/_entities/communities/d69a97ddd0a52fe96ae5876f1e07e03c.jpg,Nursing Home,Skilled Nursing
Holladay Home for the Elderly,"5950 S Highland Dr, Salt Lake City, UT 84121",Salt Lake City,UT,84121,https://app.seniorplace.com/communities/show/8193542e-500e-475a-b7ca-b5d377b3fb41,,,
Holladay Home for the Elderly,"5950 South Highland Drive, Holladay, UT 84121",Holladay,UT,84121,https://app.seniorplace.com/communities/show/f185d14a-66e7-4582-be23-c63353c8db4f,https://placement-crm-cdn.s3.us-west-2.amazonaws.com/_entities/communities/05e239e90de3d7971b3ec7e96534f49f.jpg,Assisted Living Community,Assisted Living Facility
Horizon Hospice Specialists,"6000 South Fashion Boulevard, Murray, UT 84107",Murray,UT,84107,https://app.seniorplace.com/communities/show/fab91b19-ae46-4a32-82a7-27d2568e9f73,https://placement-crm-cdn.s3.us-west-2.amazonaws.com/_entities/communities/4f5031281e3b89d8eb77c5e837d993a2.jpg,Home Care,"Home Health, Hospice"
Hurricane Health and Rehabilitation,"416 North State Street, Hurricane, UT 84737",Hurricane,UT,84737,https://app.seniorplace.com/communities/show/01b9b105-2fcb-4f5a-9e7e-e5b6f06c77f1,https://placement-crm-cdn.s3.us-west-2.amazonaws.com/_entities/communities/bac314005f3a54c9eed99c7168e6d8b6.jpg,Nursing Home,Skilled Nursing
Icare Hospice,"672 West 400 South, Springville, UT 84663",Springville,UT,84663,https://app.seniorplace.com/communities/show/dcf602e1-6ae6-42cc-8cb8-3f68d8bc09f3,https://placement-crm-cdn.s3.us-west-2.amazonaws.com/_entities/communities/6ebdb5327e29d38ac178acc01c7e5e10.jpg,Home Care,"Home Health, Hospice"
Independence Hospice,"707 West 700 South, Woods Cross, UT 84087",Woods Cross,UT,84087,https://app.seniorplace.com/communities/show/af6431d6-7be5-4d4a-8e84-0fd5c1b40e3b,https://placement-crm-cdn.s3.us-west-2.amazonaws.com/_entities/communities/5cda948c58e741b243d015ec6050a873.jpg,Home Care,"Home Health, Hospice"
Inspiration Hospice,"1649 East 1400 South, Clearfield, UT 84015",Clearfield,UT,84015,https://app.seniorplace.com/communities/show/4c0ac5e9-dd0b-46dc-a6a4-7f35533a2d3c,https://placement-crm-cdn.s3.us-west-2.amazonaws.com/_entities/communities/08548ee9ed08fb12bc0d62f427f51f1e.jpg,Home Care,"Home Health, Hospice"
Intermountain Homecare Hospice Salt Lake,"11520 South Redwood Road, South Jordan, UT 84095",South Jordan,UT,84095,https://app.seniorplace.com/communities/show/5ebaa3cc-7cc2-4454-bf5f-2d92dbcdeb57,https://placement-crm-cdn.s3.us-west-2.amazonaws.com/_entities/communities/03a937573cd9be095eaf0611b5757ac8.jpg,Home Care,"Home Health, Hospice"
Ivy Brook Senior Living/Do Not Refer,"2011 West 4700 South, Taylorsville, UT 84129",Taylorsville,UT,84129,https://app.seniorplace.com/communities/show/32db3637-d4f8-4c99-bbad-fb9fb23eb8a9,https://app.seniorplace.com/api/files/public/a454d8e7-ec7b-4ebb-822f-ba35cfd39d98,"Assisted Living Community, Independent Living","Independent Living, Assisted Living Facility"
Ivybrook Assisted Living,"2011 West 4700 South, Taylorsville, UT",Taylorsville,UT,,https://app.seniorplace.com/communities/show/55406937-22c1-4e1c-94a4-87c3347da032,,,
Jewels Legacy Garden,"380 North 500 West Street, Beaver, UT 84713",Beaver,UT,84713,https://app.seniorplace.com/communities/show/1d25730e-629c-4177-998f-3972a0a8691e,https://placement-crm-cdn.s3.us-west-2.amazonaws.com/_entities/communities/2b63748bb81517f5d37e022f3a0ad9e0.jpg,"Assisted Living Community, Assisted Living Home","Assisted Living Facility, Assisted Living Home"
Lake Ridge Senior Living - South,"960 South Geneva Road, Orem, UT 84058",Orem,UT,84058,https://app.seniorplace.com/communities/show/9049b4ff-a1fd-4718-8217-b0e3c8efd038,https://placement-crm-cdn.s3.us-west-2.amazonaws.com/_entities/communities/bc205fccdd20b0e680e507d94ef11d28.jpg,Assisted Living Community,Assisted Living Facility
Lakeview Elderly Care,"933 East Grove Drive, Pleasant Grove, UT 84062",Pleasant Grove,UT,84062,https://app.seniorplace.com/communities/show/9f4c301d-673f-4a24-b8b8-6f55ecdefb53,https://placement-crm-cdn.s3.us-west-2.amazonaws.com/_entities/communities/bfbc0fd6538519b992b8111006e0d4ae.jpg,"Assisted Living Community, Assisted Living Home","Assisted Living Facility, Assisted Living Home"
Laurel Groves Assisted Living,"549 North 400 East, Nephi, UT 84648",Nephi,UT,84648,https://app.seniorplace.com/communities/show/27ce67ae-3fe9-4b1e-8411-39fb0160716e,https://app.seniorplace.com/api/files/public/a60393c8-f0e7-4d05-99b4-bab36b96896d,"Assisted Living Community, Memory Care","Assisted Living Facility, Memory Care"
Legacy House Assisted Living of South Jordan,"1517 Temple Lane, South Jordan, UT 84095",South Jordan,UT,84095,https://app.seniorplace.com/communities/show/d190d045-e693-4b9c-a0b0-4d116e7d2244,https://app.seniorplace.com/api/files/public/1a185f60-f61e-433a-a183-c54602ec04a4,"Assisted Living Community, Independent Living, Memory Care","Independent Living, Assisted Living Facility, Memory Care"
Legacy House of Bountiful,"79 East Center Street, Bountiful, UT 84010",Bountiful,UT,84010,https://app.seniorplace.com/communities/show/b38eac7c-510d-4168-b465-64ba8688f2b8,https://app.seniorplace.com/api/files/public/1ae5deba-d1d9-42af-8539-fcecaef67ff9,Assisted Living Community,Assisted Living Facility
Legacy House of Logan Assisted Living,"330 East 1400 North, Logan, UT 84341",Logan,UT,84341,https://app.seniorplace.com/communities/show/e4e81c64-bd37-4377-96e8-1ba41aea61a3,https://placement-crm-cdn.s3.us-west-2.amazonaws.com/_entities/communities/6900449425fa51d205b8533200f925bf.jpg,Assisted Living Community,Assisted Living Facility
Legacy House of Ogden,"5526 South Adams Avenue, Washington Terrace, UT 84405",Washington Terrace,UT,84405,https://app.seniorplace.com/communities/show/7815a66a-1799-49f0-a6f4-5454d92f8ecd,https://app.seniorplace.com/api/files/public/d9eacd14-9f71-4873-859d-6790594e5875,"Assisted Living Community, Memory Care","Assisted Living Facility, Memory Care"
Legacy House of Park Lane,"547 North Station Parkway, Farmington, UT 84025",Farmington,UT,84025,https://app.seniorplace.com/communities/show/79b0d153-cc8e-479e-b203-a3889e4e303d,https://app.seniorplace.com/api/files/public/28d32f3d-8e21-4ffa-a5f9-628870c8a838,"Assisted Living Community, Memory Care","Assisted Living Facility, Memory Care"
Legacy House of Spanish Fork,"1449 East 150 South, Spanish Fork, UT 84660",Spanish Fork,UT,84660,https://app.seniorplace.com/communities/show/515c20f3-e269-4db3-b79d-ef4b1fa82c2a,https://placement-crm-cdn.s3.us-west-2.amazonaws.com/_entities/communities/2d6bab64359d6b83920266d93c5fdb4e.jpg,Assisted Living Community,Assisted Living Facility
Legacy House of Taylorsville,"6302 Gold Medal Drive, West Jordan, UT 84129",West Jordan,UT,84129,https://app.seniorplace.com/communities/show/65cbac71-d038-4766-bcc4-4747879664b1,https://app.seniorplace.com/api/files/public/19ef387f-737f-4e4a-aef7-3f3f5e00f520,Assisted Living Community,Assisted Living Facility
Legacy Retirement Residence of South Jordan,"1617 Temple Ln, South Jordan, UT 84095",South Jordan,UT,84095,https://app.seniorplace.com/communities/show/476cd0a8-c8b2-4cec-9d9c-d9d7d0b7996a,https://app.seniorplace.com/api/files/public/b85beead-8273-434e-8f1e-d2797d17dd03,Independent Living,Independent Living
Legacy Village Memory Care,"5472 South 3200 West, Taylorsville, UT 84129",Taylorsville,UT,84129,https://app.seniorplace.com/communities/show/5104a9e2-ab49-45a5-9810-b4e83900cb5f,https://app.seniorplace.com/api/files/public/40477842-a11e-4c0f-8c26-8b81ad55aa52,"Assisted Living Community, Memory Care","Assisted Living Facility, Memory Care"
Legacy Village of Provo,"4146 North University Avenue, Provo, UT 84604",Provo,UT,84604,https://app.seniorplace.com/communities/show/2e2d11b4-0cd2-477c-86a3-fdffcb2a0ac6,https://app.seniorplace.com/api/files/public/d4689f57-6d3d-42ee-880e-0a988526cd81,"Assisted Living Community, Independent Living, Memory Care","Independent Living, Assisted Living Facility, Memory Care"
Legacy Village of Sugar House,"1212 East Wilmington Avenue, Salt Lake City, UT 84106",Salt Lake City,UT,84106,https://app.seniorplace.com/communities/show/35a1ae78-4b7a-4152-93c5-a8993ad203bc,https://app.seniorplace.com/api/files/public/ab7aabeb-0647-41e8-9ef1-aa94d455f380,Assisted Living Community,Assisted Living Facility
Legacy Village St George,"1379 West Sky Rocket Road, St. George, UT 84770",St. George,UT,84770,https://app.seniorplace.com/communities/show/747b07e7-3d02-413c-825e-35bd47996b36,https://app.seniorplace.com/api/files/public/f068927f-d947-424b-8b6a-5dfe305b8455,"Assisted Living Community, Independent Living, Memory Care","Independent Living, Assisted Living Facility, Memory Care"
Life Care Center of Bountiful,"460 West 2600 South, Bountiful, UT 84010",Bountiful,UT,84010,https://app.seniorplace.com/communities/show/9bc0832f-01d5-41ba-aa6f-73f5176af0ba,,Nursing Home,Skilled Nursing
Logan Regional Hospital Dialysis Center,"550 East 1400 North, Logan, UT 84341",Logan,UT,84341,https://app.seniorplace.com/communities/show/f6cc47eb-5fac-4e31-806b-5a0975b6b527,https://placement-crm-cdn.s3.us-west-2.amazonaws.com/_entities/communities/d8fed0a34858c7a0aa09c4c5ed63dc32.jpg,Home Care,"Home Health, Hospice"
Lotus Park Assisted Living,"3518 South 2625 West, West Haven, UT 84401",West Haven,UT,84401,https://app.seniorplace.com/communities/show/e89ede92-19bf-4e35-bef9-333d901860b5,https://placement-crm-cdn.s3.us-west-2.amazonaws.com/_entities/communities/9f060c1d9a23f72e7fd86bcef9006afe.jpg,Assisted Living Community,Assisted Living Facility
Lotus Park Care Centers,"2639 West 3520 South, West Haven, UT 84401",West Haven,UT,84401,https://app.seniorplace.com/communities/show/35f7530d-69ee-47bf-8dd4-4340f5f9f942,https://app.seniorplace.com/api/files/public/36c58243-1e97-475f-9647-d4d05dda212a,"Assisted Living Community, Memory Care","Assisted Living Facility, Memory Care"
Maple Creek Hospice,"691 West Spring Creek Place, Springville, UT 84663",Springville,UT,84663,https://app.seniorplace.com/communities/show/6c520207-e150-4db9-92a3-3c826a4cea34,https://placement-crm-cdn.s3.us-west-2.amazonaws.com/_entities/communities/4dfe39b0f3d929f8acc3fe4f021ba98a.jpg,Home Care,Hospice
Maple Springs,"1040 Medical Drive, Brigham City, UT 84302",Brigham City,UT,84302,https://app.seniorplace.com/communities/show/85088d6b-d857-4529-b4ea-a18b2fb9b0de,https://placement-crm-cdn.s3.us-west-2.amazonaws.com/_entities/communities/8d8a6b160c6fc325ed2ab749c8064bbb.jpg,Assisted Living Community,Assisted Living Facility
Maple Springs of Brigham City,"1040 Medical Dr., Brigham City, UT 84302",Brigham City,UT,84302,https://app.seniorplace.com/communities/show/dbada2e6-300d-4fa3-81e4-0578fbc81502,https://app.seniorplace.com/api/files/public/5c0fd393-933d-4320-83e0-215543672118,,
Maple Springs of North Logan,"350 East 2200 North, North Logan, UT 84341",North Logan,UT,84341,https://app.seniorplace.com/communities/show/c1b02b30-cb9c-4b23-a8c6-dfa68f649554,https://placement-crm-cdn.s3.us-west-2.amazonaws.com/_entities/communities/2095303340029d47b7af854230de8c8e.jpg,"Assisted Living Community, Nursing Home","Continuing Care Retirement Community, Assisted Living Facility, Skilled Nursing"
Meadow Brook Rehabilitation and Nursing,"433 East 2700 South, Salt Lake City, UT 84115",Salt Lake City,UT,84115,https://app.seniorplace.com/communities/show/aab641e0-3194-4fc1-bcd7-0e7bf41ff757,,Nursing Home,Skilled Nursing
Meadow Peak Assisted Living,"6084 South Summit Vista Boulevard, Taylorsville, UT 84129",Taylorsville,UT,84129,https://app.seniorplace.com/communities/show/1d3123bb-6c72-4c13-a928-06e1373e4e20,https://app.seniorplace.com/api/files/public/c95b3cb3-9f75-452b-8905-00da1ede0cb3,"Assisted Living Community, Home Care, Nursing Home","Assisted Living Facility, Skilled Nursing, Home Health"
Mervyn Sharp Bennion Central Utah Veterans Home,"1551 North Main Street, Payson, UT 84651",Payson,UT,84651,https://app.seniorplace.com/communities/show/d123257d-b6e6-45e7-b37f-71e528b82a23,https://placement-crm-cdn.s3.us-west-2.amazonaws.com/_entities/communities/92243d2ee8036e3c78f91f5c7a84ca59.jpg,Nursing Home,Skilled Nursing
Midtown Manor,"125 South 900 West, Salt Lake City, UT 84104",Salt Lake City,UT,84104,https://app.seniorplace.com/communities/show/2c9f6b0b-abe2-459f-b6ec-ff749b4f7431,https://placement-crm-cdn.s3.us-west-2.amazonaws.com/_entities/communities/45ef54f55ccd06147685142e7ecb2126.jpg,Nursing Home,Skilled Nursing
Millard County Care and Rehabilitation,"150 White Sage Avenue, Delta, UT 84624",Delta,UT,84624,https://app.seniorplace.com/communities/show/7247e2fa-c9a6-4432-b8d8-1899895b6887,https://placement-crm-cdn.s3.us-west-2.amazonaws.com/_entities/communities/a7d0efd7c2f0fac17382bcc0a09686dd.jpg,Nursing Home,Skilled Nursing
Millcreek Rehabilitation and Nursing,"3520 South Highland Drive, Millcreek, UT 84106",Millcreek,UT,84106,https://app.seniorplace.com/communities/show/ea67dff4-6f16-4184-9ea3-7ad70eb8dcb8,https://placement-crm-cdn.s3.us-west-2.amazonaws.com/_entities/communities/a5f1a43a3d3f79d9e0bb86c66aaaaaba.jpg,Nursing Home,Skilled Nursing
Mission at Alpine Rehabilitation Center,"25 Alpine Drive, Pleasant Grove, UT 84062",Pleasant Grove,UT,84062,https://app.seniorplace.com/communities/show/e5eebf31-17c5-4c8a-8f19-523eea4b2105,https://placement-crm-cdn.s3.us-west-2.amazonaws.com/_entities/communities/a03a3512ddc098057187cb9084f76e20.jpg,Nursing Home,Skilled Nursing
Mission at Community Assisted Living,"10 West 400 South Street, Centerfield, UT 84622",Centerfield,UT,84622,https://app.seniorplace.com/communities/show/c5600e65-20c4-4f6e-9c36-18cf704de7ae,https://placement-crm-cdn.s3.us-west-2.amazonaws.com/_entities/communities/d6217a4791a132d33fffb42e56411c23.jpg,"Assisted Living Community, Nursing Home","Assisted Living Facility, Skilled Nursing"
Mission at Crescent Senior Living,"11052 Grapevine Cove, Sandy, UT 84070",Sandy,UT,84070,https://app.seniorplace.com/communities/show/8ed8d67e-f8c4-4eaf-b7e6-6aee5441d681,https://placement-crm-cdn.s3.us-west-2.amazonaws.com/_entities/communities/1cc52f76d2356d5ff56292c339c01e2d.jpg,Assisted Living Community,Assisted Living Facility
Mission at Maple Springs Al,"1010 Medical Drive, Brigham City, UT 84302",Brigham City,UT,84302,https://app.seniorplace.com/communities/show/74dbe8c2-a3d7-4b01-a37c-5e524158d34d,https://placement-crm-cdn.s3.us-west-2.amazonaws.com/_entities/communities/647b3ac7d60779151ea2ffe692fd5ac9.jpg,"Assisted Living Community, Nursing Home","Continuing Care Retirement Community, Assisted Living Facility, Skilled Nursing"
Moab Regional Hospital,"450 Williams Way, Moab, UT 84532",Moab,UT,84532,https://app.seniorplace.com/communities/show/1809f3e2-b0eb-4538-b0ef-3b5b299f2027,,Home Care,Hospice
Monroe Canyon Assisted Living,"535 South Main Street, Monroe, UT 84754",Monroe,UT,84754,https://app.seniorplace.com/communities/show/f9b2ff12-45a8-4324-81e2-1588877d4d0d,,Assisted Living Community,Assisted Living Facility
Monument Healthcare Cottonwood Creek,"1205 East Bonner Way, Salt Lake City, UT 84117",Salt Lake City,UT,84117,https://app.seniorplace.com/communities/show/d65504b4-6010-4dbb-9dc9-ae9e37b63053,https://placement-crm-cdn.s3.us-west-2.amazonaws.com/_entities/communities/20d5536c53b668c01fbf25c62071baf5.jpg,Nursing Home,Skilled Nursing
Monument Healthcare Millcreek,"1201 East 4500 South, Millcreek, UT 84124",Millcreek,UT,84124,https://app.seniorplace.com/communities/show/b36df8d0-66aa-4ae3-8028-5b19794ccfca,,Nursing Home,Skilled Nursing
Monument Healthcare Nephi,"1100 North 400 East, Nephi, UT 84648",Nephi,UT,84648,https://app.seniorplace.com/communities/show/2c7fd151-d1c5-42d0-ad4f-f5d798409103,https://placement-crm-cdn.s3.us-west-2.amazonaws.com/_entities/communities/7665504d54be9e987d43a79e01b718b8.jpg,Nursing Home,Skilled Nursing
Monument Healthcare North Park,"350 South 400 East, Bountiful, UT 84010",Bountiful,UT,84010,https://app.seniorplace.com/communities/show/a0d3dae5-1fc7-4837-95a8-553bc19f9641,https://placement-crm-cdn.s3.us-west-2.amazonaws.com/_entities/communities/13e89f9cd6cfd188b1a9cf7a0855bdcc.jpg,Nursing Home,Skilled Nursing
Monument Healthcare Pioneer Trail,"815 South 200 West, Brigham City, UT 84302",Brigham City,UT,84302,https://app.seniorplace.com/communities/show/0b878105-ac1a-4a13-8d80-a26d7a35405a,https://placement-crm-cdn.s3.us-west-2.amazonaws.com/_entities/communities/08dc162be6e28a31009579ce4923fb67.jpg,Nursing Home,Skilled Nursing
Monument Healthcare South Salt Lake,"2472 South 300 East, South Salt Lake, UT 84115",South Salt Lake,UT,84115,https://app.seniorplace.com/communities/show/c7bdbd67-7275-4952-8976-3603293ed77d,https://placement-crm-cdn.s3.us-west-2.amazonaws.com/_entities/communities/fe6b9b5ac4159af5aa9875d6c19f4f29.jpg,Nursing Home,Skilled Nursing
Monument Healthcare Taylorsville,"6246 South Redwood Road, Salt Lake City, UT 84118",Salt Lake City,UT,84118,https://app.seniorplace.com/communities/show/07f3ba5e-0d08-4fc6-8fe8-8087d3d184cd,https://placement-crm-cdn.s3.us-west-2.amazonaws.com/_entities/communities/1c0c4a5ddd89e6bef1621e22c2425d51.jpg,Nursing Home,Skilled Nursing
Mountain View Assisted Living,"11289 S. Oakmond Road, South Jordan, UT",South Jordan,UT,,https://app.seniorplace.com/communities/show/b2bbc030-dc96-4a7d-957b-8f89fee83e76,https://app.seniorplace.com/api/files/public/512f0fbf-dcb9-4621-b1f6-1afddc453a8f,,
Mountain View Health Services,"5865 Wasatch Drive, South Ogden, UT 84403",South Ogden,UT,84403,https://app.seniorplace.com/communities/show/1dc672b7-d81b-4010-b2a7-ea145bf5ecf8,https://placement-crm-cdn.s3.us-west-2.amazonaws.com/_entities/communities/8baf5d4982696679a140fdf3fa0aa060.jpg,Nursing Home,Skilled Nursing
Mt Ogden Health and Rehabilitation Center,"375 East 5350 South, Washington Terrace, UT 84405",Washington Terrace,UT,84405,https://app.seniorplace.com/communities/show/eefe140e-82ee-4d91-b397-38030a2ba1b1,,Nursing Home,Skilled Nursing
Mt Olympus Rehabilitation Center,"2200 East 3300 South, Salt Lake City, UT 84109",Salt Lake City,UT,84109,https://app.seniorplace.com/communities/show/52f8edaa-aea1-4b51-9b28-78c92f4d030e,https://placement-crm-cdn.s3.us-west-2.amazonaws.com/_entities/communities/4146340a33e0cd22a982fabc1a4c0636.jpg,Nursing Home,Skilled Nursing
Neurorestorative,"13747 South Redwood Road, Riverton, UT 84065",Riverton,UT,84065,https://app.seniorplace.com/communities/show/434e4dda-86e2-4ee1-ab79-ca7558f0e301,https://placement-crm-cdn.s3.us-west-2.amazonaws.com/_entities/communities/b5f086eddcf2758e8b1ee51d9549420d.jpg,Nursing Home,Skilled Nursing
Niitsuma Living Center - Does Not Pay Referral Agents,"4347 South 700 East, Salt Lake City, UT 84107",Salt Lake City,UT,84107,https://app.seniorplace.com/communities/show/e36ef921-91cf-4eb4-bcbb-e972f90d2ae0,https://placement-crm-cdn.s3.us-west-2.amazonaws.com/_entities/communities/2f0b3f1af40adf77c148b2d5b1251aa7.jpg,"Assisted Living Community, Assisted Living Home","Assisted Living Facility, Assisted Living Home"
Oak Ridge Assisted Living,"463 Rawlins Circle, Centerville, UT 84014",Centerville,UT,84014,https://app.seniorplace.com/communities/show/8e530122-a653-4ee9-9f2f-7560d4b4f1a1,https://placement-crm-cdn.s3.us-west-2.amazonaws.com/_entities/communities/f399ce834e4dacadc092ba7edee2be1c.jpg,Assisted Living Community,Assisted Living Facility
Oak Ridge Assisted Living of Bountiful,"905 West 4000 South, Bountiful, UT 84010",Bountiful,UT,84010,https://app.seniorplace.com/communities/show/8b8ac833-c0ef-4925-bcbd-b70c42a232ce,https://placement-crm-cdn.s3.us-west-2.amazonaws.com/_entities/communities/b46ea1378901673609c9cec6f367a366.jpg,Assisted Living Community,Assisted Living Facility
Olympus Ranch Gracious Living/Do Not Refer,"971 E 5600 S, Murray, UT 84121",Murray,UT,84121,https://app.seniorplace.com/communities/show/506ceeb2-139b-4103-aa5f-e2cd870ba470,https://app.seniorplace.com/api/files/public/2b2fe5d9-100f-4ecd-b69e-34c960972ca3,Independent Living,Independent Living
Orchard View Assisted Living & Memory Care,"1173 Turf Farm Road, Payson, UT 84651",Payson,UT,84651,https://app.seniorplace.com/communities/show/4ce0801e-f233-4f6a-a1ae-48d1412fb46b,,Assisted Living Community,Assisted Living Facility
Orem Rehabilitation and Nursing Center,"575 East 1400 South, Orem, UT 84097",Orem,UT,84097,https://app.seniorplace.com/communities/show/92fb58d0-66e9-44f8-8c2f-f659e6f23084,https://placement-crm-cdn.s3.us-west-2.amazonaws.com/_entities/communities/00443e8c28a4eda7b7aa409a2e237111.jpg,Nursing Home,Skilled Nursing
Our House Assisted Living of Ogden,"446 North Jefferson Avenue East, Ogden, UT 84404",Ogden,UT,84404,https://app.seniorplace.com/communities/show/6b274c4a-3549-4dc9-b8f1-65079f4b750d,https://app.seniorplace.com/api/files/public/258badf1-0087-46d7-903c-d73abf9ae89e,Assisted Living Community,Assisted Living Facility
Our House of Cedar City,"995 Regency Road, Cedar City, UT 84720",Cedar City,UT,84720,https://app.seniorplace.com/communities/show/d04db3a2-45a8-4f76-8875-f122d71b7593,https://placement-crm-cdn.s3.us-west-2.amazonaws.com/_entities/communities/d6cbba1fffaf6e38fb885ea1b2a79767.jpg,Assisted Living Community,Assisted Living Facility
Our House of Tooele,"251 1000 North, Tooele, UT 84074",Tooele,UT,84074,https://app.seniorplace.com/communities/show/b329f224-16ec-49a1-a96a-55359f158c82,https://app.seniorplace.com/api/files/public/1a721e67-6f79-4433-83cb-58e8ffea232d,Assisted Living Community,Assisted Living Facility
Our House of Tremonton,"429 North 400 West, Tremonton, UT 84337",Tremonton,UT,84337,https://app.seniorplace.com/communities/show/185dde8a-89b5-4ffa-b3e4-b18504741201,https://placement-crm-cdn.s3.us-west-2.amazonaws.com/_entities/communities/3c762cd344d0f5fae7e36ff4ed669e81.jpg,Assisted Living Community,Assisted Living Facility
Ovation at Sienna Hills,"1510 East Ovation Place, Washington, UT 84780",Washington,UT,84780,https://app.seniorplace.com/communities/show/fd8b75cb-c6d3-4dee-bea1-65724b16242e,https://app.seniorplace.com/api/files/public/06c10a6f-665f-4a61-8b1c-739db931bc37,"Assisted Living Community, Independent Living, Memory Care, Nursing Home","Continuing Care Retirement Community, Independent Living, Assisted Living Facility, Memory Care, Skilled Nursing"
Ovation Hospice Salt Lake,"800 Fort Union Boulevard, Midvale, UT 84047",Midvale,UT,84047,https://app.seniorplace.com/communities/show/a12995dd-506e-463c-b2a0-c769ac51f2ed,https://placement-crm-cdn.s3.us-west-2.amazonaws.com/_entities/communities/07252241167c4e65bbc66ef4835d948c.jpg,Home Care,Hospice
Ovation Sienne Hills,"1525 East Ovation Place, Washington, UT 84780",Washington,UT,84780,https://app.seniorplace.com/communities/show/f7c2185a-d8ae-481b-b8f7-2c738e96793c,https://app.seniorplace.com/api/files/public/6fa57e23-aea9-4efd-af13-bfc88ce064d8,,
Paramount Health and Rehabilitation,"4035 South 500 East, Millcreek, UT 84107",Millcreek,UT,84107,https://app.seniorplace.com/communities/show/3e664112-8652-4ee2-be1c-5a2efb46fdde,https://placement-crm-cdn.s3.us-west-2.amazonaws.com/_entities/communities/29c0fe57a4f1441b735fddf4001c8de9.jpg,Nursing Home,Skilled Nursing
Park Lane Senior Living (Stellar),"680 E 100 S, Salt Lake City, UT 84102",Salt Lake City,UT,84102,https://app.seniorplace.com/communities/show/3ddecddf-32f6-4743-9e5b-4503c457bc6e,https://app.seniorplace.com/api/files/public/baf7d8ca-f467-4ff3-883e-d826a4a1071f,Independent Living,Independent Living
Parkdale Health and Rehab,"250 East 600 North, Price, UT 84501",Price,UT,84501,https://app.seniorplace.com/communities/show/005e385b-7ece-4ec6-b0a5-35e7473c86bf,,Nursing Home,Skilled Nursing
Parkside Manor,"822 West Lagoon Street, Roosevelt, UT 84066",Roosevelt,UT,84066,https://app.seniorplace.com/communities/show/8739124b-6dc2-41af-b957-11188a6ab863,,Assisted Living Community,Assisted Living Facility
Parkway Health Center,"55 Professional Way, Payson, UT 84651",Payson,UT,84651,https://app.seniorplace.com/communities/show/b7492086-6e82-4dd7-a0a0-e4e164d5fca4,,Nursing Home,Skilled Nursing
Peak Specialty Group Hospice,"1220 East 3900 South, Salt Lake City, UT 84124",Salt Lake City,UT,84124,https://app.seniorplace.com/communities/show/f345c668-fede-4525-875d-a762e1574831,https://placement-crm-cdn.s3.us-west-2.amazonaws.com/_entities/communities/99c6852faf912abacd9f97c9e5c4a249.jpg,Home Care,Hospice
Petersen Farms Assisted Living and Memory Care,"6980 South 475 East, South Weber, UT 84405",South Weber,UT,84405,https://app.seniorplace.com/communities/show/e5fc6981-d657-4a33-b63a-650a67ecf308,https://placement-crm-cdn.s3.us-west-2.amazonaws.com/_entities/communities/24f5eddd1140ad9c6d666c53c32c3b8d.jpg,Assisted Living Community,Assisted Living Facility
Pheasant View Assisted Living,"1242 East Pheasant View Drive, Layton, UT 84041",Layton,UT,84041,https://app.seniorplace.com/communities/show/cbdda983-5f25-4370-92ec-15f0449e2bc0,https://placement-crm-cdn.s3.us-west-2.amazonaws.com/_entities/communities/578b14ab7fa7dfd2a7fc437b72237e37.jpg,Assisted Living Community,Assisted Living Facility
Pineview Assisted Living of Eden,"2547 North Valley Junction Drive, Eden, UT 84310",Eden,UT,84310,https://app.seniorplace.com/communities/show/79453e85-ed7e-414a-992f-3ad2511d3f82,https://placement-crm-cdn.s3.us-west-2.amazonaws.com/_entities/communities/216791f8d1ea07d2ae48f9f1459e014d.jpg,Assisted Living Community,Assisted Living Facility
Pinnacle Home Health,"6084 South Summit Vista Boulevard, Taylorsville, UT 84129",Taylorsville,UT,84129,https://app.seniorplace.com/communities/show/37507879-79bf-43bb-a01c-9c4ae1fe1d5e,https://placement-crm-cdn.s3.us-west-2.amazonaws.com/_entities/communities/cbf9de1b8dc264c0bfa954cf98ad2d04.jpg,"Assisted Living Community, Home Care, Nursing Home","Assisted Living Facility, Skilled Nursing, Home Health"
Pinnacle Nursing and Rehabilitation Center,"1340 East 300 North, Price, UT 84501",Price,UT,84501,https://app.seniorplace.com/communities/show/87dbee76-02ae-40fe-a647-f2f7180817b6,https://placement-crm-cdn.s3.us-west-2.amazonaws.com/_entities/communities/81d28235f57abfd146669c5d625fd13f.jpg,Nursing Home,Skilled Nursing
Pioneer Valley Lodge Gracious Retirement Living,"2351 N 400 E, North Logan, UT 84341",North Logan,UT,84341,https://app.seniorplace.com/communities/show/1eb40528-e399-45cc-ab48-fcd9df9fcdb7,https://app.seniorplace.com/api/files/public/f7ce7b44-7ac8-47e6-8420-c74e45ffb7c0,Independent Living,Independent Living
Pointe Meadows Health and Rehabilitation,"North Digital Drive, Lehi, UT 84043",Lehi,UT,84043,https://app.seniorplace.com/communities/show/dcea3f03-57c8-4cea-b256-6ef2c5795057,https://placement-crm-cdn.s3.us-west-2.amazonaws.com/_entities/communities/43af73d8c53dfc54804094fe1bc390ba.jpg,"Home Care, Nursing Home","Skilled Nursing, Home Health, Hospice"
Primrose Hospice,"286 North Gateway Drive, Providence, UT 84332",Providence,UT,84332,https://app.seniorplace.com/communities/show/fecccfbe-8633-4c69-bdc5-9816c85015f7,https://placement-crm-cdn.s3.us-west-2.amazonaws.com/_entities/communities/05f47e6eae9a09d413074f386ee48486.jpg,Home Care,"Home Health, Hospice"
Primrose of Washington,"5190 South Washington Fields Road, Washington, UT 84780",Washington,UT,84780,https://app.seniorplace.com/communities/show/e02e8bb4-5d61-4265-bcaa-3e055732bcde,https://app.seniorplace.com/api/files/public/e3ed3b4e-fcbf-430b-adde-75b1a485e175,"Assisted Living Community, Independent Living, Memory Care","Independent Living, Assisted Living Facility, Memory Care"
Provo Rehabilitation and Nursing,"1001 North 500 West, Provo, UT 84604",Provo,UT,84604,https://app.seniorplace.com/communities/show/3e035056-cb89-48fd-a735-69d8d5a1a241,https://placement-crm-cdn.s3.us-west-2.amazonaws.com/_entities/communities/bd773aa1debe4742f6edf12477c11ba5.jpg,Nursing Home,Skilled Nursing
Quail Meadow Assisted Living,"786 East 2100 North, North Ogden, UT 84404",North Ogden,UT,84404,https://app.seniorplace.com/communities/show/e16acee6-07ae-4d29-aa3b-6046193f6ed5,https://app.seniorplace.com/api/files/public/73dd02f4-9be3-473f-b553-68ad021c7e95,"Assisted Living Community, Memory Care","Assisted Living Facility, Memory Care"
Quality Hospice,"888 East 3900 South, Murray, UT 84107",Murray,UT,84107,https://app.seniorplace.com/communities/show/ff222990-498f-4a05-9a9b-8af97f140ff6,https://placement-crm-cdn.s3.us-west-2.amazonaws.com/_entities/communities/bfdf0fb89b0ec9c15f49a5066e7a17b4.jpg,Home Care,"Home Health, Hospice"
Raintree Senior Living,"2063 West 1900 South, Syracuse, UT 84075",Syracuse,UT,84075,https://app.seniorplace.com/communities/show/f7e4437a-be6d-46e5-98f4-18de7104be9e,https://app.seniorplace.com/api/files/public/27dadfee-0ce4-4481-8f07-f77e6376e841,Assisted Living Community,Assisted Living Facility
Rathburn Healthcare,"152 West Burton Avenue, South Salt Lake, UT 84115",South Salt Lake,UT,84115,https://app.seniorplace.com/communities/show/4377840c-8145-4c6b-bc32-dab582783330,https://placement-crm-cdn.s3.us-west-2.amazonaws.com/_entities/communities/f56244ee167333f49b73f6a42acfc159.jpg,Home Care,"Home Health, Hospice"
Red Cliffs Assisted Living,"338 South 400 East, Nephi, UT 84648",Nephi,UT,84648,https://app.seniorplace.com/communities/show/84eab1e4-a8cf-4197-8d5e-9d7924e3b467,https://placement-crm-cdn.s3.us-west-2.amazonaws.com/_entities/communities/2fb0fc128a009d4f26be35b7acea5858.jpg,Assisted Living Community,Assisted Living Facility
Red Cliffs Health and Rehab,"1745 East 280 North, St. George, UT 84790",St. George,UT,84790,https://app.seniorplace.com/communities/show/e31702fa-dbd9-4672-84f2-7aaf9b65ef88,https://placement-crm-cdn.s3.us-west-2.amazonaws.com/_entities/communities/cad3f5353065151f531200075d0f8233.jpg,Nursing Home,Skilled Nursing
Renew Home Health,"5280 South Commerce Drive, Murray, UT 84107",Murray,UT,84107,https://app.seniorplace.com/communities/show/12e1022e-c4fa-4eec-ba46-e77af494408f,,Home Care,"Home Health, Hospice"
Renew Hospice,"5280 South Commerce Drive, Murray, UT 84107",Murray,UT,84107,https://app.seniorplace.com/communities/show/c4d6506f-a830-458d-b990-59af1ee7e764,,Home Care,"Home Health, Hospice"
Ridgeview Gardens of St George,"220 South 1200 East, St. George, UT 84790",St. George,UT,84790,https://app.seniorplace.com/communities/show/79a6bc5b-b5a6-4309-a466-2a8a08aefbc0,https://app.seniorplace.com/api/files/public/057dd85a-b2aa-4565-982d-e678dcdda379,Assisted Living Community,Assisted Living Facility
River Meadows Senior Living,"137 Red Pine Drive, Alpine, UT 84004",Alpine,UT,84004,https://app.seniorplace.com/communities/show/3afcf2ba-800c-426b-b1d4-63e8f9da7ecd,https://app.seniorplace.com/api/files/public/7763877c-8afb-45b8-91e2-e3e0ea9b0348,Assisted Living Community,Assisted Living Facility
River Pointe Assisted Living,"462 S. 900 E. St., Provo, UT 84606, Provo, UT 84606",Provo,UT,84606,https://app.seniorplace.com/communities/show/908949ad-38a3-4dd3-bbfa-0518759dcded,https://app.seniorplace.com/api/files/public/75579648-a3cb-4b68-b1fb-bd8ce06eba16,,
Riverway Assisted Living and Memory Care,"1352 West 11400 South, South Jordan, UT 84095",South Jordan,UT,84095,https://app.seniorplace.com/communities/show/db23382c-6c9b-43c9-ad88-43e67c343603,https://app.seniorplace.com/api/files/public/a2f8a320-ee9c-4cce-808c-fb2560fc029a,Assisted Living Community,Assisted Living Facility
Rocky Mountain Care - Clearfield,"1481 East 1450 South, Clearfield, UT 84015",Clearfield,UT,84015,https://app.seniorplace.com/communities/show/b65cd81a-f48d-4a57-8775-efc54c3c1613,https://placement-crm-cdn.s3.us-west-2.amazonaws.com/_entities/communities/fcccc1420042f56dbba6e32fc3cb6362.jpg,Nursing Home,Skilled Nursing
Rocky Mountain Care - Cottage on Vine,"835 East Vine Street, Murray, UT 84107",Murray,UT,84107,https://app.seniorplace.com/communities/show/84d2748d-e423-46f1-9ca9-d578c7e3a361,https://placement-crm-cdn.s3.us-west-2.amazonaws.com/_entities/communities/66b08cd33032e593445a9c06be05c00d.jpg,Nursing Home,Skilled Nursing
Rocky Mountain Care - Grove Creek Assisted Living,"175 North State Street, Lindon, UT 84042",Lindon,UT,84042,https://app.seniorplace.com/communities/show/70d867f9-e3f0-4df8-9fe2-59650fc53cce,,Assisted Living Community,Assisted Living Facility
Rocky Mountain Care - Hunter Hollow,"South 4090 West, West Valley City, UT 84120",West Valley City,UT,84120,https://app.seniorplace.com/communities/show/74077981-4593-4fc2-a9ef-9885f9f2f7ef,,Nursing Home,Skilled Nursing
Rocky Mountain Care - Landmark Assisted Living,"301 East 100 South, Vernal, UT 84078",Vernal,UT,84078,https://app.seniorplace.com/communities/show/9cd017ee-f4d7-4221-b0c1-9a54cc8d8024,https://placement-crm-cdn.s3.us-west-2.amazonaws.com/_entities/communities/0454cceeb3448bd00d5235ad3b1b5abf.jpg,Assisted Living Community,Assisted Living Facility
Rocky Mountain Care - Logan,"1480 North 400 East, Logan, UT 84341",Logan,UT,84341,https://app.seniorplace.com/communities/show/234e0d33-6bd9-4071-ba5c-c1d132d120d7,https://placement-crm-cdn.s3.us-west-2.amazonaws.com/_entities/communities/73fb49717f87e4d64f3a0ffc9255f9ec.jpg,Nursing Home,Skilled Nursing
Rocky Mountain Care - Riverton,"3419 West 12600 South, Riverton, UT 84065",Riverton,UT,84065,https://app.seniorplace.com/communities/show/59af9089-aaf9-427f-8d28-f8b979b639ee,,Nursing Home,Skilled Nursing
Rocky Mountain Care - the Lodge,"544 East 1200 South, Heber City, UT 84032",Heber City,UT,84032,https://app.seniorplace.com/communities/show/e3a74a3c-f201-408d-928a-1a3192e094dc,,Nursing Home,Skilled Nursing
Rocky Mountain Care - Willow Springs,"85 East 2000 North, Tooele, UT 84074",Tooele,UT,84074,https://app.seniorplace.com/communities/show/8fe1775d-0289-4b6d-beb9-1a214d88f467,https://placement-crm-cdn.s3.us-west-2.amazonaws.com/_entities/communities/b6365f0ecdd081395a0be5e7bfbf9168.jpg,Nursing Home,Skilled Nursing
Rocky Mountain Care -Spring Hollow Assisted Living,"92 South 800 East, Orem, UT 84097",Orem,UT,84097,https://app.seniorplace.com/communities/show/be250dca-7318-4cbf-922c-ba2802348b25,https://app.seniorplace.com/api/files/public/be7c6589-c03f-46bc-851a-eb7b6ef87893,Assisted Living Community,Assisted Living Facility
"Rocky Mountain Care, Provo - River Pointe Assisted Living","462 South 900 East Street, Provo, UT 84606",Provo,UT,84606,https://app.seniorplace.com/communities/show/885b59e9-3d51-42c3-b70c-993e8e2ddcfe,https://placement-crm-cdn.s3.us-west-2.amazonaws.com/_entities/communities/f2afb0f31212c2478302233ddd2e80ff.jpg,Assisted Living Community,Assisted Living Facility
Rosecrest Assisted Living,"48 West 700 South, St. George, UT 84770",St. George,UT,84770,https://app.seniorplace.com/communities/show/b0565b97-d88e-4683-bdda-fa1ef9b8c3ea,https://app.seniorplace.com/api/files/public/f92ec41f-9741-4e34-8d56-c094723e0410,Assisted Living Community,Assisted Living Facility
Rosewood Assisted Care,"464 East 3700 South, South Salt Lake, UT 84115",South Salt Lake,UT,84115,https://app.seniorplace.com/communities/show/6a79a02c-2c0a-4181-acc8-26759d799592,https://placement-crm-cdn.s3.us-west-2.amazonaws.com/_entities/communities/c50ef13905870758c52935c0b12c58a4.jpg,Assisted Living Community,Assisted Living Facility
Sagewood at Daybreak,"11289 South Oakmond Road, South Jordan, UT 84009",South Jordan,UT,84009,https://app.seniorplace.com/communities/show/3e39e21d-28ce-4b97-8f89-31c84a83f8e2,https://app.seniorplace.com/api/files/public/c75656fa-bf55-4cda-b853-9a0c8ca92154,"Assisted Living Community, Independent Living, Memory Care","Independent Living, Assisted Living Facility, Memory Care"
San Rafael Health and Rehabilitation,"455 West Mill Road, Ferron, UT 84523",Ferron,UT,84523,https://app.seniorplace.com/communities/show/968eaf65-674a-47f6-bc69-20fe6f235b47,,Nursing Home,Skilled Nursing
Sandstone American Fork,"350 East 300 North, American Fork, UT 84003",American Fork,UT,84003,https://app.seniorplace.com/communities/show/c9ec8dd3-de3f-4f90-89d2-8124083b3e41,https://placement-crm-cdn.s3.us-west-2.amazonaws.com/_entities/communities/bc85739a35845571a0dd5caa29f4b708.jpg,Nursing Home,Skilled Nursing
Sandstone Brigham City,"775 North 200 East, Brigham City, UT 84302",Brigham City,UT,84302,https://app.seniorplace.com/communities/show/ed9e6b5a-8808-4812-99fa-8de6ec4a16db,https://placement-crm-cdn.s3.us-west-2.amazonaws.com/_entities/communities/be446c85f5ce4b20c26e1eea973171e7.jpg,Nursing Home,Skilled Nursing
Sandstone Richfield,"163 East 1000 North, Richfield, UT 84701",Richfield,UT,84701,https://app.seniorplace.com/communities/show/b78750aa-1513-4d61-8a8f-b479f8b5ad8f,https://placement-crm-cdn.s3.us-west-2.amazonaws.com/_entities/communities/6aac8b4ef5ad5dc3a3b408293f08a8ee.jpg,Nursing Home,Skilled Nursing
Sandy Health and Rehab,"50 East 9000 South, Sandy, UT 84070",Sandy,UT,84070,https://app.seniorplace.com/communities/show/64917e00-4db5-429f-ad7e-04e4541c7c9e,https://placement-crm-cdn.s3.us-west-2.amazonaws.com/_entities/communities/5fe59ab40b169fea7dcfa1072dd35139.jpg,Nursing Home,Skilled Nursing
Sarah Daft Home,"737 South 1300 East, Salt Lake City, UT 84102",Salt Lake City,UT,84102,https://app.seniorplace.com/communities/show/3a50e0d7-d324-410a-aaaa-958124dcb15e,https://placement-crm-cdn.s3.us-west-2.amazonaws.com/_entities/communities/1d7a1fa71211be7171cd035df76ace6a.jpg,Assisted Living Community,Assisted Living Facility
Seasons Assisted Living of Farr West,"1979 Heritage Drive, Farr West, UT 84404",Farr West,UT,84404,https://app.seniorplace.com/communities/show/f9c45e37-2f52-4dc1-acb5-f326281d8ae6,https://app.seniorplace.com/api/files/public/94b520a5-77b3-4673-91b3-165a1041680e,Assisted Living Community,Assisted Living Facility
Seasons Healthcare and Rehabilitation,"242 North 200 West, St. George, UT 84770",St. George,UT,84770,https://app.seniorplace.com/communities/show/3be472f8-a324-407e-aa1f-d23ea8e8bdfa,https://placement-crm-cdn.s3.us-west-2.amazonaws.com/_entities/communities/f442b265154648e362eaa77c07951904.jpg,Nursing Home,Skilled Nursing
Seasons of Santaquin,"785 150 South, Santaquin, UT 84655",Santaquin,UT,84655,https://app.seniorplace.com/communities/show/f1e56e21-0291-473a-a684-2afbee5bcf55,https://placement-crm-cdn.s3.us-west-2.amazonaws.com/_entities/communities/f270fe3054f56308ad0358d30923b438.jpg,Assisted Living Community,Assisted Living Facility
Sego Lily Assisted Living,"465 East Sego Lily Drive, Sandy, UT 84070",Sandy,UT,84070,https://app.seniorplace.com/communities/show/591a9413-e0ea-41e6-9a58-45810c8cdc9e,https://placement-crm-cdn.s3.us-west-2.amazonaws.com/_entities/communities/7e133f28fb6a9fffe5780ebb04cc589f.jpg,Assisted Living Community,Assisted Living Facility
Senior Living on Washington - Low Income Housing for 62+ No Contract,"2955 Washington Blvd, Ogden, UT 84401",Ogden,UT,84401,https://app.seniorplace.com/communities/show/f293098b-2348-46d7-9213-374d830a4888,https://app.seniorplace.com/api/files/public/639f41bb-4aa9-4126-abc4-e87e83f4b5eb,Independent Living,Independent Living
Senior Living on Washington 62+,"2955 Washington Boulevard, Ogden, UT 84401",Ogden,UT,84401,https://app.seniorplace.com/communities/show/fe0fdbc8-a8fa-43d5-b7e2-d3f1364b098a,https://app.seniorplace.com/api/files/public/4025aa9a-ff8b-4edb-9a03-042dd25dddf3,,
Serenity Hospice of Utah,"627 West 4000 North, Pleasant Grove, UT 84062",Pleasant Grove,UT,84062,https://app.seniorplace.com/communities/show/210e1052-9031-4747-8a44-b9fb6b41d6f1,https://placement-crm-cdn.s3.us-west-2.amazonaws.com/_entities/communities/e9e3ec375b79e0d7353602ff7dd42d9f.jpg,Home Care,"Home Health, Hospice"
Silver Lake Healthcare,"1916 North 700 West, Layton, UT 84041",Layton,UT,84041,https://app.seniorplace.com/communities/show/c4b72429-c1cc-49e4-9c10-d6d8b722e152,https://placement-crm-cdn.s3.us-west-2.amazonaws.com/_entities/communities/c749d09a5fefa132bc4d4045a902a4eb.jpg,Home Care,"Home Health, Hospice"
Solista Orem,"325 West Center Street, Orem, UT 84057",Orem,UT,84057,https://app.seniorplace.com/communities/show/8a2a5dbf-beb9-4902-a6a9-71f07fe73613,https://app.seniorplace.com/api/files/public/483c566a-0d59-4a82-bc62-fb0804705445,Independent Living,Independent Living
Solstice Hospice and Palliative Care,"1250 East 3900 South, Salt Lake City, UT 84124",Salt Lake City,UT,84124,https://app.seniorplace.com/communities/show/59ea2fcb-1526-4844-a8cd-5af79cc58e43,https://placement-crm-cdn.s3.us-west-2.amazonaws.com/_entities/communities/8b9b55d5d736e5607370c9f05043b6a0.jpg,Home Care,"Home Health, Hospice"
Solstice Senior Living at Sandy,"310 E 10600 S, Sandy, UT 84070",Sandy,UT,84070,https://app.seniorplace.com/communities/show/794418c5-bae7-443c-b615-af2d6b9aa7c7,https://app.seniorplace.com/api/files/public/155b3eac-8adc-4aa8-b1bc-4a3a15ef812e,"Home Care, Independent Living","Independent Living, Home Health, Hospice"
Solstice Senior Living at Sandy,"310 E 10600 S,, Sandy, UT 84070",Sandy,UT,84070,https://app.seniorplace.com/communities/show/b20a9c1e-e249-4ac6-b83b-59f93b282103,https://app.seniorplace.com/api/files/public/8680cd09-aed2-4412-af6c-9638369fa116,"Home Care, Independent Living","Independent Living, Home Health"
South Davis Specialty Care,"481 South 400 East, Bountiful, UT 84010",Bountiful,UT,84010,https://app.seniorplace.com/communities/show/1522023e-8f0d-4dd8-8802-202342a6c309,https://placement-crm-cdn.s3.us-west-2.amazonaws.com/_entities/communities/55ea31e3c962055357ba556e5397a8f9.jpg,"Home Care, Nursing Home","Skilled Nursing, Home Health, Hospice"
South Jordan View Retirement Community,"11352 S Redwood Rd, South Jordan, South Jordan, UT 84095",South Jordan,UT,84095,https://app.seniorplace.com/communities/show/e98b1700-bfb3-4736-b351-0df663f7b43a,https://app.seniorplace.com/api/files/public/3c748513-9284-4d35-813f-667557394453,Independent Living,Independent Living
South Ogden Post Acute,"5540 South 1050 East, Ogden, UT 84405",Ogden,UT,84405,https://app.seniorplace.com/communities/show/13a4de90-5df9-405d-a2af-f5eb49290a76,,Nursing Home,Skilled Nursing
Southern Utah Hospice and Home Care,"393 East Riverside Drive, St. George, UT 84790",St. George,UT,84790,https://app.seniorplace.com/communities/show/5d216a43-ae3e-414a-ad0e-fc82eddecf00,https://placement-crm-cdn.s3.us-west-2.amazonaws.com/_entities/communities/ecc05c92ac8ed80c3c6bcf50d09e6666.jpg,Home Care,Hospice
Southern Utah Veterans Home - Ivins,"160 North 200 East, Ivins, UT 84738",Ivins,UT,84738,https://app.seniorplace.com/communities/show/651db31b-0a1d-4240-8d5a-f3522af1dd8a,https://placement-crm-cdn.s3.us-west-2.amazonaws.com/_entities/communities/847ec2ee0c1b9ee2efa1b2a79361fb97.jpg,Nursing Home,Skilled Nursing
Southgate Senior Living - Stellar Living,"134 West 2025 South, St. George, UT 84770",St. George,UT,84770,https://app.seniorplace.com/communities/show/1e0beeeb-5251-48c5-bcd4-ac3f5ed5f2ec,https://app.seniorplace.com/api/files/public/032c4741-c3ca-4dc1-8537-bf40bf67bf4a,"Assisted Living Community, Memory Care","Assisted Living Facility, Memory Care"
Spanish Fork Rehabilitation and Nursing,"151 East Center Street, Spanish Fork, UT 84660",Spanish Fork,UT,84660,https://app.seniorplace.com/communities/show/cd190152-1af4-4c17-b83e-422009efe337,https://placement-crm-cdn.s3.us-west-2.amazonaws.com/_entities/communities/32917db0c8ee881bdcf1585ecf0948aa.jpg,Nursing Home,Skilled Nursing
Spring Creek Healthcare Center,"4600 South Highland Drive, Millcreek, UT 84117",Millcreek,UT,84117,https://app.seniorplace.com/communities/show/11afb11a-b36e-4a1e-8028-cc5662d08c5b,https://placement-crm-cdn.s3.us-west-2.amazonaws.com/_entities/communities/120f7da90357f0a4a2dc8e710c0690a0.jpg,Nursing Home,Skilled Nursing
Spring Gardens Draper,"1393 Pioneer Road, Draper, UT 84020",Draper,UT,84020,https://app.seniorplace.com/communities/show/34b2afb5-c635-49e5-be2a-31f299bc644a,https://app.seniorplace.com/api/files/public/e7148f96-30fa-46c1-be28-6d38672de380,"Assisted Living Community, Memory Care","Assisted Living Facility, Memory Care"
Spring Gardens Heber,"551 East 1200 South, Heber City, UT 84032",Heber City,UT,84032,https://app.seniorplace.com/communities/show/54f7c8be-6294-4a06-9a5b-00a386dbf945,https://app.seniorplace.com/api/files/public/33951475-f266-4b67-9116-cb824a3cbb34,"Assisted Living Community, Independent Living, Memory Care","Independent Living, Assisted Living Facility, Memory Care"
Spring Gardens Holladay,"2728 East 3900 South, Holladay, UT 84124",Holladay,UT,84124,https://app.seniorplace.com/communities/show/429291c2-6fd6-4e9c-b0bf-b5e389e635bb,https://app.seniorplace.com/api/files/public/d7b0beff-66f4-4d7b-bd4e-15fcca739584,Assisted Living Community,Assisted Living Facility
Spring Gardens Mapleton,"1483 West 800 South Street, Mapleton, UT 84664",Mapleton,UT,84664,https://app.seniorplace.com/communities/show/07e9499e-cd30-426c-97ff-aa6d1d3e66a4,https://app.seniorplace.com/api/files/public/5b78db69-0d2e-426d-b3bb-a8c0a217e4b0,Assisted Living Community,Assisted Living Facility
Spring Gardens Midvale,"6968 South 700 West, Midvale, UT 84047",Midvale,UT,84047,https://app.seniorplace.com/communities/show/e8580538-23f0-442e-a246-cd1a92a9b0f7,https://placement-crm-cdn.s3.us-west-2.amazonaws.com/_entities/communities/02aac50c7ad22af1dc2f3f0c489dd10f.jpg,Assisted Living Community,Assisted Living Facility
Spring Gardens of Lindon,"815 700 North, Lindon, UT 84042",Lindon,UT,84042,https://app.seniorplace.com/communities/show/8fcae84e-7e61-430f-9fcb-6d3d90598af7,https://app.seniorplace.com/api/files/public/b53ad63f-d1af-49c2-bdd1-8a3948cead3e,"Assisted Living Community, Memory Care","Assisted Living Facility, Memory Care"
Spring Gardens of St George,"2654 Red Cliffs Drive, St. George, UT 84790",St. George,UT,84790,https://app.seniorplace.com/communities/show/abb1cb72-06ab-4afe-a001-d6abf4f403d8,https://app.seniorplace.com/api/files/public/7dac4665-0e71-46e8-b4e0-e9c9503fa899,"Assisted Living Community, Memory Care","Assisted Living Facility, Memory Care"
Spring Gardens Senior Living,"2654 East Red Cliffs Drive,, St George, UT 84790",St George,UT,84790,https://app.seniorplace.com/communities/show/9d27742e-24ee-4abe-a591-4fa37af60d27,https://app.seniorplace.com/api/files/public/e115320f-c656-4605-984c-1202e85ef10c,,
Spring Water Assisted Living,"41 East Center Street, Centerville, UT 84014",Centerville,UT,84014,https://app.seniorplace.com/communities/show/d40e79d5-8776-47da-8f61-04cfcae7aa57,https://placement-crm-cdn.s3.us-west-2.amazonaws.com/_entities/communities/4b12d9d8db6dd5b2544ffb680c2bbbc0.jpg,Assisted Living Community,Assisted Living Facility
St George Rehabilitation,"1032 East 100 South, St. George, UT 84770",St. George,UT,84770,https://app.seniorplace.com/communities/show/8e3ee59e-5a95-4a0b-bfe7-ce43e875b292,https://placement-crm-cdn.s3.us-west-2.amazonaws.com/_entities/communities/66c967eaf2abf1871900f6ac91654aa5.jpg,Nursing Home,Skilled Nursing
St Joseph Villa Assisted Living,"451 East Bishop Federal Lane, Salt Lake City, UT 84115",Salt Lake City,UT,84115,https://app.seniorplace.com/communities/show/0f0b9042-bc24-4b41-a317-d4815818ca02,https://placement-crm-cdn.s3.us-west-2.amazonaws.com/_entities/communities/01802537458dba6845f048afebdd9478.jpg,"Assisted Living Community, Nursing Home","Continuing Care Retirement Community, Assisted Living Facility, Skilled Nursing"
Sterling Court-An Elegant Assisted Living Community,"324 North 1680 East, St. George, UT 84790",St. George,UT,84790,https://app.seniorplace.com/communities/show/14fb80fc-9ecc-4359-9ccc-4ae254c2a4e8,https://app.seniorplace.com/api/files/public/d916bff3-e798-4387-b70e-d56ea3b8c7d1,Assisted Living Community,Assisted Living Facility
Stonehenge of American Fork,"538 South 500 East Street, American Fork, UT 84003",American Fork,UT,84003,https://app.seniorplace.com/communities/show/0d87744e-a724-4303-9382-0e232c220a32,https://placement-crm-cdn.s3.us-west-2.amazonaws.com/_entities/communities/54835805f36108216d7e94f15f7df11f.jpg,Nursing Home,Skilled Nursing
Stonehenge of Cedar City,"333 1425 North Street, Cedar City, UT 84721",Cedar City,UT,84721,https://app.seniorplace.com/communities/show/129056ca-7753-414c-aac2-134fe481443f,,Nursing Home,Skilled Nursing
Stonehenge of Ogden,"5648 South Adams Avenue, Washington Terrace, UT 84405",Washington Terrace,UT,84405,https://app.seniorplace.com/communities/show/c8bfea49-0493-4056-904d-058451fdf462,https://placement-crm-cdn.s3.us-west-2.amazonaws.com/_entities/communities/ef44ad888508ee62d6b0bf279a9ebb93.jpg,Nursing Home,Skilled Nursing
Stonehenge of Richfield,"125 East 600 North, Richfield, UT 84701",Richfield,UT,84701,https://app.seniorplace.com/communities/show/810eafa6-ec9c-4960-8aa7-0219fc69eeb6,https://placement-crm-cdn.s3.us-west-2.amazonaws.com/_entities/communities/80c8d43037f181daa03261d9c5112eda.jpg,Nursing Home,Skilled Nursing
Stonehenge of Springville,"909 450 South, Springville, UT 84663",Springville,UT,84663,https://app.seniorplace.com/communities/show/49668dfb-c40e-4112-86ba-b863d370565d,https://placement-crm-cdn.s3.us-west-2.amazonaws.com/_entities/communities/4ba59ccea96cc048f48967ef12eb1f68.jpg,Nursing Home,Skilled Nursing
Stoney Brooke Assisted Living - Riverdale,"4390 South 700 West, Riverdale, UT 84405",Riverdale,UT,84405,https://app.seniorplace.com/communities/show/447e75a1-d46a-462f-b540-e3377e59cdfb,https://app.seniorplace.com/api/files/public/683a3fb3-ce77-4882-a282-af9acb0bc28a,Assisted Living Community,Assisted Living Facility
Summerfield Retirement Living,"911 North 800 West, Orem, UT 84057",Orem,UT,84057,https://app.seniorplace.com/communities/show/59b9e3b6-91dd-4a24-baa0-c5c32536539c,https://placement-crm-cdn.s3.us-west-2.amazonaws.com/_entities/communities/225c462746256e10f7f5e0f440af0833.jpg,"Assisted Living Community, Home Care","Assisted Living Facility, Hospice"
Summit Senior Living,"5524 West 6200 South, Kearns, UT 84118",Kearns,UT,84118,https://app.seniorplace.com/communities/show/fa068eb5-a3d5-4629-8c8e-4b319de5c050,https://placement-crm-cdn.s3.us-west-2.amazonaws.com/_entities/communities/dc9e5eb7b48fb56fc803c8252bdadbe1.jpg,"Assisted Living Community, Memory Care","Assisted Living Facility, Memory Care"
Summit Vista - Entrance Fee Community,"3390 W Signal Peak Dr, Taylorsville, UT 84129",Taylorsville,UT,84129,https://app.seniorplace.com/communities/show/116c6ca0-af92-4496-8232-e3d4d523398e,https://app.seniorplace.com/api/files/public/94b95bdb-9c73-4ecb-8685-39128c9d062e,Independent Living,Independent Living
"Suncrest Hospice Utah, Llc Dba Suncrest Hospice","9800 Monroe Street, Sandy, UT 84070",Sandy,UT,84070,https://app.seniorplace.com/communities/show/2496f79c-bf7f-486d-a06a-3dd0d6a89d07,https://placement-crm-cdn.s3.us-west-2.amazonaws.com/_entities/communities/af568a338dcac0b4d34d7b3f25d9c6cf.jpg,Home Care,Hospice
Sunridge Assisted Living and Memory Care,"7037 South 4800 West, West Jordan, UT 84084",West Jordan,UT,84084,https://app.seniorplace.com/communities/show/8226f39e-96b8-45d0-8b33-8909d7afd4ed,,Assisted Living Community,Assisted Living Facility
Sunridge Assisted Living of Layton,"835 South Angel Street, Layton, UT 84041",Layton,UT,84041,https://app.seniorplace.com/communities/show/5a9217ab-891b-4c65-8739-6bc50d428c0a,https://app.seniorplace.com/api/files/public/33363512-c127-4278-a908-7445e3573848,"Assisted Living Community, Memory Care","Assisted Living Facility, Memory Care"
Sunridge Assisted Living of Roy,"3673 West 5600 South, Roy, UT 84067",Roy,UT,84067,https://app.seniorplace.com/communities/show/2289fb76-da7d-4654-9784-48daba6e169e,https://placement-crm-cdn.s3.us-west-2.amazonaws.com/_entities/communities/b26ee86aaf13966862428e46c48de655.jpg,"Assisted Living Community, Memory Care","Assisted Living Facility, Memory Care"
Sunrise at Holladay,"4650 S Highland Dr, Millcreek, UT 84117",Millcreek,UT,84117,https://app.seniorplace.com/communities/show/52c7c9e2-a99e-455f-b1ab-f64ae872b41b,https://app.seniorplace.com/api/files/public/77eae4f5-7ef7-478f-a9fe-100fabae2aed,"Assisted Living Community, Independent Living, Memory Care","Independent Living, Assisted Living Facility, Memory Care"
Sunrise of Sandy,"2130 East 9400 South, Sandy, UT 84093",Sandy,UT,84093,https://app.seniorplace.com/communities/show/8bb10c66-44b8-40a8-83f6-c5b28d4fd607,https://placement-crm-cdn.s3.us-west-2.amazonaws.com/_entities/communities/af4a3d66ad97d55a8f942e84e25d104d.jpg,"Assisted Living Community, Memory Care","Assisted Living Facility, Memory Care"
Sunshine Cares,"248 West 300 North, Logan, UT 84321",Logan,UT,84321,https://app.seniorplace.com/communities/show/87abe8bb-4b93-4eba-b5d3-c235172288a2,https://placement-crm-cdn.s3.us-west-2.amazonaws.com/_entities/communities/33c9cc08f466f420383892494fee9e4c.jpg,Nursing Home,Skilled Nursing
Sunshine Hospice,"209 West 300 North, Logan, UT 84321",Logan,UT,84321,https://app.seniorplace.com/communities/show/eb066c80-e094-45cc-85b1-d29844050d16,https://placement-crm-cdn.s3.us-west-2.amazonaws.com/_entities/communities/37118c5184957fb3495352295a7c2177.jpg,Home Care,Hospice
Superior Hospice,"184 East 5900 South, Murray, UT 84107",Murray,UT,84107,https://app.seniorplace.com/communities/show/6ee55a48-8d35-4204-83fa-be95ec06759a,https://placement-crm-cdn.s3.us-west-2.amazonaws.com/_entities/communities/a66fcd60aab89b028e9cbd9506e2810b.jpg,Home Care,"Home Health, Hospice"
Symbii Hospice Bear River,"646 South Main Street, Brigham City, UT 84302",Brigham City,UT,84302,https://app.seniorplace.com/communities/show/cd4b7f8e-0b89-49b5-92c8-062ab64de067,https://placement-crm-cdn.s3.us-west-2.amazonaws.com/_entities/communities/75374ac002d9c9128cbc2c03ff120470.jpg,Home Care,"Home Health, Hospice"
Terrace Grove Assisted Living,"345 North 200 West, Logan, UT 84321",Logan,UT,84321,https://app.seniorplace.com/communities/show/81ec7c3e-3d60-42b6-a881-95d899454887,https://placement-crm-cdn.s3.us-west-2.amazonaws.com/_entities/communities/b9955915167c42cda2f13d687c28d77a.jpg,Assisted Living Community,Assisted Living Facility
Thatcher Brook Rehabilitation & Care Center,"1795 South Chelemes Way East, Layton, UT 84041",Layton,UT,84041,https://app.seniorplace.com/communities/show/3f9b8cba-622f-4edc-84d1-81bc0705320a,https://placement-crm-cdn.s3.us-west-2.amazonaws.com/_entities/communities/82095d9bfb64a0f6bcda4d0c50ec7b88.jpg,"Home Care, Nursing Home","Skilled Nursing, Home Health, Hospice"
The Abbington at Murray,"5377 South State Street, Murray, UT 84107",Murray,UT,84107,https://app.seniorplace.com/communities/show/6b94fdf0-8d35-41d0-a991-e7b8546edab8,https://app.seniorplace.com/api/files/public/beca6bc2-c630-4e25-a855-bb8488d71890,"Assisted Living Community, Independent Living, Memory Care","Independent Living, Assisted Living Facility, Memory Care"
The Abbington of Layton,"350 South 100 West, Layton, UT 84041",Layton,UT,84041,https://app.seniorplace.com/communities/show/ccdfb09b-f82c-4eca-9e15-80aa487441c3,,Assisted Living Community,Assisted Living Facility
The Auberge at North Ogden,"1340 North Washington Boulevard, Ogden, UT 84404",Ogden,UT,84404,https://app.seniorplace.com/communities/show/ad65dd4f-abd0-43a6-b420-a8755c49c99b,https://app.seniorplace.com/api/files/public/fc63cc7a-d17a-4fba-95ff-9e2a0c38d744,"Assisted Living Community, Memory Care","Assisted Living Facility, Memory Care"
The Beaumont,"1150 South Main Street, Bountiful, UT 84010",Bountiful,UT,84010,https://app.seniorplace.com/communities/show/573a4333-2630-4f55-a2a2-ca2aed6a493b,https://app.seniorplace.com/api/files/public/648daa70-4db7-4001-8687-ef32b89e7a82,Assisted Living Community,Assisted Living Facility
The Charleston at Cedar Hills,"10020 North 4600 West Street, Cedar Hills, UT 84062",Cedar Hills,UT,84062,https://app.seniorplace.com/communities/show/4aa70fb3-1afa-4837-893e-b7348a2d6a20,https://app.seniorplace.com/api/files/public/1aa13cf9-0d5a-4c48-8171-1109eee14737,Assisted Living Community,Assisted Living Facility
The Grand at Holladay,"5941 South Holladay Boulevard, Holladay, UT 84121",Holladay,UT,84121,https://app.seniorplace.com/communities/show/4dfc2952-74ac-46dc-b15e-bff75901c469,,Assisted Living Community,Assisted Living Facility
The Haven at Millcreek,"1871 East 3300 South, Salt Lake City, UT 84106",Salt Lake City,UT,84106,https://app.seniorplace.com/communities/show/d58c4c46-81af-41f1-8bb7-4d8ca1bcf3c3,https://placement-crm-cdn.s3.us-west-2.amazonaws.com/_entities/communities/881068c15d16828393139d40b52dcf25.jpg,Assisted Living Community,Assisted Living Facility
The Inn Between,"1216 East 1300 South, Salt Lake City, UT 84105",Salt Lake City,UT,84105,https://app.seniorplace.com/communities/show/cfff9b8b-e445-4e8b-915a-414f1f4c9fc1,https://placement-crm-cdn.s3.us-west-2.amazonaws.com/_entities/communities/852e1582b243ba269f1a67fb0bf98eba.jpg,Assisted Living Community,Assisted Living Facility
The Inn on Barton Creek,"499 500 South, Bountiful, UT 84010",Bountiful,UT,84010,https://app.seniorplace.com/communities/show/b80014d8-7d7c-43d8-a735-5d6888a1d27c,https://placement-crm-cdn.s3.us-west-2.amazonaws.com/_entities/communities/f3bfedfb08facf53abc65ff6d8cc925a.jpg,Assisted Living Community,Assisted Living Facility
The Laurel at Mill Creek,"777 East 3900 South, Millcreek, UT 84107",Millcreek,UT,84107,https://app.seniorplace.com/communities/show/9d64ae32-5ab7-433d-bcab-79cac2543c9e,https://app.seniorplace.com/api/files/public/9e8172e7-a775-4f36-a65b-871130f01bab,"Assisted Living Community, Independent Living","Independent Living, Assisted Living Facility"
The Lodge at Jordan River,"1341 West South Jordan Parkway, South Jordan, UT 84095",South Jordan,UT,84095,https://app.seniorplace.com/communities/show/d3f9a3a6-2855-4f8c-8faf-6356e43058bf,https://placement-crm-cdn.s3.us-west-2.amazonaws.com/_entities/communities/1acf0c21463f6d61dee70887ba064164.jpg,Assisted Living Community,Assisted Living Facility
The Lodge at North Ogden - Do Not Refer They Do Not Pay Referral Agents,"204 East 1700 North, North Ogden, UT 84414",North Ogden,UT,84414,https://app.seniorplace.com/communities/show/2376181d-4833-499f-a394-dbe8be67bfe5,https://app.seniorplace.com/api/files/public/10644366-5aaf-41de-a018-848108625245,"Assisted Living Community, Independent Living, Memory Care","Independent Living, Assisted Living Facility, Memory Care"
The Lodge at Riverton,"12416 South 3600 West, Riverton, UT 84065",Riverton,UT,84065,https://app.seniorplace.com/communities/show/0eca2ab8-6948-407b-9e1a-0ae359703e5c,https://app.seniorplace.com/api/files/public/55aae85b-2261-4bd8-8869-36b95b7baaad,Assisted Living Community,Assisted Living Facility
The Meadows at Escalante Iii,"333 East 1160 South, St. George, UT 84770",St. George,UT,84770,https://app.seniorplace.com/communities/show/c2254ffb-5bef-430f-8039-ffc6cac08879,https://placement-crm-cdn.s3.us-west-2.amazonaws.com/_entities/communities/0a3706c10f57c3f77acf4d5aac667c8a.jpg,"Assisted Living Community, Memory Care","Assisted Living Facility, Memory Care"
The Peaks at South Jordan Memory Care Do Not Refer!,"2664 West 11400 South, South Jordan, UT 84095",South Jordan,UT,84095,https://app.seniorplace.com/communities/show/72d28087-080b-4691-98f6-76d615b81f46,https://app.seniorplace.com/api/files/public/eda24884-1440-4beb-bfaa-83a95bb8e311,"Assisted Living Community, Memory Care, Respite Care","Assisted Living Facility, Memory Care, Respite Care"
The Retreat at Sunbrook Assisted Living,"359 North Dixie Drive, St. George, UT 84770",St. George,UT,84770,https://app.seniorplace.com/communities/show/a924f2c7-353f-4f7c-8163-119e34dd8d23,https://app.seniorplace.com/api/files/public/69157a46-02c9-4b58-bb23-5fd20d389cbd,"Assisted Living Community, Memory Care","Assisted Living Facility, Memory Care"
The Retreat at Sunriver St George,"4480 South Arrowhead Canyon Drive, St. George, UT 84790",St. George,UT,84790,https://app.seniorplace.com/communities/show/31bffcba-1c5f-403c-91ef-83df5dc353a2,https://app.seniorplace.com/api/files/public/b1fe27ce-84c0-44a4-85e8-fe0e8e6a9e65,Assisted Living Community,Assisted Living Facility
The Ridge Cottonwood,"5600 Highland Dr., Holladay, UT 84121",Holladay,UT,84121,https://app.seniorplace.com/communities/show/2d2fe696-77ef-49bf-9f35-4da32616a614,https://app.seniorplace.com/api/files/public/448c2314-08ad-4e0b-b120-3b48c55bd2ce,Assisted Living Community,Assisted Living Facility
The Ridge Foothill,"2363 Foothill Drive, Salt Lake City, UT 84109",Salt Lake City,UT,84109,https://app.seniorplace.com/communities/show/79df3b77-75ff-401c-ba10-e5c34aed2e6d,https://app.seniorplace.com/api/files/public/01f35a68-133f-4d78-9ca1-34717669729f,"Assisted Living Community, Memory Care","Assisted Living Facility, Memory Care"
The Terrace at Mt Ogden,"400 East 5350 South, Washington Terrace, UT 84405",Washington Terrace,UT,84405,https://app.seniorplace.com/communities/show/8dcd3297-91a7-481f-bd85-d29932762ff2,https://placement-crm-cdn.s3.us-west-2.amazonaws.com/_entities/communities/231464d83bf4d502d491bd906d8c76e0.jpg,Nursing Home,Skilled Nursing
The Villas at Baer Creek,"770 South Main Street, Kaysville, UT 84037",Kaysville,UT,84037,https://app.seniorplace.com/communities/show/86f00915-5519-40a1-85fd-29a2e586978b,https://placement-crm-cdn.s3.us-west-2.amazonaws.com/_entities/communities/3fdf8229ce5cfa286eadbb862aebedcb.jpg,Assisted Living Community,Assisted Living Facility
The Wellington,"4522 South 1300 East, Salt Lake City, UT 84117",Salt Lake City,UT,84117,https://app.seniorplace.com/communities/show/aed7c90c-0f7b-4252-9f78-f6a782716cb1,https://app.seniorplace.com/api/files/public/53e23510-5b21-41f0-a8db-7807deaeeb38,Assisted Living Community,Assisted Living Facility
Three Peaks Assisted Living,"2258 North 75 East, Cedar City, UT 84721",Cedar City,UT,84721,https://app.seniorplace.com/communities/show/7befc9c3-3bc1-490e-abdb-9ac2a9d3792d,https://placement-crm-cdn.s3.us-west-2.amazonaws.com/_entities/communities/249238c5b6087120db9a897a8f229e8a.jpg,Assisted Living Community,Assisted Living Facility
Tradition Assisted Living,"2938 South Redwood Road, West Valley City, UT 84119",West Valley City,UT,84119,https://app.seniorplace.com/communities/show/3c16462a-0424-4c56-b602-a467ea9804d6,https://placement-crm-cdn.s3.us-west-2.amazonaws.com/_entities/communities/7320bd75cad87e3fec36b22a27d13cbb.jpg,Assisted Living Community,Assisted Living Facility
Treeo Orem,"250 E Center St, Orem, UT 84057",Orem,UT,84057,https://app.seniorplace.com/communities/show/99a951b3-16aa-4ca3-8e08-c372b918945f,https://app.seniorplace.com/api/files/public/eb2e5ad8-6124-4777-871d-f455c3be7ee3,,
Treeo South Ogden,"6086 South Ridgeline Drive, South Ogden, UT 84405",South Ogden,UT,84405,https://app.seniorplace.com/communities/show/3f8f3b94-fd05-45a1-8d6d-c3c49e3846e2,https://app.seniorplace.com/api/files/public/c4ffe336-c13c-463c-9f2b-e6e867d7af36,"Home Care, Independent Living","Independent Living, In-Home Care"
"Truewood by Merrill, Cottonwood Heights","7235 South Union Park Avenue, Cottonwood Heights, UT 84047",Cottonwood Heights,UT,84047,https://app.seniorplace.com/communities/show/409a851b-b479-421c-92e6-d4471076b476,https://app.seniorplace.com/api/files/public/6fb753cf-a419-4f44-9302-c4274c5f32bc,,
Twin Oaks Senior Living,"654 East 3300 South, South Salt Lake, UT 84106",South Salt Lake,UT,84106,https://app.seniorplace.com/communities/show/c39ced95-db4f-4abb-8c62-bf7d4a5aadb2,https://placement-crm-cdn.s3.us-west-2.amazonaws.com/_entities/communities/85f794829d72d93988f4d356a15e4530.jpg,Assisted Living Community,Assisted Living Facility
Uintah Basin Rehabilitation and Senior Villa,"265 North 300 West, Roosevelt, UT 84066",Roosevelt,UT,84066,https://app.seniorplace.com/communities/show/a3ebfdef-5742-4131-8649-23c43d3aff84,,Nursing Home,Skilled Nursing
Uintah Health Care Special Service District,"510 South 500 West, Vernal, UT 84078",Vernal,UT,84078,https://app.seniorplace.com/communities/show/06750ceb-5333-41f5-b710-dd69d98c71bd,,Nursing Home,Skilled Nursing
Utah Home Health and Hospice,"362 West Center Street, Orem, UT 84057",Orem,UT,84057,https://app.seniorplace.com/communities/show/5a6cbcf1-acd8-4624-8587-65cfb8adf93b,https://placement-crm-cdn.s3.us-west-2.amazonaws.com/_entities/communities/da30041d470435d85baa817f3fb86827.jpg,Home Care,Hospice
Valencia at Cottonwood Heights,"7235 S. Union Park Ave, Cottonwood Heights, UT 84047",Cottonwood Heights,UT,84047,https://app.seniorplace.com/communities/show/33795c09-1fc1-4e66-86b2-fb44ab98ef40,https://app.seniorplace.com/api/files/public/5eec3695-b0d8-4165-a074-072d203ea9b2,"Assisted Living Community, Memory Care","Assisted Living Facility, Memory Care"
Valencia at Draper,"11631 South 700 East, Draper, UT 84020",Draper,UT,84020,https://app.seniorplace.com/communities/show/c6a8a37a-c143-4921-9651-33ce7a1bab3a,https://app.seniorplace.com/api/files/public/2f4eb38e-6276-487c-b5ce-42608d0e5084,"Assisted Living Community, Memory Care","Assisted Living Facility, Memory Care"
Valencia at Willow Creek,"8325 South Highland Drive, Cottonwood Heights, UT 84093",Cottonwood Heights,UT,84093,https://app.seniorplace.com/communities/show/3fac537e-bc5c-4404-b45a-254acdfea5c4,https://placement-crm-cdn.s3.us-west-2.amazonaws.com/_entities/communities/5b0f9e11b46faf008ee6d4856b588d2e.jpg,Assisted Living Community,Assisted Living Facility
Valeo Home Health,"268 East 930 South, Orem, UT 84097",Orem,UT,84097,https://app.seniorplace.com/communities/show/1a8419d2-a429-401e-a97f-5189f8f73f91,https://placement-crm-cdn.s3.us-west-2.amazonaws.com/_entities/communities/cdfd3ccd4353c65d765dfe8911dcc657.jpg,Home Care,Hospice
Valeo Hospice,"2156 North Hill Field Road, Layton, UT 84041",Layton,UT,84041,https://app.seniorplace.com/communities/show/98597767-e814-4b89-8207-a990a1bad20d,https://placement-crm-cdn.s3.us-west-2.amazonaws.com/_entities/communities/4fb4986f1e0883cdb622a3263c8535f7.jpg,Home Care,Hospice
Valeo Hospice,"5250 South Commerce Drive, Murray, UT 84107",Murray,UT,84107,https://app.seniorplace.com/communities/show/23716020-6d0d-405f-b73b-881ab5a2fd27,https://placement-crm-cdn.s3.us-west-2.amazonaws.com/_entities/communities/cdfd3ccd4353c65d765dfe8911dcc657.jpg,Home Care,"Home Health, Hospice"
Vali Division of Wasatch,"576 West 900 South, Woods Cross, UT 84010",Woods Cross,UT,84010,https://app.seniorplace.com/communities/show/fd805c05-900e-4dba-809d-04e0100d212f,https://placement-crm-cdn.s3.us-west-2.amazonaws.com/_entities/communities/a54c0c74c4a8ca213ee1d7dd279bab25.jpg,Home Care,"Home Health, Hospice"
Wasatch Hospice,"3665 South 8400 West, Magna, UT 84044",Magna,UT,84044,https://app.seniorplace.com/communities/show/31d93f8e-8cec-4361-98e1-fb483002600a,https://placement-crm-cdn.s3.us-west-2.amazonaws.com/_entities/communities/e3b9da1f477e99f880fb6320fa444ea0.jpg,Home Care,Hospice
Welcome Home Assisted Living,"633 Medical Drive, Bountiful, UT 84010",Bountiful,UT,84010,https://app.seniorplace.com/communities/show/de3b7094-a14c-4257-9d3b-ff64f0b48018,https://placement-crm-cdn.s3.us-west-2.amazonaws.com/_entities/communities/847f448e5ea675fe2909492968237ecc.jpg,Assisted Living Community,Assisted Living Facility
Welcome Home Assisted Living American Fork,"1889 West 930 North, Pleasant Grove, UT 84062",Pleasant Grove,UT,84062,https://app.seniorplace.com/communities/show/178bf2f0-0c5c-4653-ad50-0977393127dc,https://app.seniorplace.com/api/files/public/d97d56c0-b13e-47c2-a241-6bbf2f8e8c53,Assisted Living Community,Assisted Living Facility
Whisper Cove Assisted Living and Memory Care,"725 South Main Street, Kaysville, UT 84037",Kaysville,UT,84037,https://app.seniorplace.com/communities/show/df165a1a-0e0a-4a6d-a9c6-8a4582d8d9c5,https://app.seniorplace.com/api/files/public/0a74442e-8465-47a0-b1bd-4c08c453bb3a,Assisted Living Community,Assisted Living Facility
William E Christoffersen Salt Lake Veterans Home,"700 Foothill Drive, Salt Lake City, UT 84113",Salt Lake City,UT,84113,https://app.seniorplace.com/communities/show/36d8ab44-0044-4731-9e80-7707007487b0,https://placement-crm-cdn.s3.us-west-2.amazonaws.com/_entities/communities/62c5d41f374b80a33c0a8036c2eeb9b9.jpg,Nursing Home,Skilled Nursing
Woodland Park Rehabilitation and Care Center,"3855 South 700 East, Millcreek, UT 84107",Millcreek,UT,84107,https://app.seniorplace.com/communities/show/29de831c-aa35-45f6-821d-9072f9ad9797,https://placement-crm-cdn.s3.us-west-2.amazonaws.com/_entities/communities/50c14247ded55d7ea26758b54abed693.jpg,Nursing Home,Skilled Nursing
