wp_id,title,address,seniorly_url,city,state
6725,A I Adult Care Home,"5327 East Anderson Drive, Scottsdale, Az 85254",https://www.seniorly.com/assisted-living/arizona/scottsdale/a-i-adult-care-home,,
6733,A Country Retreat,"412 Old Munds Highway, Flagstaff, Az 86005",https://www.seniorly.com/assisted-living/arizona/flagstaff/a-country-retreat,,
6738,A Happy Place Adult Care Home,"4918 East Karen Drive, Scottsdale, Az 85254",https://www.seniorly.com/assisted-living/arizona/scottsdale/a-happy-place-adult-care-home-inc,,
6745,A Parents Paradise,"15922 North 164Th Lane, Surprise, Az 85388",https://www.seniorly.com/assisted-living/arizona/surprise/a-parent-s-paradise-llc,,
6748,A Place In The Sun,"6879 East Vernon Avenue, Scottsdale, Az 85257",https://www.seniorly.com/assisted-living/arizona/scottsdale/a-place-in-the-sun,,
6752,A Tender Touch Assisted Living Ii,"2827 East Thunderbird Road, Phoenix, Az 85032",https://www.seniorly.com/assisted-living/arizona/phoenix/a-tender-touch-assisted-living-home-ii,,
6753,A Touch Of Elegance Care Home,"7983 West Martha Way, Peoria, Az 85381",https://www.seniorly.com/assisted-living/arizona/peoria/a-touch-of-elegance-care-home-llc,,
6762,Abellavida Memory Care,"35203 North Central Avenue, Phoenix, Az 85086",https://www.seniorly.com/assisted-living/arizona/phoenix/abellavida-memory-care,,
6768,Abracadabra Assisted Living 2,"3501 West Wood Drive, Phoenix, Az 85029",https://www.seniorly.com/assisted-living/arizona/phoenix/abracadabra-assisted-living-2,,
6769,Absolute Assisted Living Adult Care Home,"3557 East Caballero Street, Mesa, Az 85213",https://www.seniorly.com/assisted-living/arizona/mesa/absolute-assisted-living-adult-care-home,,
6772,Abuelos At Edgewood Place,"7141 North Edgewood Place, Tucson, Az 85704",https://www.seniorly.com/assisted-living/arizona/tucson/abuelos-at-edgewood-place,,
6778,Acacia Cove Assisted Living,"5964 West Bluefield Avenue, Glendale, Az 85308",https://www.seniorly.com/assisted-living/arizona/glendale/acacia-cove-assisted-living,,
6784,Acoya Mesa,"6502 East Brown Road, Mesa, Az 85205",https://www.seniorly.com/assisted-living/arizona/mesa/acoya-mesa,,
6791,Adagio Alh,"1045 East Bethany Home Road, Phoenix, Az 85014",https://www.seniorly.com/assisted-living/arizona/phoenix/adagio-alh,,
6794,Adobe Adult Care Home,"8028 North Firethorn Avenue, Tucson, Az 85741",https://www.seniorly.com/assisted-living/arizona/tucson/adobe-adult-care-home,,
6804,Aegis At 38Th Place Assisted Living Ii,"13201 South 38Th Place, Phoenix, Az 85044",https://www.seniorly.com/assisted-living/arizona/phoenix/aegis-at-38th-place-assisted-living-ii,,
6808,Aegis At Fairview Assisted Living,"2371 East Fairview Street, Chandler, Az 85225",https://www.seniorly.com/assisted-living/arizona/chandler/aegis-at-fairview-assisted-living-home,,
6810,Aegis At Redwood Assisted Living,"4332 East Redwood Lane, Phoenix, Az 85048",https://www.seniorly.com/assisted-living/arizona/phoenix/aegis-at-redwood-assisted-living-home,,
6812,Affirmative Care Home,"8074 East 8Th Street, Tucson, Az 85710",https://www.seniorly.com/assisted-living/arizona/tucson/affirmative-care-home,,
6814,Agape Care Home Of Scottsdale,"5920 East Ludlow Drive, Scottsdale, Az 85254",https://www.seniorly.com/assisted-living/arizona/scottsdale/agape-care-home-of-scottsdale,,
6818,Agave Assisted Living Ii,"8854 West Irma Lane, Peoria, Az 85382",https://www.seniorly.com/assisted-living/arizona/peoria/agave-assisted-living-home-ii,,
6819,Agave Care Home Of Scottsdale,"4833 East Marconi Avenue, Scottsdale, Az 85254",https://www.seniorly.com/assisted-living/arizona/scottsdale/agave-care-home-of-scottsdale,,
6821,Agave Manor,"5937 East Cactus Road, Scottsdale, Az 85254",https://www.seniorly.com/assisted-living/arizona/scottsdale/agave-manor,,
6822,Ageless Angels Alh 2,"783 East Gemini Place, Chandler, Az 85249",https://www.seniorly.com/assisted-living/arizona/chandler/ageless-angels-alh-2,,
6825,Aguilera Assisted Living,"4740 West Via Aguilera, Tucson, Az 85745",https://www.seniorly.com/assisted-living/arizona/tucson/aguilera-assisted-living-home,,
6827,Ahwatukee Adult Care Iii,"5135 East Half Moon Drive, Phoenix, Az 85044",https://www.seniorly.com/assisted-living/arizona/phoenix/ahwatukee-adult-care-iii,,
6840,All Care Assisted,"18224 North 168Th Avenue, Surprise, Az 85374",https://www.seniorly.com/assisted-living/arizona/surprise/all-care-assisted,,
6846,Allegiance Assisted Living,"2243 South Gaucho, Mesa, Az 85202",https://www.seniorly.com/assisted-living/arizona/mesa/allegiance-assisted-living-llc,,
6848,Aloha Assisted Living,"8260 East Vicksburg Street, Tucson, Az 85710",https://www.seniorly.com/assisted-living/arizona/tucson/aloha-assisted-living-home-llc,,
6849,Aloha Assisted Living,"3414 North 81St Street, Scottsdale, Az 85251",https://www.seniorly.com/assisted-living/arizona/scottsdale/aloha-assisted-living-scottsdale,,
6857,Amandas Care Home,"8647 East Pampa Avenue, Mesa, Az 85212",https://www.seniorly.com/assisted-living/arizona/mesa/amanda-s-care-home,,
6865,Amber Assisted Living,"1438 East Hatcher Road, Phoenix, Az 85020",https://www.seniorly.com/assisted-living/arizona/phoenix/amber-assisted-living-home,,
6867,Amber Lights,"6231 North Montebella Road, Tucson, Az 85704",https://www.seniorly.com/assisted-living/arizona/tucson/amber-lights,,
6869,Ambiance Al,"2101 East Everett Drive, Phoenix, Az 85022",https://www.seniorly.com/assisted-living/arizona/phoenix/ambiance-al,,
6871,Ambience Care Home,"8941 West Seldon Lane, Peoria, Az 85345",https://www.seniorly.com/assisted-living/arizona/peoria/ambience-care-home-peoria,,
6872,Ambience Care Home 2,"9022 West Alice Avenue, Peoria, Az 85345",https://www.seniorly.com/assisted-living/arizona/peoria/ambience-care-home-2,,
6875,American Dream Home,"702 East Orangewood Avenue, Phoenix, Az 85020",https://www.seniorly.com/assisted-living/arizona/phoenix/american-dream-home,,207
6887,Anas Haven At Cedar,"143 West Cedar Drive, Chandler, Az 85248",https://www.seniorly.com/assisted-living/arizona/chandler/ana-s-haven-at-cedar,,
6891,Angel Care Home,"2231 North 38Th Street, Phoenix, Az 85008",https://www.seniorly.com/assisted-living/arizona/phoenix/angel-care-home,,
6895,Angels Adult Group Home,"15462 South 47Th Place, Phoenix, Az 85044",https://www.seniorly.com/assisted-living/arizona/phoenix/angel-s-adult-group-home-llc,,
6903,Angels Assisted Living,"4496 East La Costa Drive, Chandler, Az 85249",https://www.seniorly.com/assisted-living/arizona/chandler/angels-assisted-living-home,,
6918,Apollo Residential Assisted Living,"4719 West Harmont Drive, Glendale, Az 85302",https://www.seniorly.com/assisted-living/arizona/glendale/apollo-residential-assisted-living,,
6923,Arcadia Assisted Care,"4912 North 45Th Place, Phoenix, Az 85018",https://www.seniorly.com/assisted-living/arizona/phoenix/arcadia-assisted-care,,
6926,Arcadia Grove Assisted Living,"4248 East Lewis Avenue, Phoenix, Az 85008",https://www.seniorly.com/assisted-living/arizona/phoenix/arcadia-grove-assisted-living-home,,
6928,Arcadia Woods Assisted Living,"4654 East Holly Street, Phoenix, Az 85008",https://www.seniorly.com/assisted-living/arizona/phoenix/arcadia-woods-assisted-living,,
6930,Archangel Assisted Living,"932 South Brentwood Place, Chandler, Az 85224",https://www.seniorly.com/assisted-living/arizona/chandler/archangel-assisted-living-inc,,
6945,Arizona Desert Falls,"2802 East Juniper Avenue, Phoenix, Az 85032",https://www.seniorly.com/assisted-living/arizona/phoenix/arizona-desert-falls,,
6946,Arizona Elderly Care Alh,"7848 North 4Th Place, Phoenix, Az 85020",https://www.seniorly.com/assisted-living/arizona/phoenix/arizona-elderly-care-alh,,
6948,Arizona Pioneers Home,"300 South Mccormick Street, Prescott, Az 86303",https://www.seniorly.com/assisted-living/arizona/prescott/arizona-pioneers-home,,
6949,Arizona Premier Adult Care Ii,"9716 East Pampa Avenue, Mesa, Az 85212",https://www.seniorly.com/assisted-living/arizona/mesa/arizona-premier-adult-care-ii-llc,,
6951,Arizona Royal Care Home,"9823 East Jenan Drive, Scottsdale, Az 85260",https://www.seniorly.com/assisted-living/arizona/scottsdale/arizona-royal-care-home-llc,,
6956,Arizona Sunset Assisted Living,"35605 North Moyes Road, Queen Creek, Az 85142",https://www.seniorly.com/assisted-living/arizona/queen-creek/arizona-sunset-assisted-living,,
6961,Ark Of Angel Assisted Living,"3841 East Isabella Avenue, Mesa, Az 85206",https://www.seniorly.com/assisted-living/arizona/mesa/ark-of-angel-assisted-living,,
6962,Ark Of Life Memory Care,"4341 West Shaw Butte Drive, Glendale, Az 85304",https://www.seniorly.com/assisted-living/arizona/glendale/ark-of-life-memory-care,,
6965,Armada Care Homes,"10038 East Glencove Circle, Mesa, Az 85207",https://www.seniorly.com/assisted-living/arizona/mesa/armada-care-homes-mesa,,
6966,Arrowhead Senior Living,"7886 West Piute Avenue, Glendale, Az 85308",https://www.seniorly.com/assisted-living/arizona/glendale/arrowhead-senior-living,,
6977,Ashbrook Home Care,"910 South Ashbrook, Mesa, Az 85204",https://www.seniorly.com/assisted-living/arizona/mesa/ashbrook-home-care,,
6978,Ashlee Care,"4902 West Beverly Lane, Glendale, Az 85306",https://www.seniorly.com/assisted-living/arizona/glendale/ashlee-care,,
6979,Ashton Gardens Assisted Living,"4525 East Decatur Street, Mesa, Az 85205",https://www.seniorly.com/assisted-living/arizona/mesa/ashton-gardens-assisted-living-llc,,
6988,Assisted Living At Mountain Vista,"12823 North 65Th Place, Scottsdale, Az 85254",https://www.seniorly.com/assisted-living/arizona/scottsdale/assisted-living-at-mountain-vista,,
6993,Assisted Living Of Mesa,"949 North Stapley Drive, Mesa, Az 85203",https://www.seniorly.com/assisted-living/arizona/mesa/assisted-living-of-mesa,,
6998,Asterion Acres,"7008 North Asterion Lane, Tucson, Az 85741",https://www.seniorly.com/assisted-living/arizona/tucson/asterion-acres-llc,,
7011,Atria Campana Del Rio,"1550 East River Road, Tucson, Az 85718",https://www.seniorly.com/assisted-living/arizona/tucson/atria-campana-del-rio,,
7013,Atria Park Of Sierra Pointe,"14500 North Frank Lloyd Wright Boulevard, Scottsdale, Az 85260",https://www.seniorly.com/assisted-living/arizona/scottsdale/atria-park-of-sierra-pointe,,
7024,Avana Assisted Living,"44 West Knight Lane, Tempe, Az 85284",https://www.seniorly.com/assisted-living/arizona/tempe/avana-assisted-living,,
7033,Avista Senior Living North Mountain,"350 East Eva Street, Phoenix, Az 85020",https://www.seniorly.com/assisted-living/arizona/phoenix/avista-senior-living-north-mountain,,
7049,Azalea Assisted Living,"3281 East Azalea Drive, Gilbert, Az 85298",https://www.seniorly.com/assisted-living/arizona/gilbert/azalea-assisted-living,,
7054,Azure Care Home,"1955 North Oneida Drive, Tucson, Az 85715",https://www.seniorly.com/assisted-living/arizona/tucson/azure-care-home-llc,,
7055,B H Adult Care Home,"7623 South Kenwood Lane, Tempe, Az 85284",https://www.seniorly.com/assisted-living/arizona/tempe/b-h-adult-care-home,,
7056,B And H Adult Care Home,"1884 East Greenway Drive, Tempe, Az 85282",https://www.seniorly.com/assisted-living/arizona/tempe/b-and-h-adult-care-home,,
7060,Baraka At Rosegardens Ii Assisted Living,"10702 East Nido Avenue, Mesa, Az 85209",https://www.seniorly.com/assisted-living/arizona/mesa/baraka-at-rosegardens-ii-assisted-living,,
7070,Beehive Homes Of Gilbert,"4423 East Guadalupe Road, Gilbert, Az 85234",https://www.seniorly.com/assisted-living/arizona/gilbert/beehive-homes-of-gilbert,,
7071,Beehive Homes Of Marana,"6180 West Mamie Kai Drive, Tucson, Az 85743",https://www.seniorly.com/assisted-living/arizona/tucson/beehive-homes-of-marana,,
7076,Bella Amore Assisted Living,"3530 West Wood Drive, Phoenix, Az 85029",https://www.seniorly.com/assisted-living/arizona/phoenix/bella-amore-assisted-living,,
7077,Bella Vista Assisted Living,"7244 East Fairview Avenue, Mesa, Az 85208",https://www.seniorly.com/assisted-living/arizona/mesa/bella-vista-assisted-living-home-llc,,
7078,Bella Vista Senior Living,"1825 West Emelita Avenue, Mesa, Az 85202",https://www.seniorly.com/assisted-living/arizona/mesa/bella-vista-senior-living,,
7094,Best Care Home Of Moon Valley,"52 West Moon Valley Drive, Phoenix, Az 85023",https://www.seniorly.com/assisted-living/arizona/phoenix/best-care-home-of-moon-valley,,
7095,Best Care Home Of Moon Valley,"44 West Moon Valley Drive, Phoenix, Az 85023",https://www.seniorly.com/assisted-living/arizona/phoenix/best-care-home-of-moon-valley-llc-phoenix,,
7099,Best Of Europe Adult Home Care,"1632 East Coconino Street, Cottonwood, Az 86326",https://www.seniorly.com/assisted-living/arizona/cottonwood/best-of-europe-adult-home-care-llc,,
7101,Betania Care Home,"5001 South Cassia Way, Tucson, Az 85706",https://www.seniorly.com/assisted-living/arizona/tucson/betania-care-home,,
7105,Better Life Assisted Living,"4086 South Birch Street, Chandler, Az 85249",https://www.seniorly.com/assisted-living/arizona/chandler/better-life-assisted-living-llc,,
7106,Better Living Carehome,"9321 East Carmel Avenue, Mesa, Az 85208",https://www.seniorly.com/assisted-living/arizona/mesa/better-living-carehome-llc,,
7109,Better Senior Carehome,"1151 West 20Th Avenue, Apache Junction, Az 85120",https://www.seniorly.com/assisted-living/arizona/apache-junction/better-senior-carehome-llc,,
7113,Biltmore Assisted Living,"5100 North 24Th Street, Phoenix, Az 85016",https://www.seniorly.com/assisted-living/arizona/phoenix/biltmore-assisted-living-llc,,
7114,Biltmore Care Home,"3532 East Camelback Road, Phoenix, Az 85018",https://www.seniorly.com/assisted-living/arizona/phoenix/biltmore-care-home-llc,,
7115,Blessed Assisted Living,"10714 East Nido Avenue, Mesa, Az 85209",https://www.seniorly.com/assisted-living/arizona/mesa/blessed-assisted-living-home,,
7117,Blissful Assisted Living,"8222 West Tonto Lane, Peoria, Az 85382",https://www.seniorly.com/assisted-living/arizona/peoria/blissful-assisted-living-llc,,
7118,Blissful Living Home,"20706 North 74Th Lane, Glendale, Az 85308",https://www.seniorly.com/assisted-living/arizona/glendale/blissful-living-home,,
7120,Blooming Meadows,"2432 West Portobello Avenue, Mesa, Az 85202",https://www.seniorly.com/assisted-living/arizona/mesa/blooming-meadows,,
7124,Blue Lakes Assisted Living,"9815 North 96Th Place, Scottsdale, Az 85258",https://www.seniorly.com/assisted-living/arizona/scottsdale/blue-lakes-assisted-living,,
7129,Blue Sky Manor,"1510 West 5Th Place, Mesa, Az 85201",https://www.seniorly.com/assisted-living/arizona/mesa/blue-sky-manor-mesa,,
7131,Boswell Assisted Living,"14421 North Boswell Boulevard, Sun City, Az 85351",https://www.seniorly.com/assisted-living/arizona/sun-city/boswell-assisted-living,,
7140,Bright Valley Grouphome,"9452 East Jacob Avenue, Mesa, Az 85209",https://www.seniorly.com/assisted-living/arizona/mesa/bright-valley-grouphome-llc,,
7143,Broadway Mesa Village,"7231 East Broadway Road, Mesa, Az 85208",https://www.seniorly.com/assisted-living/arizona/mesa/broadway-mesa-village,,
7145,Brookdale Apache Junction,"2080 South Ironwood Drive, Apache Junction, Az 85120",https://www.seniorly.com/assisted-living/arizona/apache-junction/brookdale-apache-junction,,
7146,Brookdale Arrowhead Ranch,"5861 West Beverly Lane, Glendale, Az 85306",https://www.seniorly.com/assisted-living/arizona/glendale/brookdale-arrowhead-ranch,,
7147,Brookdale Baywood,"310 South 63Rd Street, Mesa, Az 85206",https://www.seniorly.com/assisted-living/arizona/mesa/brookdale-baywood,,
7149,Brookdale Central Chandler,"1919 West Carla Vista Drive, Chandler, Az 85224",https://www.seniorly.com/assisted-living/arizona/chandler/brookdale-central-chandler,,
7150,Brookdale Central Paradise Valley,"13240 North Tatum Boulevard, Phoenix, Az 85032",https://www.seniorly.com/assisted-living/arizona/phoenix/brookdale-central-paradise-valley,,
7151,Brookdale Chandler Ray Road,"2800 West Ray Road, Chandler, Az 85224",https://www.seniorly.com/assisted-living/arizona/chandler/brookdale-chandler-ray-road,,
7152,Brookdale Chandler Regional,"750 South Pennington Drive, Chandler, Az 85224",https://www.seniorly.com/assisted-living/arizona/chandler/brookdale-chandler-regional,,
7153,Brookdale Desert Ridge,"4050 East Bluefield Avenue, Phoenix, Az 85032",https://www.seniorly.com/assisted-living/arizona/phoenix/brookdale-desert-ridge,,
7154,Brookdale East Arbor,"6060 East Arbor Avenue, Mesa, Az 85206",https://www.seniorly.com/assisted-living/arizona/mesa/brookdale-east-arbor,,
7156,Brookdale East Tucson,"8468 East Speedway Boulevard, Tucson, Az 85710",https://www.seniorly.com/assisted-living/arizona/tucson/brookdale-east-tucson,,
7157,Brookdale Flagstaff,"2100 South Woodlands Village Boulevard, Flagstaff, Az 86001",https://www.seniorly.com/assisted-living/arizona/flagstaff/brookdale-flagstaff,,
7160,Brookdale North Mesa,"2122 East Brown Road, Mesa, Az 85213",https://www.seniorly.com/assisted-living/arizona/mesa/brookdale-north-mesa,,
7161,Brookdale North Scottsdale,"15436 North 64Th Street, Scottsdale, Az 85254",https://www.seniorly.com/assisted-living/arizona/scottsdale/brookdale-north-scottsdale,,
7162,Brookdale North Tucson,"2650 West Ina Road, Tucson, Az 85741",https://www.seniorly.com/assisted-living/arizona/tucson/brookdale-north-tucson,,
7164,Brookdale Peoria,"8989 West Greenbrian Drive, Peoria, Az 85382",https://www.seniorly.com/assisted-living/arizona/peoria/brookdale-peoria,,
7166,Brookdale Springs Mesa,"6220 East Broadway Road, Mesa, Az 85206",https://www.seniorly.com/assisted-living/arizona/mesa/brookdale-springs-mesa,,
7177,Cactus Star 1 Assisted Living,"4422 East Sharon Drive, Phoenix, Az 85032",https://www.seniorly.com/assisted-living/arizona/phoenix/cactus-star-1-assisted-living-home,,
7180,Cadence Chandler,"100 West Queen Creek Road, Chandler, Az 85248",https://www.seniorly.com/assisted-living/arizona/chandler/cadence-chandler,,
7181,Caissa Assisted Living,"2567 East Donato Drive, Gilbert, Az 85298",https://www.seniorly.com/assisted-living/arizona/gilbert/caissa-assisted-living-home-inc-gilbert,,
7183,Caissa Assisted Living,"2049 East Claxton Avenue, Gilbert, Az 85297",https://www.seniorly.com/assisted-living/arizona/gilbert/caissa-assisted-living-home,,
7185,Caliche Senior Living,"1640 North Peart Road, Casa Grande, Az 85122",https://www.seniorly.com/assisted-living/arizona/casa-grande/caliche-senior-living,,
7188,Callinis Assisted Living,"8139 East Cholla Street, Scottsdale, Az 85260",https://www.seniorly.com/assisted-living/arizona/scottsdale/callini-s-assisted-living,,
7194,Canyon Creek Assisted Living Memory Care,"369 East Canyon Creek Drive, Gilbert, Az 85295",https://www.seniorly.com/assisted-living/arizona/gilbert/canyon-creek-assisted-living-memory-care,,
7195,Canyon Valley Memory Care Residence,"2985 South Camino Del Sol, Green Valley, Az 85622",https://www.seniorly.com/assisted-living/arizona/green-valley/canyon-valley-memory-care-residence,,
7196,Canyon View By Platinum Care Homes,"1331 East Sobre Lomas, Tucson, Az 85718",https://www.seniorly.com/assisted-living/arizona/tucson/canyon-view-adult-care-home,,
7207,Carefree Assisted Living Center,"22 South 7Th Street, Cottonwood, Az 86326",https://www.seniorly.com/assisted-living/arizona/cottonwood/carefree-assisted-living-center,,
7209,Carefree Manor Assisted Living,"7886 East Breathless Drive, Carefree, Az 85377",https://www.seniorly.com/assisted-living/arizona/carefree/carefree-manor-assisted-living-llc,,
7220,Caring Hands Comfort Assisted Living,"5527 East Hawthorne Street, Tucson, Az 85711",https://www.seniorly.com/assisted-living/arizona/tucson/caring-hands-comfort-assisted-living-home-llc,,
7229,Casa Buena Assisted Living,"2391 West Thompson Way, Chandler, Az 85286",https://www.seniorly.com/assisted-living/arizona/chandler/casa-buena-assisted-living,,
7234,Casa De Los Abuelos Dos,"2015 West Ina Road, Tucson, Az 85704",https://www.seniorly.com/assisted-living/arizona/tucson/casa-de-los-abuelos-dos-llc,,
7236,Casa De Vida Living,"7036 West Parkway Drive, Phoenix, Az 85043",https://www.seniorly.com/assisted-living/arizona/phoenix/casa-de-vida-living,,
7237,Casa De Vida Living,"6713 North 41St Drive, Phoenix, Az 85019",https://www.seniorly.com/assisted-living/arizona/phoenix/casa-de-vida-living-phoenix,,
7241,Casa Theresita Iii,"5209 South 11Th Avenue, Tucson, Az 85706",https://www.seniorly.com/assisted-living/arizona/tucson/casa-theresita-iii,,
7242,Casas Adobes Assisted Living,"1551 West San Annetta Drive, Tucson, Az 85704",https://www.seniorly.com/assisted-living/arizona/tucson/casas-adobes-assisted-living,,
7243,Casas Chapala,"1521 West Chapala Drive, Tucson, Az 85704",https://www.seniorly.com/assisted-living/arizona/tucson/casas-chapala,,
7244,Cascades Of Tucson,"201 North Jessica Avenue, Tucson, Az 85710",https://www.seniorly.com/assisted-living/arizona/tucson/cascades-of-tucson,,
7249,Caveo Assisted Living,"8160 East Mcdowell Road, Mesa, Az 85207",https://www.seniorly.com/assisted-living/arizona/mesa/caveo-assisted-living,,
7256,Cedar Pastures,"607 North Bullmoose Drive, Chandler, Az 85224",https://www.seniorly.com/assisted-living/arizona/chandler/cedar-pastures,,
7257,Central Assisted Living,"25914 North Central Avenue, Phoenix, Az 85085",https://www.seniorly.com/assisted-living/arizona/phoenix/central-assisted-living,,
7258,Central Scottsdale Assisted Living,"10571 North 96Th Place, Scottsdale, Az 85258",https://www.seniorly.com/assisted-living/arizona/scottsdale/central-scottsdale-assisted-living-llc,,
7260,Cesca Adult Care Home,"12034 North 46Th Lane, Glendale, Az 85304",https://www.seniorly.com/assisted-living/arizona/glendale/cesca-adult-care-home,,
7266,Charles Residential Care,"15813 West Monroe Street, Goodyear, Az 85338",https://www.seniorly.com/assisted-living/arizona/goodyear/charles-residential-care,,
7275,Christian Care Assisted Living,"11818 North 19Th Avenue, Phoenix, Az 85029",https://www.seniorly.com/assisted-living/arizona/phoenix/christian-care-assisted-living-inc,,
7276,Christian Care Manor Ii,"11802 North 19Th Avenue, Phoenix, Az 85029",https://www.seniorly.com/assisted-living/arizona/phoenix/christian-care-manor-ii-inc,,
7290,Citrus Manor,"1816 East Brown Road, Mesa, Az 85203",https://www.seniorly.com/assisted-living/arizona/mesa/citrus-manor,,
7293,Clarendale Arcadia,"3233 East Camelback Road, Phoenix, Az 85018",https://www.seniorly.com/assisted-living/arizona/phoenix/clarendale-arcadia-residential-senior-living,,
7294,Clarendale Of Chandler,"5900 South Gilbert Road, Chandler, Az 85249",https://www.seniorly.com/assisted-living/arizona/chandler/clarendale-of-chandler,,
7308,Comfort Assisted Living,"9003 West Charleston Avenue, Peoria, Az 85382",https://www.seniorly.com/assisted-living/arizona/peoria/comfort-assisted-living-home-llc,,
7321,Compassionate Manor Assisted Living,"5420 East Karen Drive, Scottsdale, Az 85254",https://www.seniorly.com/assisted-living/arizona/scottsdale/compassionate-manor-assisted-living,,
7325,Constant Care Assisted Living North Central,"5247 North 6Th Street, Phoenix, Az 85012",https://www.seniorly.com/assisted-living/arizona/phoenix/constant-care-assisted-living-north-central,,
7328,Coolidge Legacy At Scottsdale,"7556 East Coolidge Street, Scottsdale, Az 85251",https://www.seniorly.com/assisted-living/arizona/scottsdale/coolidge-legacy-at-scottsdale,,
7330,Copper Sky Assisted Living,"1580 East Valerie Street, Casa Grande, Az 85122",https://www.seniorly.com/assisted-living/arizona/casa-grande/copper-sky-assisted-living,,
7332,Copper Village Assisted Living,"5037 East Broadway Road, Mesa, Az 85206",https://www.seniorly.com/assisted-living/arizona/mesa/copper-village-assisted-living,,
7334,Corine Assisted Living,"3433 West Corrine Drive, Phoenix, Az 85029",https://www.seniorly.com/assisted-living/arizona/phoenix/corine-assisted-living,,
7340,Corrine Assisted Living,"2501 West Corrine Drive, Phoenix, Az 85029",https://www.seniorly.com/assisted-living/arizona/phoenix/corrine-assisted-living,,
7341,Cottonwood Village,"201 East Mingus Avenue, Cottonwood, Az 86326",https://www.seniorly.com/assisted-living/arizona/cottonwood/cottonwood-village,,
7346,Country Oaks,"544 West Nido Avenue, Mesa, Az 85210",https://www.seniorly.com/assisted-living/arizona/mesa/country-oaks-llc,,
7348,Countryside Senior Living,"22773 East Ocotillo Road, Queen Creek, Az 85142",https://www.seniorly.com/assisted-living/arizona/queen-creek/countryside-senior-living-queen-creek,,
7362,Crystal Joy Care Home,"6088 North 85Th Avenue, Glendale, Az 85305",https://www.seniorly.com/assisted-living/arizona/glendale/crystal-joy-care-home,,
7367,D Vintage Place Assisted Living,"1611 West Boise Place, Chandler, Az 85224",https://www.seniorly.com/assisted-living/arizona/chandler/d-vintage-place-assisted-living-home,,
7368,Darcy Manor Assisted Living,"3191 West Genoa Way, Chandler, Az 85226",https://www.seniorly.com/assisted-living/arizona/chandler/d-arcy-manor-assisted-living-home-llc,,
7372,Danielas Assisted Living,"20830 North 39Th Drive, Glendale, Az 85308",https://www.seniorly.com/assisted-living/arizona/glendale/daniela-s-assisted-living,,
7373,Daniellas Loving Care Home,"12210 North 62Nd Drive, Glendale, Az 85304",https://www.seniorly.com/assisted-living/arizona/glendale/daniella-s-loving-care-home,,
7375,Danilas Assisted Living,"4215 East Wescott Drive, Phoenix, Az 85050",https://www.seniorly.com/assisted-living/arizona/phoenix/danila-s-assisted-living,,
7392,Desert Comfort Assisted Living,"15873 North 18Th Street, Phoenix, Az 85022",https://www.seniorly.com/assisted-living/arizona/phoenix/desert-comfort-assisted-living-home,,
7393,Desert Cove Assisted Living,"10405 East Desert Cove Avenue, Scottsdale, Az 85259",https://www.seniorly.com/assisted-living/arizona/scottsdale/desert-cove-assisted-living,,
7395,Desert Dreams Adult Care Home,"2621 North Bahana Drive, Tucson, Az 85715",https://www.seniorly.com/assisted-living/arizona/tucson/desert-dreams-adult-care-home-llc,,
7396,Desert Garden Assisted Living Ii,"4305 East Briarwood Terrace, Phoenix, Az 85048",https://www.seniorly.com/assisted-living/arizona/phoenix/desert-garden-assisted-living-ii,,
7397,Desert Garden Assisted Living,"16414 South 43Rd Street, Phoenix, Az 85048",https://www.seniorly.com/assisted-living/arizona/phoenix/desert-garden-assisted-living-inc,,
7398,Desert Garden Homecare,"7331 East Posada Avenue, Mesa, Az 85212",https://www.seniorly.com/assisted-living/arizona/mesa/desert-garden-homecare,,
7403,Desert Haven Home Care,"4123 North 21St Street, Phoenix, Az 85016",https://www.seniorly.com/assisted-living/arizona/phoenix/desert-haven-home-care,,
7406,Desert Home Assisted Living,"5940 East 5Th Street, Tucson, Az 85711",https://www.seniorly.com/assisted-living/arizona/tucson/desert-home-assisted-living-llc,,
7412,Desert Oasis At Countryside Estates Assisted Living,"2221 East Horseshoe Place, Chandler, Az 85249",https://www.seniorly.com/assisted-living/arizona/chandler/desert-oasis-at-countryside-estates-assisted-living,,
7425,Desert Pond Assisted Living,"6361 West Post Road, Chandler, Az 85226",https://www.seniorly.com/assisted-living/arizona/chandler/desert-pond-assisted-living,,
7426,Desert Ranch Assisted Living,"11055 East Grove Street, Mesa, Az 85208",https://www.seniorly.com/assisted-living/arizona/mesa/desert-ranch-assisted-living-home-llc,,
7431,Desert Sierra Assisted Living,"3132 East Acoma Drive, Phoenix, Az 85032",https://www.seniorly.com/assisted-living/arizona/phoenix/desert-sierra-assisted-living,,
7436,Desert Stream Assisted Living 3,"1341 North Lakeshore Drive, Chandler, Az 85226",https://www.seniorly.com/assisted-living/arizona/chandler/desert-stream-assisted-living-home-3,,
7438,Desert Willow Assisted Living,"5006 East Justica Street, Cave Creek, Az 85331",https://www.seniorly.com/assisted-living/arizona/cave-creek/desert-willow-assisted-living,,
7440,Desert Winds Assisted Living,"20545 North Lake Pleasant Road, Peoria, Az 85382",https://www.seniorly.com/assisted-living/arizona/peoria/desert-winds-assisted-living,,
7451,Devon Gables Rehabilitation Center,"6150 East Grant Road, Tucson, Az 85712",https://www.seniorly.com/assisted-living/arizona/tucson/devon-gables-rehabilitation-center-llc,,
7453,Devoted Hearts Assisted Living,"1621 West Corona Drive, Chandler, Az 85224",https://www.seniorly.com/assisted-living/arizona/chandler/devoted-hearts-assisted-living-llc,,
7455,Diamond Manor Adult Care,"7330 West Getty Drive, Phoenix, Az 85043",https://www.seniorly.com/assisted-living/arizona/phoenix/diamond-manor-adult-care,,
7457,Diamond Quality Assisted Living Care Home,"6177 East Blanche Drive, Scottsdale, Az 85254",https://www.seniorly.com/assisted-living/arizona/scottsdale/diamond-quality-assisted-living-care-home,,
7467,Dinas Assisted Living,"13174 North 82Nd Drive, Peoria, Az 85381",https://www.seniorly.com/assisted-living/arizona/peoria/dina-s-assisted-living-home,,
7475,Dnadebbs At Layton Lake,"3234 East Dogwood Place, Chandler, Az 85286",https://www.seniorly.com/assisted-living/arizona/chandler/dnadebbs-at-layton-lake,,
7497,Eden Estates Assisted Living,"20393 East Calle De Flores, Queen Creek, Az 85142",https://www.seniorly.com/assisted-living/arizona/queen-creek/eden-estates-assisted-living,,
7502,El Pueblo Assisted Living,"14030 North El Pueblo Boulevard, Fountain Hills, Az 85268",https://www.seniorly.com/assisted-living/arizona/fountain-hills/el-pueblo-assisted-living,,
7510,Elegant Care Ii,"6052 West Victoria Place, Chandler, Az 85226",https://www.seniorly.com/assisted-living/arizona/chandler/elegant-care-ii,,
7511,Elegant Care,"442 East Sunburst Lane, Tempe, Az 85284",https://www.seniorly.com/assisted-living/arizona/tempe/elegant-care-llc,,
7529,Elliecare,"4857 West Beverly Lane, Glendale, Az 85306",https://www.seniorly.com/assisted-living/arizona/glendale/elliecare,,
7545,Embrace Assisted Living,"7256 East Onza Avenue, Mesa, Az 85212",https://www.seniorly.com/assisted-living/arizona/mesa/embrace-assisted-living,,
7553,Emerald Groves Central,"2759 North Val Vista Drive, Mesa, Az 85213",https://www.seniorly.com/assisted-living/arizona/mesa/emerald-groves-central,,
7555,Emerald Groves North,"2920 North Val Vista Drive, Mesa, Az 85213",https://www.seniorly.com/assisted-living/arizona/mesa/emerald-groves-north,,
7556,Emerald Groves South,"3714 East Mclellan Road, Mesa, Az 85205",https://www.seniorly.com/assisted-living/arizona/mesa/emerald-groves-south,,
7557,Emerald Springs Senior Living,"1475 South 46Th Avenue, Yuma, Az 85364",https://www.seniorly.com/assisted-living/arizona/yuma/emerald-springs-retirement-and-assisted-living-community,,
7559,Emerine Hills Adult Care Home,"1270 West Emerine Drive, Tucson, Az 85704",https://www.seniorly.com/assisted-living/arizona/tucson/emerine-hills-adult-care-home,,
7569,Encanto Palms Assisted Living,"3901 West Encanto Boulevard, Phoenix, Az 85009",https://www.seniorly.com/assisted-living/arizona/phoenix/encanto-palms-assisted-living,,
7584,Estancia Assisted Living At Discovery Park,"3517 South 159Th Street, Gilbert, Az 85297",https://www.seniorly.com/assisted-living/arizona/gilbert/estancia-assisted-living-at-discovery-park,,
7587,Estancia Assisted Living,"3260 East Tonto Court, Gilbert, Az 85298",https://www.seniorly.com/assisted-living/arizona/gilbert/estancia-assisted-living,,
7597,Eternal Spring Of Gilbert,"940 East Williams Field Road, Gilbert, Az 85295",https://www.seniorly.com/assisted-living/arizona/gilbert/eternal-spring-of-gilbert,,
7617,Everlasting Services At Hatcher,"4733 West Hatcher Road, Glendale, Az 85302",https://www.seniorly.com/assisted-living/arizona/glendale/everlasting-services-at-hatcher,,
7621,Extended Family Home,"2556 East Hermosa Vista Drive, Mesa, Az 85213",https://www.seniorly.com/assisted-living/arizona/mesa/extended-family-home,,
7629,Fairbrook Grove,"3916 East Fairbrook Circle, Mesa, Az 85205",https://www.seniorly.com/assisted-living/arizona/mesa/fairbrook-grove-inc,,
7633,Fairmount Assisted Living,"6161 East Fairmount Street, Tucson, Az 85712",https://www.seniorly.com/assisted-living/arizona/tucson/fairmount-assisted-living-llc,,
7635,Fairwinds Desert Point,"10701 North La Reserve Drive, Oro Valley, Az 85737",https://www.seniorly.com/assisted-living/arizona/oro-valley/fairwinds-desert-point,,
7641,Faith Care Homes,"2223 South Faith, Mesa, Az 85209",https://www.seniorly.com/assisted-living/arizona/mesa/faith-care-homes,,
7647,Family Care Assisted Living,"4327 West Wahalla Lane, Glendale, Az 85308",https://www.seniorly.com/assisted-living/arizona/glendale/family-care-assisted-living-home,,
7649,Family Care Homes Inc Encanto House,"2962 East Encanto Street, Mesa, Az 85213",https://www.seniorly.com/assisted-living/arizona/mesa/family-care-homes-inc-encanto-house,,
7659,Family Loving Kare S1,"1681 West Placita Abreojos, Sahuarita, Az 85629",https://www.seniorly.com/assisted-living/arizona/sahuarita/family-loving-kare-s1,,
7666,Family Touch,"2345 East Leonora Street, Mesa, Az 85213",https://www.seniorly.com/assisted-living/arizona/mesa/family-touch,,
7674,Fawn Assisted Living,"13332 East Boston Street, Chandler, Az 85225",https://www.seniorly.com/assisted-living/arizona/chandler/fawn-assisted-living,,
7677,Feel At Home Assisted Living,"4671 West Camino De Manana, Tucson, Az 85742",https://www.seniorly.com/assisted-living/arizona/tucson/feel-at-home-assisted-living,,
7690,Firebird Assisted Living,"7179 West Firebird Drive, Glendale, Az 85308",https://www.seniorly.com/assisted-living/arizona/glendale/firebird-assisted-living,,
7692,Firebird Assisted Living 2,"7186 West Firebird Drive, Glendale, Az 85308",https://www.seniorly.com/assisted-living/arizona/glendale/firebird-assisted-living-2,,
7694,First Adult Care Home,"3925 North 1St Avenue, Tucson, Az 85719",https://www.seniorly.com/assisted-living/arizona/tucson/first-adult-care-home,,
7696,First Choice Assisted Living,"6819 North 14Th Street, Phoenix, Az 85014",https://www.seniorly.com/assisted-living/arizona/phoenix/first-choice-assisted-living,,
7704,Five Star Assisted Living,"1932 East Jeanine Drive, Tempe, Az 85284",https://www.seniorly.com/assisted-living/arizona/tempe/five-star-assisted-living,,
7712,Flomarie Love Care Home 2,"2102 North Chestnut Circle, Mesa, Az 85213",https://www.seniorly.com/assisted-living/arizona/mesa/flomarie-love-care-home-2,,
7718,Foothills Vista Adult Care Home,"7357 North Paseo Ronceval, Tucson, Az 85704",https://www.seniorly.com/assisted-living/arizona/tucson/foothills-vista-adult-care-home-llc,,
7724,Fountain Hills Assisted Living,"5962 East Seneca Street, Tucson, Az 85712",https://www.seniorly.com/assisted-living/arizona/tucson/fountain-hills-assisted-living-llc,,
7742,Frances Residential Care 1,"502 South Magnolia Avenue, Tucson, Az 85711",https://www.seniorly.com/assisted-living/arizona/tucson/frances-residential-care-1,,
7750,Friends And Family Assisted Living,"10601 East Meseto Avenue, Mesa, Az 85209",https://www.seniorly.com/assisted-living/arizona/mesa/friends-and-family-assisted-living,,
7757,G G Comfortable Care Home,"15247 North 63Rd Drive, Glendale, Az 85306",https://www.seniorly.com/assisted-living/arizona/glendale/g-g-comfortable-care-home,,
7797,Gifts Of Grace Assisted Livings,"2866 East Cotton Court, Gilbert, Az 85234",https://www.seniorly.com/assisted-living/arizona/gilbert/gifts-of-grace-assisted-living-homes,,
7801,Give Love Assisted Living,"11408 West Holly Street, Avondale, Az 85392",https://www.seniorly.com/assisted-living/arizona/avondale/give-love-assisted-living,,
7805,Glecy Infinity Care Assisted Living,"976 West Citrus Way, Chandler, Az 85248",https://www.seniorly.com/assisted-living/arizona/chandler/glecy-infinity-care-assisted-living,,
7813,Glorianne Adult Care Home,"5231 West Kaler Circle, Glendale, Az 85301",https://www.seniorly.com/assisted-living/arizona/glendale/glorianne-adult-care-home,,
7815,Glynnis Place,"4216 North 100Th Avenue, Phoenix, Az 85037",https://www.seniorly.com/assisted-living/arizona/phoenix/glynnis-place,,
7845,Golden Residence Assisted Living,"4860 West Geronimo Street, Chandler, Az 85226",https://www.seniorly.com/assisted-living/arizona/chandler/golden-residence-assisted-living,,
7855,Golden Swan Manor,"9828 North 57Th Street, Paradise Valley, Az 85253",https://www.seniorly.com/assisted-living/arizona/paradise-valley/golden-swan-manor,,
7861,Golden Touch Care Homes,"1926 West Highland Street, Chandler, Az 85224",https://www.seniorly.com/assisted-living/arizona/chandler/golden-touch-care-homes,,
7866,Golden Years Assisted Living,"5934 West Villa Theresa Drive, Glendale, Az 85308",https://www.seniorly.com/assisted-living/arizona/glendale/golden-years-assisted-living-glendale,,
7870,Goldmine Mountain Assisted Living,"2785 West Goldmine Mountain Drive, San Tan Valley, Az 85142",https://www.seniorly.com/assisted-living/arizona/san-tan-valley/goldmine-mountain-assisted-living-home,,
7880,Good Samaritan Home Care,"2440 East Whitten Street, Chandler, Az 85225",https://www.seniorly.com/assisted-living/arizona/chandler/good-samaritan-home-care,,
7884,Good Shepherd Assisted Living,"6464 East Norwood Circle, Mesa, Az 85215",https://www.seniorly.com/assisted-living/arizona/mesa/good-shepherd-assisted-living-llc,,
7898,Grace Hill Ranch,"37509 North 16Th Street, Phoenix, Az 85086",https://www.seniorly.com/assisted-living/arizona/phoenix/grace-hill-ranch-llc,,
7900,Grace Hill Special Care,"2866 West Muriel Drive, Phoenix, Az 85053",https://www.seniorly.com/assisted-living/arizona/phoenix/grace-hill-special-care-llc,,
7904,Grace Living Care,"8340 North 86Th Lane, Peoria, Az 85345",https://www.seniorly.com/assisted-living/arizona/peoria/grace-living-care,,
7906,Grace Manor,"1330 East Ivanhoe Street, Chandler, Az 85225",https://www.seniorly.com/assisted-living/arizona/chandler/grace-manor-chandler,,
7912,Graceful Hands Home Care,"5241 South 3Rd Street, Phoenix, Az 85040",https://www.seniorly.com/assisted-living/arizona/phoenix/graceful-hands-home-care,,
7916,Graceville Estate,"619 West Citrus Way, Chandler, Az 85248",https://www.seniorly.com/assisted-living/arizona/chandler/graceville-estate-chandler,,
7918,Gracious Grannys,"1420 Bates Road, Cottonwood, Az 86326",https://www.seniorly.com/assisted-living/arizona/cottonwood/gracious-granny-s-llc,,
7922,Grandmas Angel 2,"1532 South Perlman Avenue, Tucson, Az 85710",https://www.seniorly.com/assisted-living/arizona/tucson/grandma-s-angel-2,,
7928,Great Heart Adult Assisted Living,"3241 East Corrine Drive, Phoenix, Az 85032",https://www.seniorly.com/assisted-living/arizona/phoenix/great-heart-adult-assisted-living-home,,
7930,Green Acres Assisted Living,"2821 East Iris Drive, Chandler, Az 85286",https://www.seniorly.com/assisted-living/arizona/chandler/green-acres-assisted-living-home-llc,,
7962,Hacienda Granada,"4040 East Highland Avenue, Phoenix, Az 85018",https://www.seniorly.com/assisted-living/arizona/phoenix/hacienda-granada,,
7965,Halynas Care,"2107 West Orangewood Avenue, Phoenix, Az 85021",https://www.seniorly.com/assisted-living/arizona/phoenix/halyna-s-care,,
7991,Harmony Gardens,"6301 West Earll Drive, Phoenix, Az 85033",https://www.seniorly.com/assisted-living/arizona/phoenix/harmony-gardens-llc,,
7993,Hartford Assisted Living,"3736 West Hartford Avenue, Glendale, Az 85308",https://www.seniorly.com/assisted-living/arizona/glendale/hartford-assisted-living,,
7995,Harvard House Of Care,"14628 West Harvard Street, Goodyear, Az 85395",https://www.seniorly.com/assisted-living/arizona/goodyear/harvard-house-of-care-llc,,
8022,Hayden Estates Assisted Living,"7585 East Sweetwater Avenue, Scottsdale, Az 85260",https://www.seniorly.com/assisted-living/arizona/scottsdale/hayden-estates-assisted-living,,
8024,Hayden Villa,"7917 East Cactus Road, Scottsdale, Az 85260",https://www.seniorly.com/assisted-living/arizona/scottsdale/hayden-villa,,
8028,Healing Hearts Assisted Living,"777 Golf Links Road, Sierra Vista, Az 85635",https://www.seniorly.com/assisted-living/arizona/sierra-vista/healing-hearts-assisted-living,,
8054,Helping Hands Assisted Living,"17039 West Alameda Road, Surprise, Az 85387",https://www.seniorly.com/assisted-living/arizona/surprise/helping-hands-assisted-living-surprise,,
8067,Heritage Manor Assisted Living,"1271 North Kingston Street, Gilbert, Az 85233",https://www.seniorly.com/assisted-living/arizona/gilbert/heritage-manor-assisted-living-llc,,
8071,Heritage Oaks Assisted Living,"6569 East Carondelet Drive, Tucson, Az 85710",https://www.seniorly.com/assisted-living/arizona/tucson/heritage-oaks-assisted-living-tucson,,
8086,Highland Assisted Living,"1040 North Villas Lane, Chandler, Az 85224",https://www.seniorly.com/assisted-living/arizona/chandler/dignified-assisted-living-llc-chandler,,
8088,Highland Lakes Care Home,"6076 West Piute Avenue, Glendale, Az 85308",https://www.seniorly.com/assisted-living/arizona/glendale/highland-lakes-care-home,,
8090,Highland Park Assisted Living,"19512 North 66Th Avenue, Glendale, Az 85308",https://www.seniorly.com/assisted-living/arizona/glendale/highland-park-assisted-living-home,,
8098,Hildas Haven 1,"1970 East Ross Drive, Chandler, Az 85225",https://www.seniorly.com/assisted-living/arizona/chandler/hilda-s-haven-1,,
8117,Holy Name Assisted Living 2,"2571 South Eileen Drive, Chandler, Az 85286",https://www.seniorly.com/assisted-living/arizona/chandler/holy-name-assisted-living-2,,
8119,Holy Name Assisted Living,"112 South Nebraska Street, Chandler, Az 85225",https://www.seniorly.com/assisted-living/arizona/chandler/holy-name-assisted-living,,
8120,Holy Trinity Assisted Living,"3965 West Massingale Road, Tucson, Az 85741",https://www.seniorly.com/assisted-living/arizona/tucson/holy-trinity-assisted-living-llc,,
8126,Home Of Helping Hands Assisted Living,"4429 North 156Th Drive, Goodyear, Az 85395",https://www.seniorly.com/assisted-living/arizona/goodyear/home-of-helping-hands-assisted-living-llc,,
8130,Home Sweet Home On Florian,"3942 East Florian Avenue, Mesa, Az 85206",https://www.seniorly.com/assisted-living/arizona/mesa/home-sweet-home-on-florian,,
8148,Horizon Assisted Living,"19728 North 79Th Avenue, Glendale, Az 85308",https://www.seniorly.com/assisted-living/arizona/glendale/horizon-assisted-living-home-llc,,
8150,Horizon Manor 2,"5645 East Nisbet Road, Scottsdale, Az 85254",https://www.seniorly.com/assisted-living/arizona/scottsdale/horizon-manor-2,,
8174,Hummingbird Gardens,"16024 North 17Th Way, Phoenix, Az 85022",https://www.seniorly.com/assisted-living/arizona/phoenix/hummingbird-gardens,,
8221,Insight Guest Home,"15433 North 45Th Street, Phoenix, Az 85032",https://www.seniorly.com/assisted-living/arizona/phoenix/insight-guest-home,,
8223,Inspira Arrowhead,"20240 North 78Th Avenue, Glendale, Az 85308",https://www.seniorly.com/assisted-living/arizona/glendale/inspira-arrowhead,,
8225,Inspira Gateway,"4533 East Banner Gateway Drive, Mesa, Az 85206",https://www.seniorly.com/assisted-living/arizona/mesa/inspira-gateway,,
8234,Integrity Care,"1721 North 74Th Place, Scottsdale, Az 85257",https://www.seniorly.com/assisted-living/arizona/scottsdale/integrity-care,,
8240,Iocam Assisted Living,"6128 West Gambit Trail, Phoenix, Az 85083",https://www.seniorly.com/assisted-living/arizona/phoenix/iocam-assisted-living-home,,
8258,Jim And Patti Jones Assisted Living Iii,"3529 East Downing Circle, Mesa, Az 85213",https://www.seniorly.com/assisted-living/arizona/mesa/jim-and-patti-jones-assisted-living-home-iii,,
8264,Jmj Adult Care Home,"7754 North 33Rd Avenue, Phoenix, Az 85051",https://www.seniorly.com/assisted-living/arizona/phoenix/j-m-j-adult-care-home,,
8269,Jolley Family Assisted Living,"20106 West Broadway Road, Buckeye, Az 85326",https://www.seniorly.com/assisted-living/arizona/buckeye/jolley-family-assisted-living-llc,,
8273,Jones Family Care Home,"412 South 30Th Street, Mesa, Az 85204",https://www.seniorly.com/assisted-living/arizona/mesa/jones-family-care-home,,
8275,Joshua Springs Senior Living,"2995 Desert Sky Boulevard, Bullhead City, Az 86442",https://www.seniorly.com/assisted-living/arizona/bullhead-city/joshua-springs-senior-living,,
8282,Joyce Ridge Civitan House,"5038 North 17Th Avenue, Phoenix, Az 85015",https://www.seniorly.com/assisted-living/arizona/phoenix/joyce-ridge-civitan-house,,
8293,Jubilee In The Desert Assisted Living,"4321 West Cholla Street, Glendale, Az 85304",https://www.seniorly.com/assisted-living/arizona/glendale/jubilee-in-the-desert-assisted-living,,
8295,Julians Assisted Living,"10304 East Jan Avenue, Mesa, Az 85209",https://www.seniorly.com/assisted-living/arizona/mesa/julian-s-assisted-living-home,,
8302,Kaydies Assisted Living,"16566 West Woodlands Avenue, Goodyear, Az 85338",https://www.seniorly.com/assisted-living/arizona/goodyear/kaydies-assisted-living-home,,
8308,Kierland Care Assisted Living,"7044 East Thunderbird Road, Scottsdale, Az 85254",https://www.seniorly.com/assisted-living/arizona/scottsdale/kierland-care-assisted-living,,
8314,Kikos Ranch,"4960 East Calle Jabali, Tucson, Az 85711",https://www.seniorly.com/assisted-living/arizona/tucson/kiko-s-ranch,,
8316,Kindred Homes Yuma,"5238 East 47Th Street, Yuma, Az 85365",https://www.seniorly.com/assisted-living/arizona/yuma/kindred-homes-yuma-llc,,
8320,King Assisted Living Ii,"3318 East Marconi Avenue, Phoenix, Az 85032",https://www.seniorly.com/assisted-living/arizona/phoenix/king-assisted-living-ii,,
8324,Kivel Manor Assisted Living Center,"3040 North 36Th Street, Phoenix, Az 85018",https://www.seniorly.com/assisted-living/arizona/phoenix/kivel-manor-assisted-living-center,,
8332,Kozy Gardens Assisted Living,"5551 East Bellevue Street, Tucson, Az 85712",https://www.seniorly.com/assisted-living/arizona/tucson/kozy-gardens-assisted-living,,
8342,La Bella Vita Assisted Living,"7515 East Farmdale Avenue, Mesa, Az 85208",https://www.seniorly.com/assisted-living/arizona/mesa/la-bella-vita-assisted-living-home,,
8348,La Paz Assisted Living Ii,"2914 East 4Th Street, Tucson, Az 85716",https://www.seniorly.com/assisted-living/arizona/tucson/la-paz-assisted-living-ii,,
8352,La Siena,"909 East Northern Avenue, Phoenix, Az 85020",https://www.seniorly.com/assisted-living/arizona/phoenix/la-siena,,
8354,La Solana Assisted Living,"2551 West Rabjohn Road, Phoenix, Az 85085",https://www.seniorly.com/assisted-living/arizona/phoenix/la-solana-assisted-living,,
8362,Lake View Retirement Villa,"2902 West Cholla Street, Phoenix, Az 85029",https://www.seniorly.com/assisted-living/arizona/phoenix/lake-view-retirement-villa,,
8368,Lakeview Assisted Living,"20044 North 68Th Drive, Glendale, Az 85308",https://www.seniorly.com/assisted-living/arizona/glendale/lakeview-assisted-living,,
8370,Lakeview Assisted Living,"10048 East Lakeview Avenue, Mesa, Az 85209",https://www.seniorly.com/assisted-living/arizona/mesa/lakeview-assisted-living-home-llc,,
8376,Larisa Sweet Home 1,"8517 West Nicolet Avenue, Glendale, Az 85305",https://www.seniorly.com/assisted-living/arizona/glendale/larisa-sweet-home-1-llc,,
8379,Las Fuentes Assisted Living,"7340 East Sweetwater Avenue, Scottsdale, Az 85260",https://www.seniorly.com/assisted-living/arizona/scottsdale/las-fuentes-assisted-living,,
8381,Las Fuentes Assisted Living Ii,"8617 East Sweetwater Avenue, Scottsdale, Az 85260",https://www.seniorly.com/assisted-living/arizona/scottsdale/las-fuentes-assisted-living-ii,,
8383,Las Fuentes Assisted Living Iii,"7191 East Montgomery Road, Scottsdale, Az 85266",https://www.seniorly.com/assisted-living/arizona/scottsdale/las-fuentes-assisted-living-iii,,
8389,Las Palmas Assisted Living,"5332 North Flint Avenue, Tucson, Az 85704",https://www.seniorly.com/assisted-living/arizona/tucson/las-palmas-assisted-living-home-llc,,
8393,Laurel Assisted Living,"2201 West Laurel Lane, Phoenix, Az 85029",https://www.seniorly.com/assisted-living/arizona/phoenix/laurel-assisted-living-home-llc,,
8425,Legacy Of Hearts Assisted Living,"4638 East Summerhaven Drive, Phoenix, Az 85044",https://www.seniorly.com/assisted-living/arizona/phoenix/legacy-of-hearts-assisted-living,,
8429,Legacy Village Of Salt River,"8170 North 90Th Street, Scottsdale, Az 85258",https://www.seniorly.com/assisted-living/arizona/scottsdale/legacy-village-of-salt-river,,
8431,Legato Living At Old Town,"8701 East Cheery Lynn Road, Scottsdale, Az 85251",https://www.seniorly.com/assisted-living/arizona/scottsdale/legato-living-at-old-town,,
8440,Legion Manor,"6842 East Posada Circle, Mesa, Az 85212",https://www.seniorly.com/assisted-living/arizona/mesa/legion-manor-llc,,
8442,Leisure Gardens,"3704 East Vaughn Avenue, Gilbert, Az 85234",https://www.seniorly.com/assisted-living/arizona/gilbert/leisure-gardens,,
8446,Leisure Living Cottages In Mesa,"3530 East Pueblo Avenue, Mesa, Az 85204",https://www.seniorly.com/assisted-living/arizona/mesa/leisure-living-cottages-in-mesa,,
8456,Liberty Assisted Living,"12152 West Davis Lane, Avondale, Az 85323",https://www.seniorly.com/assisted-living/arizona/avondale/liberty-assisted-living-home,,
8458,Liberty Care Home Ii,"1178 West Laredo Avenue, Gilbert, Az 85233",https://www.seniorly.com/assisted-living/arizona/gilbert/liberty-care-home-ii,,
8477,Lifestream At Youngtown,"11315 West Peoria Avenue, Youngtown, Az 85363",https://www.seniorly.com/assisted-living/arizona/youngtown/lifestream-at-youngtown,,
8481,Lincoln Heights Assisted Living,"1930 East Glendale Avenue, Phoenix, Az 85020",https://www.seniorly.com/assisted-living/arizona/phoenix/lincoln-heights-assisted-living,,
8483,Lincoln Residential Assisted Living,"6501 North 48Th Street, Paradise Valley, Az 85253",https://www.seniorly.com/assisted-living/arizona/paradise-valley/lincoln-residential-assisted-living,,
8487,Litchfield Countryside Home Care,"3333 North 188Th Avenue, Litchfield Park, Az 85340",https://www.seniorly.com/assisted-living/arizona/litchfield-park/litchfield-countryside-home-care,,
8494,Little Flower Assisted Living,"9031 East Plata Avenue, Mesa, Az 85212",https://www.seniorly.com/assisted-living/arizona/mesa/little-flower-assisted-living-home,,
8496,Little Touch Of Europe,"7717 West Beryl Avenue, Peoria, Az 85345",https://www.seniorly.com/assisted-living/arizona/peoria/little-touch-of-europe,,
8500,Living Legacy Senior Care East,"8241 East Quarterline Road, Mesa, Az 85207",https://www.seniorly.com/assisted-living/arizona/mesa/living-legacy-senior-care-east,,
8508,Lookout Mountain Assisted Living,"15014 North 20Th Street, Phoenix, Az 85022",https://www.seniorly.com/assisted-living/arizona/phoenix/lookout-mountain-assisted-living-home,,
8517,Love And Care Ii Assisted Living,"16786 West Electra Lane, Surprise, Az 85387",https://www.seniorly.com/assisted-living/arizona/surprise/love-and-care-ii-assisted-living,,
8519,Love And Care Iii Assisted Living,"17030 West Sand Hills Road, Surprise, Az 85387",https://www.seniorly.com/assisted-living/arizona/surprise/love-and-care-iii-assisted-living,,
8523,Lovecare Co,"7022 East Edgemont Street, Tucson, Az 85710",https://www.seniorly.com/assisted-living/arizona/tucson/lovecare-co,,
8533,Loving Heart Assisted Living Service,"13001 North 22Nd Place, Phoenix, Az 85022",https://www.seniorly.com/assisted-living/arizona/phoenix/loving-heart-assisted-living-service,,
8537,Loving Hearts Assisted Living,"1714 South Linda, Mesa, Az 85204",https://www.seniorly.com/assisted-living/arizona/mesa/loving-hearts-assisted-living-llc,,
8539,Loving Mother Residency,"629 North Entrada Street, Chandler, Az 85226",https://www.seniorly.com/assisted-living/arizona/chandler/loving-mother-residency,,
8541,Loyale Assisted Living,"5971 West Lone Cactus Drive, Glendale, Az 85308",https://www.seniorly.com/assisted-living/arizona/glendale/loyale-assisted-living,,
8547,Lydias Adult Care Home,"6208 West Caribe Lane, Glendale, Az 85306",https://www.seniorly.com/assisted-living/arizona/glendale/lydia-s-adult-care-home,,
8554,Mk Assisted Living Layton Lakes,"1110 East Clovefield Street, Gilbert, Az 85298",https://www.seniorly.com/assisted-living/arizona/gilbert/m-k-assisted-living-layton-lakes,,
8558,Mk Cadence Assisted Living,"9752 East Tumbleweed Avenue, Mesa, Az 85212",https://www.seniorly.com/assisted-living/arizona/mesa/m-k-cadence-assisted-living,,
8560,Madeira Villa Assisted Living,"3370 West Ironwood Drive, Chandler, Az 85226",https://www.seniorly.com/assisted-living/arizona/chandler/madeira-villa-assisted-living-llc,,
8562,Madera Assisted Living,"707 West Palo Verde Street, Gilbert, Az 85233",https://www.seniorly.com/assisted-living/arizona/gilbert/madera-assisted-living-home,,
8566,Maelee Care Home,"10462 East Abilene Avenue, Mesa, Az 85208",https://www.seniorly.com/assisted-living/arizona/mesa/maelee-care-home,,
8572,Magnolia Homecare At Mulberry,"10751 East Monterey Avenue, Mesa, Az 85209",https://www.seniorly.com/assisted-living/arizona/mesa/magnolia-homecare-at-mulberry,,
8582,Mama Care Assisted Living,"10427 East Idaho Circle, Mesa, Az 85209",https://www.seniorly.com/assisted-living/arizona/mesa/mama-care-assisted-living,,
8592,Marcos And Secilia Ramon Home Care,"521 West Pepper Place, Mesa, Az 85201",https://www.seniorly.com/assisted-living/arizona/mesa/marcos-and-secilia-ramon-home-care,,
8596,Margaret T Morris Center,"878 Sunset Avenue, Prescott, Az 86305",https://www.seniorly.com/assisted-living/arizona/prescott/margaret-t-morris-center,,
8600,Marias Garden Care Home,"3646 West Dunlap Avenue, Phoenix, Az 85051",https://www.seniorly.com/assisted-living/arizona/phoenix/maria-s-garden-care-home-llc,,
8602,Marian Adult Care Home,"1002 West Rose Lane, Phoenix, Az 85013",https://www.seniorly.com/assisted-living/arizona/phoenix/marian-adult-care-home,,
8612,Marilyn Manor Assisted Living,"6327 East Marilyn Road, Scottsdale, Az 85254",https://www.seniorly.com/assisted-living/arizona/scottsdale/marilyn-manor-assisted-living-home,,
8614,Marino Manor Ii,"5011 North 64Th Drive, Glendale, Az 85301",https://www.seniorly.com/assisted-living/arizona/glendale/marino-manor-ii-llc,,
8618,Markesh Alh,"1757 East Victoria Street, Chandler, Az 85249",https://www.seniorly.com/assisted-living/arizona/chandler/markesh-alh,,
8628,Marshall Home For Men,"3314 South 16Th Avenue, Tucson, Az 85713",https://www.seniorly.com/assisted-living/arizona/tucson/marshall-home-for-men,,
8632,Mary Petes Assisted Living,"1164 West Oleta Drive, Tucson, Az 85704",https://www.seniorly.com/assisted-living/arizona/tucson/mary-pete-s-assisted-living,,
8634,Mary Grace Care Home,"9837 East Tahoe Avenue, Mesa, Az 85212",https://www.seniorly.com/assisted-living/arizona/mesa/mary-grace-care-home,,
8637,Marys Group Home,"10008 West Bloch Road, Tolleson, Az 85353",https://www.seniorly.com/assisted-living/arizona/tolleson/mary-s-group-home,,
8644,Master Care,"2159 West Eugie Avenue, Phoenix, Az 85029",https://www.seniorly.com/assisted-living/arizona/phoenix/master-care-inc,,
8648,Maui Care Home,"7736 West Maui Lane, Peoria, Az 85381",https://www.seniorly.com/assisted-living/arizona/peoria/maui-care-home,,
8652,Maxis Loving Place,"3126 West 26Th Street, Yuma, Az 85364",https://www.seniorly.com/assisted-living/arizona/yuma/maxi-s-loving-place,,
8656,Mayfair Assisted Living,"6930 East Granada Street, Mesa, Az 85207",https://www.seniorly.com/assisted-living/arizona/mesa/mayfair-assisted-living-home-inc,,
8670,Mcdowell Village,"8300 East Mcdowell Road, Scottsdale, Az 85257",https://www.seniorly.com/assisted-living/arizona/scottsdale/mc-dowell-village,,
8674,Meadow Assisted Living Care,"16610 North Meadow Park Drive, Sun City, Az 85351",https://www.seniorly.com/assisted-living/arizona/sun-city/meadow-assisted-living-care,,
8682,Medisys Home Care Ii,"9457 West Bartle Drive, Casa Grande, Az 85194",https://www.seniorly.com/assisted-living/arizona/casa-grande/medisys-home-care-ii,,
8697,Mesa Elder Care,"1556 North 46Th Street, Mesa, Az 85205",https://www.seniorly.com/assisted-living/arizona/mesa/mesa-elder-care-inc,,
8705,Mimosa Springs,"8435 East Mcdowell Road, Scottsdale, Az 85257",https://www.seniorly.com/assisted-living/arizona/scottsdale/mimosa-springs,,
8711,Mirabella At Asu,"65 East University Drive, Tempe, Az 85281",https://www.seniorly.com/assisted-living/arizona/tempe/mirabella-at-asu,,207
8715,Miramonte Alh,"18120 North 53Rd Lane, Glendale, Az 85308",https://www.seniorly.com/assisted-living/arizona/glendale/miramonte-alh,,
8721,Mom And Dad Place,"3430 East Graham Street, Tucson, Az 85739",https://www.seniorly.com/assisted-living/arizona/tucson/mom-and-dad-place-llc-tucson,,
8725,Mom And Dad Solutions Assisted Living,"7412 West Wolf Street, Phoenix, Az 85033",https://www.seniorly.com/assisted-living/arizona/phoenix/mom-and-dad-solutions-assisted-living,,
8727,Moms Place Assisted Living,"19027 North 73Rd Drive, Glendale, Az 85308",https://www.seniorly.com/assisted-living/arizona/glendale/mom-s-place-assisted-living-home-llc,,
8731,Monte Cristo 1 Alh,"15861 North 20Th Street, Phoenix, Az 85022",https://www.seniorly.com/assisted-living/arizona/phoenix/monte-cristo-1-alh,,
8735,Montebello Assisted Living 4,"2038 East Maplewood Street, Gilbert, Az 85297",https://www.seniorly.com/assisted-living/arizona/gilbert/montebello-assisted-living-4,,
8739,Monterey Care Home,"10739 East Monterey Avenue, Mesa, Az 85209",https://www.seniorly.com/assisted-living/arizona/mesa/monterey-care-home,,
8740,Moon Valley Assisted Living Ii,"14201 North Coral Gables Drive, Phoenix, Az 85023",https://www.seniorly.com/assisted-living/arizona/phoenix/moon-valley-assisted-living-ii-llc,,
8746,Morning Glory Adult Care Home 1,"6725 North Amahl Drive, Tucson, Az 85704",https://www.seniorly.com/assisted-living/arizona/tucson/morning-glory-adult-care-home-1,,
8751,Morningstar At Arrowhead,"21432 North 75Th Avenue, Glendale, Az 85308",https://www.seniorly.com/assisted-living/arizona/glendale/morning-star-at-arrowhead,,
8753,Morningstar At Golden Ridge,"6735 West Golden Lane, Peoria, Az 85345",https://www.seniorly.com/assisted-living/arizona/peoria/morningstar-at-golden-ridge,,
8765,Mount Zion Assisted Living,"7019 West Cambridge Avenue, Phoenix, Az 85035",https://www.seniorly.com/assisted-living/arizona/phoenix/mount-zion-assisted-living-home-llc,,
8776,Mountain View Adult Care Home,"2651 East Cinnabar Avenue, Phoenix, Az 85028",https://www.seniorly.com/assisted-living/arizona/phoenix/mountain-view-adult-care-home,,
8787,Mountain View Retirement Village,"7900 North La Canada Drive, Tucson, Az 85704",https://www.seniorly.com/assisted-living/arizona/tucson/mountain-view-retirement-village,,
8789,Mountain Vista Manor,"1246 North 86Th Place, Mesa, Az 85207",https://www.seniorly.com/assisted-living/arizona/mesa/mountain-vista-manor-corp,,
8791,Mulberry Assisted Living,"10611 East Monterey Avenue, Mesa, Az 85209",https://www.seniorly.com/assisted-living/arizona/mesa/mulberry-assisted-living,,
8806,New Beginnings In Phoenix,"16948 West Magnolia Street, Goodyear, Az 85338",https://www.seniorly.com/assisted-living/arizona/goodyear/new-beginnings-in-phoenix,,
8808,New Horizon Assisted Living,"2596 East Remington Place, Chandler, Az 85286",https://www.seniorly.com/assisted-living/arizona/chandler/new-horizon-assisted-living,,
8814,New You 1,"26009 North Horseshoe Trail, Scottsdale, Az 85255",https://www.seniorly.com/assisted-living/arizona/scottsdale/new-you-1,,
8824,Norterra Assisted Living,"2019 West Duane Lane, Phoenix, Az 85085",https://www.seniorly.com/assisted-living/arizona/phoenix/norterra-assisted-living,,
8832,North Haven Assisted Living,"3943 East Lupine Avenue, Phoenix, Az 85028",https://www.seniorly.com/assisted-living/arizona/phoenix/north-haven-assisted-living-home,,
8834,North Ranch Assisted Living,"6121 East Beverly Lane, Scottsdale, Az 85254",https://www.seniorly.com/assisted-living/arizona/scottsdale/north-ranch-assisted-living-home-llc,,
8838,North Scottsdale Gardens Assisted Living,"10250 East Becker Lane, Scottsdale, Az 85260",https://www.seniorly.com/assisted-living/arizona/scottsdale/north-scottsdale-gardens-assisted-living-home,,
8846,North Star Care Home,"26723 North 19Th Drive, Phoenix, Az 85085",https://www.seniorly.com/assisted-living/arizona/phoenix/north-star-care-home,,
8850,North Valley Care Home,"15821 North 20Th Street, Phoenix, Az 85022",https://www.seniorly.com/assisted-living/arizona/phoenix/north-valley-care-home,,
8852,North Valley Quality Care,"4016 East Rockwood Drive, Phoenix, Az 85050",https://www.seniorly.com/assisted-living/arizona/phoenix/north-valley-quality-care-llc,,
8854,North Valley Senior Living,"16239 North 33Rd Avenue, Phoenix, Az 85053",https://www.seniorly.com/assisted-living/arizona/phoenix/north-valley-senior-living,,
8862,Nunnenkamp Center Friendship Village Tempe,"2635 East Southern Avenue, Tempe, Az 85282",https://www.seniorly.com/assisted-living/arizona/tempe/nunnenkamp-center-friendship-village-tempe,,
8895,Olive Grove Assisted Living Memory Care,"3014 East Indian School Road, Phoenix, Az 85016",https://www.seniorly.com/assisted-living/arizona/phoenix/olive-grove-retirement-community,,
8897,Olive Park Assisted Living,"10161 West Lawrence Lane, Peoria, Az 85345",https://www.seniorly.com/assisted-living/arizona/peoria/olive-park-assisted-living,,
8909,Orchard Pointe At Arrowhead,"17200 North 67Th Avenue, Glendale, Az 85308",https://www.seniorly.com/assisted-living/arizona/glendale/orchard-pointe-at-arrowhead,,
8917,Orchid Park Care Home,"8628 North 7Th Avenue, Phoenix, Az 85021",https://www.seniorly.com/assisted-living/arizona/phoenix/orchid-park-care-home,,
8942,Page Springs Living,"11425 East Harmony Lane, Cornville, Az 86325",https://www.seniorly.com/assisted-living/arizona/cornville/page-springs-living-cornville,,
8950,Palm Valley Assisted Living,"13755 West Cambridge Avenue, Goodyear, Az 85395",https://www.seniorly.com/assisted-living/arizona/goodyear/palm-valley-assisted-living-goodyear,,
8988,Paradise Valley Senior Retreat,"4801 East Beryl Avenue, Paradise Valley, Az 85253",https://www.seniorly.com/assisted-living/arizona/paradise-valley/paradise-valley-senior-retreat,,
8990,Paradise West Assisted Senior Living,"7482 West Port Au Prince Lane, Peoria, Az 85381",https://www.seniorly.com/assisted-living/arizona/peoria/paradise-west-assisted-senior-living,,
9062,Parkers Adult Care,"5201 East 3Rd Street, Tucson, Az 85711",https://www.seniorly.com/assisted-living/arizona/tucson/parker-s-adult-care-llc,,
9074,Parkwood Adult Care Home,"4519 West Corrine Drive, Glendale, Az 85304",https://www.seniorly.com/assisted-living/arizona/glendale/parkwood-adult-care-home,,
9080,Paseo Village,"10420 North 89Th Avenue, Peoria, Az 85345",https://www.seniorly.com/assisted-living/arizona/peoria/paseo-village,,
9086,Peaceful Feeling Group Home,"2530 West Olla Circle, Mesa, Az 85202",https://www.seniorly.com/assisted-living/arizona/mesa/peaceful-feeling-group-home,,
9092,Peak Care Assisted Living Phoenix Life Home,"5930 North Central Avenue, Phoenix, Az 85012",https://www.seniorly.com/assisted-living/arizona/phoenix/peak-care-assisted-living-phoenix-life-home,,
9109,Pennington Gardens,"977 South Pennington Drive, Chandler, Az 85224",https://www.seniorly.com/assisted-living/arizona/chandler/pennington-gardens,,
9111,Penzi Care Home,"43448 West Wild Horse Trail, Maricopa, Az 85138",https://www.seniorly.com/assisted-living/arizona/maricopa/penzi-care-home,,
9113,Peoria Adult Care Home,"9012 West Sandra Terrace, Peoria, Az 85382",https://www.seniorly.com/assisted-living/arizona/peoria/peoria-adult-care-home,,
9115,Peoria Vista,"10430 West Royal Palm Road, Peoria, Az 85345",https://www.seniorly.com/assisted-living/arizona/peoria/peoria-vista,,
9125,Petrisor Assisted Living,"11121 East Dragoon Avenue, Mesa, Az 85208",https://www.seniorly.com/assisted-living/arizona/mesa/petrisor-assisted-living,,
9144,Pleasant Valley Care Home,"2955 Pleasant Valley Drive, Prescott, Az 86305",https://www.seniorly.com/assisted-living/arizona/prescott/pleasant-valley-care-home,,
9146,Pleasant Ville Assisted Living,"1465 North Robin Lane, Mesa, Az 85213",https://www.seniorly.com/assisted-living/arizona/mesa/pleasant-ville-assisted-living-home,,
9148,Portobello Assisted Living,"8435 East Portobello Avenue, Mesa, Az 85212",https://www.seniorly.com/assisted-living/arizona/mesa/portobello-assisted-living-home,,
9154,Precious Loving Home Care,"12323 North 72Nd Avenue, Peoria, Az 85381",https://www.seniorly.com/assisted-living/arizona/peoria/precious-loving-home-care-peoria,,
9160,Premier Assisted Living,"1544 West Las Palmaritas Drive, Phoenix, Az 85021",https://www.seniorly.com/assisted-living/arizona/phoenix/premier-assisted-living-llc,,
9174,Prestige Assisted Living At Green Valley,"1175 South Abrego Drive, Green Valley, Az 85614",https://www.seniorly.com/assisted-living/arizona/green-valley/prestige-assisted-living-at-green-valley,,
9184,Primavera Assisted Living,"13644 North 33Rd Avenue, Phoenix, Az 85029",https://www.seniorly.com/assisted-living/arizona/phoenix/primavera-assisted-living,,
9192,Pronghorn Assisted Living,"8554 North Ridge Rider Trail, Prescott Valley, Az 86315",https://www.seniorly.com/assisted-living/arizona/prescott-valley/pronghorn-assisted-living,,
9193,Provencio Hope Assisted Living,"6072 East 28Th Street, Tucson, Az 85711",https://www.seniorly.com/assisted-living/arizona/tucson/provencio-hope-assisted-living-llc,,
9200,Pueblo Norte Senior Living,"7090 East Mescal Street, Scottsdale, Az 85254",https://www.seniorly.com/assisted-living/arizona/scottsdale/pueblo-norte-senior-living-community,,
9203,Pura Vida Assisted Living,"3250 West Sumter Drive, Tucson, Az 85742",https://www.seniorly.com/assisted-living/arizona/tucson/pura-vida-assisted-living,,
9209,Quail Manor Assisted Living,"13820 North 65Th Avenue, Glendale, Az 85306",https://www.seniorly.com/assisted-living/arizona/glendale/quail-manor-assisted-living-llc,,
9244,Red Mountain Reflections Assisted Living,"2232 North 77Th Place, Mesa, Az 85207",https://www.seniorly.com/assisted-living/arizona/mesa/red-mountain-reflections-assisted-living-inc,,
9252,Regency Adult Home Care,"901 West Port Royale Lane, Phoenix, Az 85023",https://www.seniorly.com/assisted-living/arizona/phoenix/regency-adult-home-care-llc,,
9254,Rejoice Assisted Living 2,"6035 North 79Th Drive, Glendale, Az 85303",https://www.seniorly.com/assisted-living/arizona/glendale/rejoice-assisted-living-home-2,,
9272,Rhodas Assisted Living,"12002 West Sheridan Street, Avondale, Az 85392",https://www.seniorly.com/assisted-living/arizona/avondale/rhoda-s-assisted-living-home,,
9274,Rialto House Assisted Living,"1910 South Rialto, Mesa, Az 85209",https://www.seniorly.com/assisted-living/arizona/mesa/rialto-house-assisted-living,,
9278,Ridgecrest I,"685 West Roller Coaster Road, Tucson, Az 85704",https://www.seniorly.com/assisted-living/arizona/tucson/ridgecrest-i,,
9287,Rivendell Care Home,"1901 West Joan De Arc Avenue, Phoenix, Az 85029",https://www.seniorly.com/assisted-living/arizona/phoenix/rivendell-care-home,,
9289,River Of Love Adult Care Home,"4358 East Danbury Road, Phoenix, Az 85032",https://www.seniorly.com/assisted-living/arizona/phoenix/river-of-love-adult-care-home,,
9295,Riviergreen Assisted Living,"2519 East Riviera Drive, Tempe, Az 85282",https://www.seniorly.com/assisted-living/arizona/tempe/riviergreen-assisted-living-home,,
9297,Robson Reserve At Pebblecreek,"15833 West Clubhouse Drive, Goodyear, Az 85395",https://www.seniorly.com/assisted-living/arizona/goodyear/robson-reserve-at-pebblecreek,,
9299,Robson Reserve At Sun Lakes,"9504 East Riggs Road, Sun Lakes, Az 85248",https://www.seniorly.com/assisted-living/arizona/sun-lakes/renaissance-luxury-retirement-living,,
9303,Rodys Adult Care Home,"3807 East Betty Elyse Lane, Phoenix, Az 85032",https://www.seniorly.com/assisted-living/arizona/phoenix/rody-s-adult-care-home,,
9305,Ronald Home Care,"1910 East Ronald Road, Phoenix, Az 85022",https://www.seniorly.com/assisted-living/arizona/phoenix/ronald-home-care,,
9311,Rosarian Assisted Living,"6309 West Mescal Street, Glendale, Az 85304",https://www.seniorly.com/assisted-living/arizona/glendale/rosarian-assisted-living,,
9338,Royal Paradise Care,"15257 North 135Th Drive, Surprise, Az 85379",https://www.seniorly.com/assisted-living/arizona/surprise/royal-paradise-care-llc,,
9345,Rutledge Ranch Retreat,"1575 West Slick Horn Alley, Paulden, Az 86334",https://www.seniorly.com/assisted-living/arizona/paulden/rutledge-ranch-retreat-llc,,
9371,Saguaro Ranch Luxury Assisted Living,"12301 North Camino Del Plata, Tucson, Az 85755",https://www.seniorly.com/assisted-living/arizona/tucson/saguaro-ranch-luxury-assisted-living-llc,,
9377,Sakutas Young At Heart Assisted Living,"6521 North Silverbell Road, Tucson, Az 85743",https://www.seniorly.com/assisted-living/arizona/tucson/sakuta-s-young-at-heart-assisted-living-home,,
9385,San Nicolas Assisted Living Nw,"1362 West San Nicolas Drive, Tucson, Az 85704",https://www.seniorly.com/assisted-living/arizona/tucson/san-nicolas-assisted-living-home-nw-inc,,
9387,San Nicolas Ii,"6767 North Leonardo Da Vinci Way, Tucson, Az 85704",https://www.seniorly.com/assisted-living/arizona/tucson/san-nicolas-ii,,
9397,Sapphire Elite Care Home,"4350 East Mountain Vista Drive, Phoenix, Az 85048",https://www.seniorly.com/assisted-living/arizona/phoenix/sapphire-elite-care-home-llc,,
9402,Sarahs Place At Glencroft,"6670 West Butler Drive, Glendale, Az 85302",https://www.seniorly.com/assisted-living/arizona/glendale/sarah-s-place-at-glencroft,,
9408,Scottsdale Foothills Assisted Living,"10474 East Corrine Drive, Scottsdale, Az 85259",https://www.seniorly.com/assisted-living/arizona/scottsdale/scottsdale-foothills-assisted-living,,
9417,Scottsdale Village Square,"2620 North 68Th Street, Scottsdale, Az 85257",https://www.seniorly.com/assisted-living/arizona/scottsdale/scottsdale-village-square-a-pacifica-senior-living-community,,
9428,Sedona Winds,"475 Jacks Canyon Road, Sedona, Az 86351",https://www.seniorly.com/assisted-living/arizona/sedona/sedona-winds,,
9433,Senior Care Assisted Living,"5901 East Juarez Street, Tucson, Az 85711",https://www.seniorly.com/assisted-living/arizona/tucson/senior-care-assisted-living-tucson,,
9439,Senior Living At Superstition Mountains,"5465 North Winchester Road, Apache Junction, Az 85119",https://www.seniorly.com/assisted-living/arizona/apache-junction/senior-living-at-superstition-mountains,,
9443,Senior Sanctuary Of Anthem,"2213 West Keller Court, Anthem, Az 85086",https://www.seniorly.com/assisted-living/arizona/anthem/senior-sanctuary-of-anthem,,
9445,Senior Serenity Assisted Living,"3123 West Sequoia Way, Phoenix, Az 85053",https://www.seniorly.com/assisted-living/arizona/phoenix/senior-serenity-assisted-living,,
9455,Serenade Assisted Living,"25403 South 154Th Street, Gilbert, Az 85298",https://www.seniorly.com/assisted-living/arizona/gilbert/serenade-assisted-living-llc,,
9457,Serendipity In The Sun,"6501 East Corrine Drive, Scottsdale, Az 85254",https://www.seniorly.com/assisted-living/arizona/scottsdale/serendipity-in-the-sun,,
9465,Serenity Assisted Living At Lakewood,"3540 East Brookwood Court, Phoenix, Az 85048",https://www.seniorly.com/assisted-living/arizona/phoenix/serenity-assisted-living-at-lakewood,,
9469,Serenity Of North Scottsdale,"29750 North 77Th Place, Scottsdale, Az 85266",https://www.seniorly.com/assisted-living/arizona/scottsdale/serenity-of-north-scottsdale,,
9485,Shady Pines Care Home,"3178 East Vaughn Avenue, Gilbert, Az 85234",https://www.seniorly.com/assisted-living/arizona/gilbert/shady-pines-care-home,,
9495,Shepherd Manor,"1651 North 58Th Street, Mesa, Az 85205",https://www.seniorly.com/assisted-living/arizona/mesa/shepherd-manor,,
9497,Sheridan Garden Assisted Living,"7419 North 82Nd Lane, Glendale, Az 85303",https://www.seniorly.com/assisted-living/arizona/glendale/sheridan-garden-assisted-living,,
9507,Sherwood Heights Adult Living,"5813 East Lewis Avenue, Scottsdale, Az 85257",https://www.seniorly.com/assisted-living/arizona/scottsdale/sherwood-heights-adult-living,,
9515,Sierra Adult Care,"4933 South Cassia Way, Tucson, Az 85706",https://www.seniorly.com/assisted-living/arizona/tucson/sierra-adult-care-llc,,
9522,Silver Bells Adult Care Home,"5248 East Marconi Avenue, Scottsdale, Az 85254",https://www.seniorly.com/assisted-living/arizona/scottsdale/silver-bells-adult-care-home,,
9524,Silver Bells Ii,"5541 East Angela Drive, Scottsdale, Az 85254",https://www.seniorly.com/assisted-living/arizona/scottsdale/silver-bells-ii,,
9528,Silver Creek Assisted Living,"11524 North 86Th Avenue, Peoria, Az 85345",https://www.seniorly.com/assisted-living/arizona/peoria/silver-creek-assisted-living,,
9538,Silver Moon Assisted Living,"3690 West Arrowwood Place, Tucson, Az 85741",https://www.seniorly.com/assisted-living/arizona/tucson/silver-moon-assisted-living-home,,
9540,Silver Springs,"500 West Camino Encanto, Green Valley, Az 85614",https://www.seniorly.com/assisted-living/arizona/green-valley/silver-springs,,
9546,Simancas Assisted Living,"550 South Country Club Road, Tucson, Az 85716",https://www.seniorly.com/assisted-living/arizona/tucson/simancas-assisted-living-home,,
9552,Simply Together Alh,"8635 North Via La Serena, Paradise Valley, Az 85253",https://www.seniorly.com/assisted-living/arizona/paradise-valley/simply-together-alh,,
9556,Sky Ridge,"1445 East Willis Road, Gilbert, Az 85297",https://www.seniorly.com/assisted-living/arizona/gilbert/sky-ridge,,
9558,Sky Vista,"1248 South Crismon Road, Mesa, Az 85209",https://www.seniorly.com/assisted-living/arizona/mesa/sky-vista,,
9560,Skyline At Mina Vista Assisted Living,"5910 North Mina Vista, Tucson, Az 85718",https://www.seniorly.com/assisted-living/arizona/tucson/skyline-at-mina-vista-assisted-living,,
9568,Solterra Senior Living,"350 South Alma School Road, Chandler, Az 85224",https://www.seniorly.com/assisted-living/arizona/chandler/solterra-senior-living,,
9572,Sonoran Adult Care,"4791 South Vista Place, Chandler, Az 85248",https://www.seniorly.com/assisted-living/arizona/chandler/sonoran-adult-care-llc,,
9575,Sonoran Hills Assisted Living,"31704 North 16Th Avenue, Phoenix, Az 85085",https://www.seniorly.com/assisted-living/arizona/phoenix/sonoran-hills-assisted-living,,
9576,Sonoran Senior Care,"23512 North 102Nd Avenue, Peoria, Az 85383",https://www.seniorly.com/assisted-living/arizona/peoria/sonoran-senior-care,,
9589,Southwest Healing Gardens,"13406 East Boston Street, Chandler, Az 85225",https://www.seniorly.com/assisted-living/arizona/chandler/southwest-healing-gardens,,
9593,Spring Assisted Living,"10535 East Corbin Avenue, Mesa, Az 85212",https://www.seniorly.com/assisted-living/arizona/mesa/spring-assisted-living,,
9603,Spring Valley,"5941 West Audrey Lane, Glendale, Az 85308",https://www.seniorly.com/assisted-living/arizona/glendale/spring-valley,,
9615,St Therese Care Home 2,"809 East Cherrywood Place, Chandler, Az 85249",https://www.seniorly.com/assisted-living/arizona/chandler/st-therese-care-home-2,,
9619,St Charles Place,"6818 South 16Th Place, Phoenix, Az 85042",https://www.seniorly.com/assisted-living/arizona/phoenix/st-charles-place,,
9621,St Lukes Home,"615 East Adams Street, Tucson, Az 85705",https://www.seniorly.com/assisted-living/arizona/tucson/st-luke-s-home,,
9623,St Michaels Manor,"8449 West Shaw Butte Drive, Peoria, Az 85345",https://www.seniorly.com/assisted-living/arizona/peoria/st-michael-s-manor,,
9677,Sues Place,"13230 North 7Th Drive, Phoenix, Az 85029",https://www.seniorly.com/assisted-living/arizona/phoenix/sue-s-place-llc,,
9681,Summer Blossoms Assisted Living,"7357 East Olla Avenue, Mesa, Az 85212",https://www.seniorly.com/assisted-living/arizona/mesa/summer-blossoms-assisted-living,,
9698,Sun Garden Care Home,"7168 West Lone Cactus Drive, Glendale, Az 85308",https://www.seniorly.com/assisted-living/arizona/glendale/sun-garden-care-home,,
9702,Sun Health Assisted Living At The Colonnade,"14900 West Goldwater Ridge Drive, Surprise, Az 85374",https://www.seniorly.com/assisted-living/arizona/surprise/sun-health-assisted-living-at-the-colonnade,,
9711,Sun Valley Heights Assisted Living,"17244 North 57Th Street, Scottsdale, Az 85254",https://www.seniorly.com/assisted-living/arizona/scottsdale/sun-valley-heights-assisted-living,,
9713,Sun Valley Manor Assisted Living,"17245 North 56Th Way, Scottsdale, Az 85254",https://www.seniorly.com/assisted-living/arizona/scottsdale/sun-valley-manor-assisted-living-home,,
9747,Sunrise At River Road,"4975 North 1St Avenue, Tucson, Az 85718",https://www.seniorly.com/assisted-living/arizona/tucson/sunrise-at-river-road,,
9751,Sunrise Care Homes Sunnyvale,"7139 East Sunnyvale Road, Paradise Valley, Az 85253",https://www.seniorly.com/assisted-living/arizona/paradise-valley/sunrise-care-homes-sunnyvale,,
9760,Sunrise Of Chandler,"5757 West Chandler Boulevard, Chandler, Az 85226",https://www.seniorly.com/assisted-living/arizona/chandler/sunrise-of-chandler,,
9762,Sunrise Of Gilbert,"580 South Gilbert Road, Gilbert, Az 85296",https://www.seniorly.com/assisted-living/arizona/gilbert/sunrise-of-gilbert,,
9764,Sunrise Of Scottsdale,"7370 East Gold Dust Avenue, Scottsdale, Az 85258",https://www.seniorly.com/assisted-living/arizona/scottsdale/sunrise-of-scottsdale,,
9778,Sunshine Assisted Living,"21984 East Domingo Road, Queen Creek, Az 85142",https://www.seniorly.com/assisted-living/arizona/queen-creek/sunshine-assisted-living-queen-creek,,
9791,Supreme Adult Care Home,"3629 East Thames Circle, San Tan Valley, Az 85140",https://www.seniorly.com/assisted-living/arizona/san-tan-valley/supreme-adult-care-home,,
9815,Tatum Glen Assisted Living,"3720 East Utopia Road, Phoenix, Az 85050",https://www.seniorly.com/assisted-living/arizona/phoenix/tatum-glen-assisted-living-home,,
9817,Tbi Assisted Living,"2721 West Rovey Avenue, Phoenix, Az 85017",https://www.seniorly.com/assisted-living/arizona/phoenix/tbi-assisted-living,,
9819,Tbi Care,"6617 West Madre Del Oro Drive, Phoenix, Az 85083",https://www.seniorly.com/assisted-living/arizona/phoenix/tbi-care,,
9823,Tbi Care,"908 East Reliant Street, Gilbert, Az 85298",https://www.seniorly.com/assisted-living/arizona/gilbert/tbi-care-inc-gilbert,,
9829,Tender Care Ii,"751 North Crest Drive, Tucson, Az 85716",https://www.seniorly.com/assisted-living/arizona/tucson/tender-care-ii-tucson,,
9835,Terravella Assisted Living Care,"20930 East Reins Road, Queen Creek, Az 85142",https://www.seniorly.com/assisted-living/arizona/queen-creek/terravella-assisted-living-care,,
9842,The Bluffs Of Flagstaff,"3100 East Butler Avenue, Flagstaff, Az 86004",https://www.seniorly.com/assisted-living/arizona/flagstaff/the-bluffs-of-flagstaff,,
9847,The Country Club Of La Cholla,"8700 North La Cholla Boulevard, Tucson, Az 85742",https://www.seniorly.com/assisted-living/arizona/tucson/the-country-club-of-la-cholla,,
9861,The Forum At Desert Harbor,"13840 North Desert Harbor Drive, Peoria, Az 85381",https://www.seniorly.com/assisted-living/arizona/peoria/the-forum-at-desert-harbor,,
9863,The Forum At Tucson,"2500 North Rosemont Boulevard, Tucson, Az 85712",https://www.seniorly.com/assisted-living/arizona/tucson/the-forum-at-tucson,,
9867,The Gardens At Blenman Elm,"1615 North Norton Avenue, Tucson, Az 85719",https://www.seniorly.com/assisted-living/arizona/tucson/the-gardens-at-blenman-elm,,
9869,The Gardens At Kingman,"1031 Detroit Avenue, Kingman, Az 86401",https://www.seniorly.com/assisted-living/arizona/kingman/the-gardens-at-kingman,,
9870,The Gardens Of Scottsdale,"6001 East Thomas Road, Scottsdale, Az 85251",https://www.seniorly.com/assisted-living/arizona/scottsdale/the-gardens-of-scottsdale,,
9877,The Greenway Manor Ii,"6144 East Anderson Drive, Scottsdale, Az 85254",https://www.seniorly.com/assisted-living/arizona/scottsdale/the-greenway-manor-ii,,
9904,The Landings Of Prescott Valley,"3500 North Windsong Drive, Prescott Valley, Az 86314",https://www.seniorly.com/assisted-living/arizona/prescott-valley/the-landings-of-prescott-valley,,
9906,The Lodge At 14Th Street,"2941 North 14Th Street, Phoenix, Az 85014",https://www.seniorly.com/assisted-living/arizona/phoenix/the-lodge-at-14th-street,,
9912,The Mission At Agua Fria,"8880 North 107Th Avenue, Peoria, Az 85345",https://www.seniorly.com/assisted-living/arizona/peoria/the-mission-at-agua-fria,,
9914,The Montecito Senior Living,"17271 North 87Th Avenue, Peoria, Az 85382",https://www.seniorly.com/assisted-living/arizona/peoria/the-montecito-senior-living,,
9920,The Oaks,"3675 South Rome Street, Gilbert, Az 85297",https://www.seniorly.com/assisted-living/arizona/gilbert/the-oaks-gilbert,,
9922,The Oasis At Fellowship Square Surprise,"16640 North Sarival Avenue, Surprise, Az 85388",https://www.seniorly.com/assisted-living/arizona/surprise/the-oasis-at-fellowship-square-surprise,,
9940,The Pines,"6005 East Abineau Canyon Drive, Flagstaff, Az 86004",https://www.seniorly.com/assisted-living/arizona/flagstaff/pines-the-flagstaff,,
9943,The Ranch Estates At Scottsdale,"9160 East Desert Cove Avenue, Scottsdale, Az 85260",https://www.seniorly.com/assisted-living/arizona/scottsdale/the-manor-village-at-scottsdale,,
9945,The Ranch Estates Of Tucson,"2365 West Orange Grove Road, Tucson, Az 85741",https://www.seniorly.com/assisted-living/arizona/tucson/the-ranch-estates-of-tucson,,
9956,The Springs Of Scottsdale,"3212 North Miller Road, Scottsdale, Az 85251",https://www.seniorly.com/assisted-living/arizona/scottsdale/the-springs-of-scottsdale,,
9958,The Summit At Sunland Springs,"2415 South Signal Butte Road, Mesa, Az 85209",https://www.seniorly.com/assisted-living/arizona/mesa/the-summit-at-sunland-springs,,
9966,The Villa At Tuckey Lane,"906 East Tuckey Lane, Phoenix, Az 85014",https://www.seniorly.com/assisted-living/arizona/phoenix/the-villa-at-tuckey-lane,,
9970,The Villa Rosa,"1001 West Calle San Jose, Sahuarita, Az 85629",https://www.seniorly.com/assisted-living/arizona/sahuarita/the-villa-rosa,,
9972,The Village At Ocotillo,"990 West Ocotillo Road, Chandler, Az 85248",https://www.seniorly.com/assisted-living/arizona/chandler/village-at-ocotillo-the,,
9992,The Vital Signs Health,"661 West 10Th Street, Mesa, Az 85201",https://www.seniorly.com/assisted-living/arizona/mesa/the-vital-signs-health,,
9994,The Watermark At Morrison Ranch,"3333 East Morrison Ranch Parkway, Gilbert, Az 85296",https://www.seniorly.com/assisted-living/arizona/gilbert/the-watermark-at-morrison-ranch,,
10000,The Woodmark At Sun City,"17207 North Boswell Boulevard, Sun City, Az 85373",https://www.seniorly.com/assisted-living/arizona/sun-city/the-woodmark-at-sun-city,,
10011,Thunderbird Quality Home Care,"5503 West Joan De Arc Avenue, Glendale, Az 85304",https://www.seniorly.com/assisted-living/arizona/glendale/thunderbird-quality-home-care,,
10013,Thunderbird Senior Living,"5401 West Dailey Street, Glendale, Az 85306",https://www.seniorly.com/assisted-living/arizona/glendale/thunderbird-senior-living,,
10028,Tramonto Desert Rose Assisted Living,"2405 West Florentine Road, Phoenix, Az 85086",https://www.seniorly.com/assisted-living/arizona/phoenix/tramonto-desert-rose-assisted-living,,
10032,Tranquility Assisted Living,"4526 North 82Nd Street, Scottsdale, Az 85251",https://www.seniorly.com/assisted-living/arizona/scottsdale/tranquility-assisted-living-home,,
10042,Trustwell Living At Kingswood Place,"15155 West Mondell Road, Surprise, Az 85374",https://www.seniorly.com/assisted-living/arizona/surprise/kingswood-place,,
10043,Truval Assisted Living,"4445 North Pontatoc Road, Tucson, Az 85718",https://www.seniorly.com/assisted-living/arizona/tucson/truval-assisted-living-home,,
10058,Twilight Haven Mesa,"10664 East Hawk Avenue, Mesa, Az 85212",https://www.seniorly.com/assisted-living/arizona/mesa/twilight-haven-mesa,,
10060,Upon The Rock Assisted Living,"32100 North Scottsdale Road, Scottsdale, Az 85266",https://www.seniorly.com/assisted-living/arizona/scottsdale/upon-the-rock-assisted-living,,
10074,Valley Care Management,"59 North Quartz Street, Gilbert, Az 85234",https://www.seniorly.com/assisted-living/arizona/gilbert/valley-care-management-corporation,,
10093,Verde Valley Assisted Living,"195 South Willard Street, Cottonwood, Az 86326",https://www.seniorly.com/assisted-living/arizona/cottonwood/verde-valley-assisted-living,,
10102,Via Elegante Galleria,"5643 North Via Latigo, Tucson, Az 85704",https://www.seniorly.com/assisted-living/arizona/tucson/via-elegante-galleria,,
10103,Via Elegante Mediterranean,"5644 North Via Latigo, Tucson, Az 85704",https://www.seniorly.com/assisted-living/arizona/tucson/via-elegante-mediterranean,,
10106,Via Elegante Sierra Vista Highlands,"4255 Calle Vista, Sierra Vista, Az 85635",https://www.seniorly.com/assisted-living/arizona/sierra-vista/via-elegante-sierra-vista-highlands,,
10108,Via Elegante Tucson Mountains,"2797 North Cerrada De Beto, Tucson, Az 85745",https://www.seniorly.com/assisted-living/arizona/tucson/via-elegante-tucson-mountains,,
10109,Via Elegante Vineyard,"5651 North Via Latigo, Tucson, Az 85704",https://www.seniorly.com/assisted-living/arizona/tucson/via-elegante-vineyard,,
10112,Vickys Loving Home,"3433 West Malapai Drive, Phoenix, Az 85051",https://www.seniorly.com/assisted-living/arizona/phoenix/vicky-s-loving-home,,
10116,Vienna Care Home,"13408 North 52Nd Avenue, Glendale, Az 85304",https://www.seniorly.com/assisted-living/arizona/glendale/vienna-care-home-llc,,
10120,Vikis Assisted Living,"3027 East Topeka Drive, Phoenix, Az 85050",https://www.seniorly.com/assisted-living/arizona/phoenix/viki-s-assisted-living-home,,
10122,Villa De Hope,"920 West Ina Road, Tucson, Az 85704",https://www.seniorly.com/assisted-living/arizona/tucson/villa-de-hope,,
10126,Villa Hermosa,"6300 East Speedway Boulevard, Tucson, Az 85710",https://www.seniorly.com/assisted-living/arizona/tucson/villa-hermosa,,
10137,Villa Tampico,"601 South Tampico Avenue, Tucson, Az 85711",https://www.seniorly.com/assisted-living/arizona/tucson/villa-tampico,,
10143,Vineyard Park Of Surprise,"16650 North Stadium Way, Surprise, Az 85374",https://www.seniorly.com/assisted-living/arizona/surprise/vineyard-park-of-surprise,,
10166,Vista Ranch,"1735 North Val Vista Drive, Mesa, Az 85213",https://www.seniorly.com/assisted-living/arizona/mesa/vista-ranch,,
10200,West Valley Helping Hands,"15021 North 91St Lane, Peoria, Az 85381",https://www.seniorly.com/assisted-living/arizona/peoria/west-valley-helping-hands-llc,,
10212,White Cliffs Senior Living,"3600 Peterson Road, Kingman, Az 86409",https://www.seniorly.com/assisted-living/arizona/kingman/white-cliffs-senior-living,,
10222,White Violet Adult Care Home Ii,"3711 West Cholla Street, Phoenix, Az 85029",https://www.seniorly.com/assisted-living/arizona/phoenix/white-violet-adult-care-home-ii,,
10226,Willow Canyon,"440 North Evergreen Street, Chandler, Az 85225",https://www.seniorly.com/assisted-living/arizona/chandler/willow-canyon,,
10243,Winston Park,"660 West Mclellan Road, Mesa, Az 85201",https://www.seniorly.com/assisted-living/arizona/mesa/winston-park-llc,,
10249,Woodridge Assisted Living,"6020 East Woodridge Drive, Scottsdale, Az 85254",https://www.seniorly.com/assisted-living/arizona/scottsdale/woodridge-assisted-living,,
10255,Yashuas Cedar,"437 West Merrill Avenue, Gilbert, Az 85233",https://www.seniorly.com/assisted-living/arizona/gilbert/yashua-s-cedar,,
10275,Merrill Gardens At Anthem,"2800 West Rose Canyon Circle, Anthem, Az 85086",https://www.seniorly.com/assisted-living/arizona/anthem/merrill-gardens-at-anthem,,
10276,The Enclave At Anthem Senior Living,"42015 North Venture Drive, Phoenix, Az 85086",https://www.seniorly.com/assisted-living/arizona/phoenix/the-enclave-at-anthem-senior-living,,
10277,Anthem Senior Living,"40401 North Copper Basin Trail, Phoenix, Az 85086",https://www.seniorly.com/assisted-living/arizona/phoenix/anthem-senior-living,,
10278,Desert Vista Assisted Living,"1809 West Bramble Berry Lane, Phoenix, Az 85085",https://www.seniorly.com/assisted-living/arizona/phoenix/desert-vista-assisted-living,,
10279,Desert Hills Adult Care Home,"38414 North 12Th Street, Phoenix, Az 85086",https://www.seniorly.com/assisted-living/arizona/phoenix/desert-hills-adult-care-home,,
10280,A Vip Assisted Living Care,"41309 North Yorktown Trl, Phoenix, Az 85086",https://www.seniorly.com/assisted-living/arizona/phoenix/a-vip-assisted-living-home-care,,
10281,Daninas Care Home,"2406 West Sienna Bouquet Place, Phoenix, Az 85085",https://www.seniorly.com/assisted-living/arizona/phoenix/danina-s-care-home-l-l-c,,
10282,A Distinguished Touch Adult Care,"6758 West Blackstone Lane, Peoria, Az 85383",https://www.seniorly.com/assisted-living/arizona/peoria/a-distinguished-touch-adult-care-llc,,
10283,American Ridge Senior Living,"Carefree Highway And 44Th Street Alignment, Phoenix, Az 85085",https://www.seniorly.com/assisted-living/arizona/phoenix/american-ridge-senior-living,,
10284,Oasis Group Home,"2206 West Spur Drive, Phoenix, Az 85085",https://www.seniorly.com/assisted-living/arizona/phoenix/oasis-group-home,,
10285,A Touch Of Desert Class,"38718 North 29Th Avenue, Phoenix, Az 85086",https://www.seniorly.com/assisted-living/arizona/phoenix/a-touch-of-desert-class,,
10288,Anthem Senior Retreat,"38704 North National Trail, Phoenix, Az 85086",https://www.seniorly.com/assisted-living/arizona/phoenix/anthem-senior-retreat,,
10290,Mountain Ranch Home Care,"29606 North 21St Drive, Phoenix, Az 85085",https://www.seniorly.com/assisted-living/arizona/phoenix/mountain-ranch-home-care,,
10291,Nels Nest Assisted Living,"3655 West Dynamite Boulevard, Phoenix, Az 85083",https://www.seniorly.com/assisted-living/arizona/phoenix/nel-s-nest-assisted-living,,
10292,Patricks Care Home,"27413 North 23Rd Drive, Phoenix, Az 85085",https://www.seniorly.com/assisted-living/arizona/phoenix/patrick-s-care-home,,
10293,Helping Hands Ach,"27215 North 23Rd Lane, Phoenix, Az 85085",https://www.seniorly.com/assisted-living/arizona/phoenix/helping-hands-ach,,
10297,Summer Breeze Ii,"5924 West Hedgehog Place, Phoenix, Az 85083",https://www.seniorly.com/assisted-living/arizona/phoenix/summer-breeze-ii-assisted-living-home,,
10298,Matters Of Senior Living,"4647 West Moon Blossum Lane, Phoenix, Az 85083",https://www.seniorly.com/assisted-living/arizona/phoenix/matters-of-senior-living-inc-,,
10300,Aging Gracefully,"4105 West Villa Linda Drive, Glendale, Az 85310",https://www.seniorly.com/assisted-living/arizona/glendale/aging-gracefully,,
10305,Arbor Rose Senior Care,"6033 East Arbor Road, Mesa, Az 85206",https://www.seniorly.com/assisted-living/arizona/mesa/arbor-rose-senior-care,,
10311,Anderson Assisted Livings,"9831 East Broadway Road, Mesa, Az 85208",https://www.seniorly.com/assisted-living/arizona/mesa/anderson-assisted-living-homes-llc,,
10313,Gold Canyon Hacienda,"6480 South Alameda Drive, Apache Junction, Az 85218",https://www.seniorly.com/assisted-living/arizona/apache-junction/gold-canyon-hacienda,,
10314,Eldercare Aj,"1895 South Silver Drive, Apache Junction, Az 85120",https://www.seniorly.com/assisted-living/arizona/apache-junction/eldercare-aj,,
10316,Visions Senior Living At Apache Junction 1,"1510 East Broadway Avenue Bldg 1, Apache Junction, Az 85119",https://www.seniorly.com/assisted-living/arizona/apache-junction/visions-senior-living-at-apache-junction-1,,
10317,Igh Adult Care,"689 East Hondo Avenue, Apache Junction, Az 85219",https://www.seniorly.com/assisted-living/arizona/apache-junction/igh-adult-care,,
10318,Ironwood Assisted Living,"1226 West 13Th Avenue, Apache Junction, Az 85220",https://www.seniorly.com/assisted-living/arizona/apache-junction/ironwood-assisted-living-home,,
10319,Kopper Crest Manor On Royal Palm,"1329 South Royal Palm, Apache Junction, Az 85220",https://www.seniorly.com/assisted-living/arizona/apache-junction/kopper-crest-manor-on-royal-palm-llc,,
10325,Presidio Assisted Living,"6515 East Presidio Street, Mesa, Az 85215",https://www.seniorly.com/assisted-living/arizona/mesa/presidio-assisted-living-home,,
10326,Copper Heights Assisted Living,"152 North 56Th Street, Mesa, Az 85205",https://www.seniorly.com/assisted-living/arizona/mesa/copper-heights-assisted-living,,
10327,Baltimore St Care Home,"5402 East Baltimore Street, Mesa, Az 85205",https://www.seniorly.com/assisted-living/arizona/mesa/baltimore-st-care-home,,
10330,Arizona Community Assisted Living,"9952 East Butte Street, Mesa, Az 85207",https://www.seniorly.com/assisted-living/arizona/mesa/arizona-community-assisted-living,,
10331,Caring Hands Senior Living,"449 North 100Th Place, Mesa, Az 85207",https://www.seniorly.com/assisted-living/arizona/mesa/caring-hands-senior-living-llc,,
10333,Morning Glory Adult Care Home Ii,"3065 South Canfield Circle, Mesa, Az 85212",https://www.seniorly.com/assisted-living/arizona/mesa/morning-glory-adult-care-home-ii,,
10334,Doctors Choice Assisted Living,"9101 East Brown Road Suite 107, Mesa, Az 85207",https://www.seniorly.com/assisted-living/arizona/mesa/doctor-s-choice-assisted-living,,
10335,Janets Assisted Living,"232 South 89Th Street, Mesa, Az 85208",https://www.seniorly.com/assisted-living/arizona/mesa/janet-s-assisted-living-home,,
10339,Happy Haven Of Mesa,"7320 East Carol Avenue, Mesa, Az 85208",https://www.seniorly.com/assisted-living/arizona/mesa/happy-haven-of-mesa,,
10340,Country Estates Assisted Livings I,"2042 North 76Th Street, Mesa, Az 85207",https://www.seniorly.com/assisted-living/arizona/mesa/country-estates-assisted-living-homes-i,,
10342,Ideal Assisted Living,"2911 South Aletta, Mesa, Az 85212",https://www.seniorly.com/assisted-living/arizona/mesa/ideal-assisted-living-llc,,
10343,Divine Grace Adult Care,"6711 East Akron Street, Mesa, Az 85205",https://www.seniorly.com/assisted-living/arizona/mesa/divine-grace-adult-care,,
10344,Ideal Assisted Living Olla,"7212 East Olla Avenue, Mesa, Az 85212",https://www.seniorly.com/assisted-living/arizona/mesa/ideal-assisted-living-olla,,
10347,Crystal Cove Home Care Ii,"4492 East Laurel Avenue, Higley, Az 85236",https://www.seniorly.com/assisted-living/arizona/higley/crystal-cove-home-care-ii,,
10351,Oak Tree Manor Alh,"1104 South 53Rd Street, Mesa, Az 85206",https://www.seniorly.com/assisted-living/arizona/mesa/oak-tree-manor-alh-llc,,
10357,Rhodas Assisted Living 1,"3906 North 112Th Lane, Avondale, Az 85392",https://www.seniorly.com/assisted-living/arizona/avondale/rhodas-assisted-living-home-1,,
10359,Ocean Senior Care,"11320 West Orange Blossom Lane, Avondale, Az 85392",https://www.seniorly.com/assisted-living/arizona/avondale/ocean-senior-care,,
10360,Twilight Haven Iii,"233 South 123Rd Drive, Avondale, Az 85323",https://www.seniorly.com/assisted-living/arizona/avondale/twilight-haven-iii-llc,,
10362,Twilight Haven,"12533 West Coldwater Springs Boulevard, Avondale, Az 85323",https://www.seniorly.com/assisted-living/arizona/avondale/twilight-haven-avondale,,
10365,Amani Adult Care Home 2,"12217 West Winslow Avenue, Tolleson, Az 85353",https://www.seniorly.com/assisted-living/arizona/tolleson/amani-adult-care-home-2,,
10366,The Atienzos Loving Care Assisted Living 2,"15655 West Campbell Avenue, Goodyear, Az 85395",https://www.seniorly.com/assisted-living/arizona/goodyear/the-atienzo-s-loving-care-assisted-living-home-2,,
10368,River Of Life Assisted Living,"8415 North 171St Drive, Waddell, Az 85355",https://www.seniorly.com/assisted-living/arizona/waddell/river-of-life-assisted-living,,
10369,Hacienda Del Rey 4,"12917 West Las Cruces Drive Bldg 4, Litchfield Park, Az 85340",https://www.seniorly.com/assisted-living/arizona/litchfield-park/hacienda-del-rey-4,,
10371,Irenes Care Home,"10433 West Magnolia Street, Tolleson, Az 85353",https://www.seniorly.com/assisted-living/arizona/tolleson/irene-s-care-home,,
10372,Wonder Care,"15972 West Linden Street, Goodyear, Az 85338",https://www.seniorly.com/assisted-living/arizona/goodyear/wonder-care,,
10374,Gabriels Home Care,"10107 West Parkway Drive, Tolleson, Az 85353",https://www.seniorly.com/assisted-living/arizona/tolleson/gabriel-s-home-care-llc,,
10375,Barbara Jeans Assisted Living,"2709 South 159Th Lane, Goodyear, Az 85338",https://www.seniorly.com/assisted-living/arizona/goodyear/barbara-jean-s-assisted-living,,
10376,Harmoni Care Assisted Living,"16006 West Bartlett Avenue, Goodyear, Az 85338",https://www.seniorly.com/assisted-living/arizona/goodyear/harmoni-care-assisted-living,,
10377,Kabegas Comfort Home,"10146 West Hilton Avenue, Tolleson, Az 85353",https://www.seniorly.com/assisted-living/arizona/tolleson/kabega-s-comfort-home,,
10380,Arizona Love And Care,"15250 West Pierson Street, Goodyear, Az 85395",https://www.seniorly.com/assisted-living/arizona/goodyear/arizona-love-and-care,,
10381,Hallmark Assisted Living At Pacey,"2022 North Pacey Road, Phoenix, Az 85037",https://www.seniorly.com/assisted-living/arizona/phoenix/hallmark-assisted-living-at-pacey,,
10383,Angel Arms Young Adult Residence,"2509 North 87Th Avenue, Phoenix, Az 85037",https://www.seniorly.com/assisted-living/arizona/phoenix/angel-arms-young-adult-residence,,
10384,Spring Valley Senior Care,"4108 South 186Th Avenue, Goodyear, Az 85338",https://www.seniorly.com/assisted-living/arizona/goodyear/spring-valley-senior-care-goodyear,,
10385,Amiscare,"8118 West Watkins Street, Phoenix, Az 85043",https://www.seniorly.com/assisted-living/arizona/phoenix/amiscare,,
10386,Effective Care For Elderly Living,"8524 West Weldon Avenue, Phoenix, Az 85037",https://www.seniorly.com/assisted-living/arizona/phoenix/effective-care-for-elderly-living,,
10388,Beautiful Beginnings Assisted Living,"2819 South 73Rd Drive, Phoenix, Az 85043",https://www.seniorly.com/assisted-living/arizona/phoenix/beautiful-beginnings-assisted-living-home-llc,,
10389,Morning Glory 2,"20262 West Morning Glory Street, Buckeye, Az 85326",https://www.seniorly.com/assisted-living/arizona/buckeye/morning-glory-2,,
10390,House Right Assisted Living,"18621 West Denton Avenue, Litchfield Park, Az 85340",https://www.seniorly.com/assisted-living/arizona/litchfield-park/house-right-assisted-living-home,,
10391,Morning Glory 1,"20266 West Morning Glory Street, Buckeye, Az 85326",https://www.seniorly.com/assisted-living/arizona/buckeye/morning-glory-1,,
10392,Angel Castle Care Home,"5623 North 83Rd Avenue, Glendale, Az 85303",https://www.seniorly.com/assisted-living/arizona/glendale/angel-castle-care-home,,
10393,Care Included,"5418 North 192Nd Drive, Litchfield Park, Az 85340",https://www.seniorly.com/assisted-living/arizona/litchfield-park/care-included,,
10394,Medlock Caring Place,"7475 West Medlock Drive, Glendale, Az 85303",https://www.seniorly.com/assisted-living/arizona/glendale/medlock-caring-place,,
10395,Wide Horizon,"1024 North 62Nd Avenue, Phoenix, Az 85043",https://www.seniorly.com/assisted-living/arizona/phoenix/wide-horizon,,
10396,Su Casa Assisted Living,"1144 North 59Th Avenue, Phoenix, Az 85043",https://www.seniorly.com/assisted-living/arizona/phoenix/su-casa-assisted-living,,
10397,Westgate Assisted Living,"8613 West Carole Lane, Glendale, Az 85305",https://www.seniorly.com/assisted-living/arizona/glendale/westgate-assisted-living-glendale,,
10398,Orchid Residential Care,"9580 West Orchid Lane, Peoria, Az 85345",https://www.seniorly.com/assisted-living/arizona/peoria/orchid-residential-care,,
10399,Bloom Assisted Living,"695 South 221St Drive, Buckeye, Az 85326",https://www.seniorly.com/assisted-living/arizona/buckeye/bloom-assisted-living,,
10400,In Angel Arms,"22868 West Hopi, Buckeye, Az 85326",https://www.seniorly.com/assisted-living/arizona/buckeye/in-angel-arms-llc,,
10401,A Home For Care,"25548 West Dunlap Road, Buckeye, Az 85326",https://www.seniorly.com/assisted-living/arizona/buckeye/a-home-for-care-llc,,
10402,Gardenia Care,"23026 West Gardenia Drive, Buckeye, Az 85326",https://www.seniorly.com/assisted-living/arizona/buckeye/gardenia-care,,
10403,Davis Place,"2943 Desert Sky, Bullhead City, Az 86442",https://www.seniorly.com/assisted-living/arizona/bullhead-city/davis-place,,
10405,Silver Creek Leisure Living,"1670 Highway 95, Bullhead City, Az 86442",https://www.seniorly.com/assisted-living/arizona/bullhead-city/silver-creek-leisure-living,,
10406,A V Passages,"3464 Sundail Drive, Bullhead City, Az 86442",https://www.seniorly.com/assisted-living/arizona/bullhead-city/a-v-passages,,
10408,Mountain Home Adult Care,"298 General Crook Trail, Camp Verde, Az 86322",https://www.seniorly.com/assisted-living/arizona/camp-verde/mountain-home-adult-care-llc,,
10410,Heritage At Carefree Senior Living,"36590 North Pima Road 3481, Carefree, Az 85377",https://www.seniorly.com/assisted-living/arizona/carefree/heritage-at-carefree-senior-living,,
10412,Lifestream At Northeast Phoenix,"20802 North Cave Creek Road Building 84, Phoenix, Az 85024",https://www.seniorly.com/assisted-living/arizona/phoenix/lifestream-at-northeast-phoenix-green-house-84,,
10414,Vi At Silverstone,"23005 North 74Th Street , Scottsdale, Az 85255",https://www.seniorly.com/assisted-living/arizona/scottsdale/vi-at-silverstone-scottsdale,,
10416,Kierland Assisted Living,"16433 North 68Th Place, Scottsdale, Az 85254",https://www.seniorly.com/assisted-living/arizona/scottsdale/kierland-assisted-living-home,,
10419,Lifestream At Northeast Phoenix Green House 85,"20802 North Cave Creek Road Building 85, Phoenix, Az 85024",https://www.seniorly.com/assisted-living/arizona/phoenix/lifestream-at-northeast-phoenix-green-house-85,,
10423,Lita Caring Home Ii,"208 East Melrose Drive, Eleven Mile Corner, Az 85122",https://www.seniorly.com/assisted-living/arizona/eleven-mile-corner/lita-caring-home-ii,,
10424,Sun Valley Care Home,"1761 North Agave Street, Eleven Mile Corner, Az 85122",https://www.seniorly.com/assisted-living/arizona/eleven-mile-corner/sun-valley-care-home-llc,,
10425,Family Tree Assisted Living,"1741 North Palm Parke Boulevard, Eleven Mile Corner, Az 85122",https://www.seniorly.com/assisted-living/arizona/eleven-mile-corner/family-tree-assisted-living,,
10426,Olive Branch Assisted Living,"1121 North Olive Avenue, Eleven Mile Corner, Az 85122",https://www.seniorly.com/assisted-living/arizona/eleven-mile-corner/olive-branch-assisted-living-home,,
10427,Family Tys,"1745 North Palm Parke Boulevard, Eleven Mile Corner, Az 85122",https://www.seniorly.com/assisted-living/arizona/eleven-mile-corner/family-tys-llc,,
10428,Jaidon Manor Ii,"1177 East Bonita Place, Eleven Mile Corner, Az 85122",https://www.seniorly.com/assisted-living/arizona/eleven-mile-corner/jaidon-manor-ii,,
10440,The Abbington At Gilbert,"3239 South Mercy Road , Gilbert , Az 85295",https://www.seniorly.com/assisted-living/arizona/gilbert/the-abbington-at-gilbert,,
10441,Robson Reserve,"9508 East Riggs Road, Sun Lakes, Az 85248",https://www.seniorly.com/assisted-living/arizona/sun-lakes/robson-reserve,,
10449,White Roses Assisted Living,"951 West Saragosa Street, Chandler, Az 85225",https://www.seniorly.com/assisted-living/arizona/chandler/white-roses-assisted-living,,
10451,Casa Aplaya 4,"1091 East Kent Place, Chandler, Az 85225",https://www.seniorly.com/assisted-living/arizona/chandler/casa-aplaya-4,,
10452,Anas Haven At Elmwood,"263 West Elmwood Place, Chandler, Az 85248",https://www.seniorly.com/assisted-living/arizona/chandler/ana-s-haven-at-elmwood,,
10454,Chandler Harmony Adult Care,"2841 East Tyson Street, Chandler, Az 85225",https://www.seniorly.com/assisted-living/arizona/chandler/chandler-harmony-adult-care-llc,,
10455,Clearwater Ahwatuckee,"16025 South 50Th Street, Phoenix, Az 85048",https://www.seniorly.com/assisted-living/arizona/phoenix/clearwater-ahwatuckee,,
10460,Longmore Mc Assisted Living Facility,"704 South Longmore Street, Chandler, Az 85224",https://www.seniorly.com/assisted-living/arizona/chandler/longmore-mc-assisted-living-facility,,
10461,Mercys Care Home Ii,"1711 West Venus Way, Chandler, Az 85224",https://www.seniorly.com/assisted-living/arizona/chandler/mercy-s-care-home-ii,,
10462,Cheerful Living Home,"1342 West Park Avenue, Chandler, Az 85224",https://www.seniorly.com/assisted-living/arizona/chandler/cheerful-living-home-llc,,
10463,Anas Haven Adult Homecare,"870 South Meadows Drive, Chandler, Az 85224",https://www.seniorly.com/assisted-living/arizona/chandler/ana-s-haven-adult-homecare,,
10464,Golden Touch Assisted Living At Andersen,"1725 West San Tan Street, Chandler, Az 85224",https://www.seniorly.com/assisted-living/arizona/chandler/golden-touch-assisted-living-home-at-andersen,,
10465,Magic Touch Adult Care,"2148 East Winchester Way, Chandler, Az 85249",https://www.seniorly.com/assisted-living/arizona/chandler/magic-touch-adult-care,,
10466,Villa Jean V,"401 West Mission Drive, Chandler, Az 85225",https://www.seniorly.com/assisted-living/arizona/chandler/villa-jean-v,,
10468,Cam Assisted Living,"3351 West Ross Drive, Chandler, Az 85226",https://www.seniorly.com/assisted-living/arizona/chandler/cam-assisted-living-home-llc,,
10469,Eldercare At Santa Anna,"921 North Santa Anna Place, Chandler, Az 85224",https://www.seniorly.com/assisted-living/arizona/chandler/eldercare-at-santa-anna,,
10474,Our Lady Of Fatima Assisted Living,"2529 East Wildhorse Place, Chandler, Az 85286",https://www.seniorly.com/assisted-living/arizona/chandler/our-lady-of-fatima-assisted-living-home,,
10475,Desert Sunshine Ii,"1812 South Pennington Drive, Chandler, Az 85286",https://www.seniorly.com/assisted-living/arizona/chandler/desert-sunshine-ii-assisted-living,,
10476,Happy Family Home Care,"1450 West Mulberry Drive, Chandler, Az 85286",https://www.seniorly.com/assisted-living/arizona/chandler/happy-family-home-care,,
10486,Casa Aplaya 2,"981 North Danyell Drive, Chandler, Az 85225",https://www.seniorly.com/assisted-living/arizona/chandler/casa-aplaya-2,,
10490,Eldercare At Western Sunrise Adult Care,"2004 West Western Drive, Chandler, Az 85224",https://www.seniorly.com/assisted-living/arizona/chandler/eldercare-at-western-sunrise-adult-care,,
10497,Oasis Senior Advisors East Valley,"4960 South Gilbert Road Ste 1184, Chandler, Az 85249",https://www.seniorly.com/assisted-living/arizona/chandler/oasis-senior-advisors-east-valley,,
10500,Casa Maia,"3554 East Tonto Place, Chandler, Az 85249",https://www.seniorly.com/assisted-living/arizona/chandler/casa-maia,,
10501,Markesh Assisted Living,"985 East Virgo Place, Chandler, Az 85249",https://www.seniorly.com/assisted-living/arizona/chandler/markesh-assisted-living,,
10503,Royalty Assisted Living,"5670 South Eucalyptus Place, Chandler, Az 85249",https://www.seniorly.com/assisted-living/arizona/chandler/royalty-assisted-living-chandler,,
10504,Light House Manor,"5980 West Orchid Lane, Chandler, Az 85226",https://www.seniorly.com/assisted-living/arizona/chandler/light-house-manor,,
10507,Desert Sunshine Assisted Living,"2020 East Run Away Bay Place, Chandler, Az 85249",https://www.seniorly.com/assisted-living/arizona/chandler/desert-sunshine-assisted-living,,
10510,Rustic River Homes,"2124 East Firestone Drive, Chandler, Az 85249",https://www.seniorly.com/assisted-living/arizona/chandler/rustic-river-homes,,
10511,Garden Village Assisted Living 4,"6841 South Justin Way, Chandler, Az 85249",https://www.seniorly.com/assisted-living/arizona/chandler/garden-village-assisted-living-4,,
10512,Mercys Care Home I,"6651 South Four Peaks Place, Chandler, Az 85249",https://www.seniorly.com/assisted-living/arizona/chandler/mercy-s-care-home-i,,
10513,Chandler Harmony Adult Care Home 1,"4986 E Thunderbird Drive, Chandler, Az 85249",https://www.seniorly.com/assisted-living/arizona/chandler/joulienne-guda,,
10514,M K Assisted Living Chandler,"6992 South Sharon Court, Chandler, Az 85249",https://www.seniorly.com/assisted-living/arizona/chandler/m-k-assisted-living-chandler,,
10516,Casadora Manor,"2371 East Bellerive Drive, Chandler, Az 85249",https://www.seniorly.com/assisted-living/arizona/chandler/casadora-manor,,
10519,Family Living Homes,"1537 West Milagro Avenue, Mesa, Az 85202",https://www.seniorly.com/assisted-living/arizona/mesa/family-living-homes,,
10520,La Nina Assisted Living,"843 East Divot Drive, Tempe, Az 85283",https://www.seniorly.com/assisted-living/arizona/tempe/la-nina-assisted-living,,
10522,Geneva Assisted Living,"2107 East Geneva Drive, Tempe, Az 85282",https://www.seniorly.com/assisted-living/arizona/tempe/geneva-assisted-living-home,,
10524,Hh Home Plate Assisted Living,"23211 South 154Th Place, Gilbert, Az 85298",https://www.seniorly.com/assisted-living/arizona/gilbert/hh-home-plate-assisted-living-llc,,
10526,Eldercare At Siesta,"2604 South Siesta Drive, Tempe, Az 85282",https://www.seniorly.com/assisted-living/arizona/tempe/eldercare-at-siesta,,
10528,Motherdears Place Ii,"4116 East Yowy Street, Phoenix, Az 85044",https://www.seniorly.com/assisted-living/arizona/phoenix/motherdear-s-place-ii,,
10529,St Walter Group Home,"8650 South Los Feliz Drive, Tempe, Az 85284",https://www.seniorly.com/assisted-living/arizona/tempe/st-walter-group-home,,
10530,Whitewing Mansion Family Care,"1516 West Laurel Avenue, Gilbert, Az 85233",https://www.seniorly.com/assisted-living/arizona/gilbert/whitewing-mansion-family-care,,
10531,House Of Comfort,"2325 South Granite Street, Gilbert, Az 85295",https://www.seniorly.com/assisted-living/arizona/gilbert/house-of-comfort,,
10532,Meadow Adult Care Home,"551 East Eagle Court, Gilbert, Az 85296",https://www.seniorly.com/assisted-living/arizona/gilbert/meadow-adult-care-home,,
10533,Jo Lex At Obispo,"2216 West Obispo Avenue, Mesa, Az 85202",https://www.seniorly.com/assisted-living/arizona/mesa/jo-lex-at-obispo,,
10534,Sheltered Cedar,"90 West Baylor Lane, Gilbert, Az 85233",https://www.seniorly.com/assisted-living/arizona/gilbert/sheltered-cedar,,
10538,Whipple Circle Manor Assisted Living,"1101 North Whipple Circle, Gilbert, Az 85233",https://www.seniorly.com/assisted-living/arizona/gilbert/whipple-circle-manor-assisted-living,,
10540,Emerson Assisted Living,"2016 South Emerson, Mesa, Az 85210",https://www.seniorly.com/assisted-living/arizona/mesa/emerson-assisted-living-home-llc,,
10541,Monte Manor Assisted Living,"2721 West Monte Avenue, Mesa, Az 85202",https://www.seniorly.com/assisted-living/arizona/mesa/monte-manor-assisted-living,,
10547,La Luna Senior Living At Gemini,"1910 East Gemini Drive, Tempe, Az 85283",https://www.seniorly.com/assisted-living/arizona/tempe/la-luna-senior-living-at-gemini,,
10550,Liv Northgate,"455 South Recker Road, Gilbert, Az 85296",https://www.seniorly.com/assisted-living/arizona/gilbert/liv-northgate,,
10552,Summa Care Gilbert,"137 North Date Palm Drive, Gilbert, Az 85234",https://www.seniorly.com/assisted-living/arizona/gilbert/summa-care-gilbert,,
10553,Aselas Care Home,"1848 East Oxford Drive, Tempe, Az 85283",https://www.seniorly.com/assisted-living/arizona/tempe/asela-s-care-home,,
10555,Summa Care Tempe,"6518 South Jentilly Lane, Tempe, Az 85283",https://www.seniorly.com/assisted-living/arizona/tempe/summa-care-tempe,,
10556,My New Home,"602 East Lodge Drive, Tempe, Az 85283",https://www.seniorly.com/assisted-living/arizona/tempe/my-new-home,,
10558,Desert Stream Assisted Living,"1065 West Amanda Lane, Tempe, Az 85284",https://www.seniorly.com/assisted-living/arizona/tempe/desert-stream-assisted-living-home,,
10559,Lianns Homes 4,"1985 East Pebble Beach Drive, Tempe, Az 85282",https://www.seniorly.com/assisted-living/arizona/tempe/liann-s-homes-4,,
10560,Lianns Homes 3,"1835 East La Jolla Drive, Tempe, Az 85282",https://www.seniorly.com/assisted-living/arizona/tempe/liann-s-homes-3,,
10563,Comfort Haven Of Mesa,"758 South Toltec Road, Mesa, Az 85204",https://www.seniorly.com/assisted-living/arizona/mesa/comfort-haven-of-mesa,,
10564,Martha Anns Rainbow House,"2638 South Holbrook Lane, Tempe, Az 85282",https://www.seniorly.com/assisted-living/arizona/tempe/martha-ann-s-rainbow-house,,
10565,Caring Heart Terrace,"2705 East Emelita Avenue, Mesa, Az 85204",https://www.seniorly.com/assisted-living/arizona/mesa/caring-heart-terrace-llc,,
10566,Towle House Assisted Living Adult Care,"1355 North Greenfield Road, Gilbert, Az 85234",https://www.seniorly.com/assisted-living/arizona/gilbert/towle-house-assisted-living-adult-care,,
10567,Divine Mercy Adult Care,"6208 South Parkside Drive, Tempe, Az 85283",https://www.seniorly.com/assisted-living/arizona/tempe/divine-mercy-adult-care,,
10568,My New Home Ii,"2719 South Kenneth Place, Tempe, Az 85282",https://www.seniorly.com/assisted-living/arizona/tempe/my-new-home-ii,,
10571,Healing Gardens Assisted Living Care Home,"4638 South Parkside Drive, Tempe, Az 85282",https://www.seniorly.com/assisted-living/arizona/tempe/healing-gardens-assisted-living-care-home,,
10572,Gilbert Assisted Living,"4354 East Caroline Lane, Gilbert, Az 85296",https://www.seniorly.com/assisted-living/arizona/gilbert/gilbert-assisted-living-llc,,
10573,Ahwatukee Adult Care Ii,"4819 East La Puente, Phoenix, Az 85044",https://www.seniorly.com/assisted-living/arizona/phoenix/ahwatukee-adult-care-ii,,
10575,Desert Garden Assisted Living Iii,"4233 East Briarwood Terrace, Phoenix, Az 85048",https://www.seniorly.com/assisted-living/arizona/phoenix/desert-garden-assisted-living-iii,,
10579,Shiv Adult Care Home Ii,"4051 East Alder Avenue, Mesa, Az 85206",https://www.seniorly.com/assisted-living/arizona/mesa/shiv-adult-care-home-ii,,
10580,Koala Care Assisted Living,"1411 North Pasadena Street, Mesa, Az 85201",https://www.seniorly.com/assisted-living/arizona/mesa/koala-care-assisted-living,,
10581,Belindas Assisted Living,"2763 East Adobe Street, Mesa, Az 85213",https://www.seniorly.com/assisted-living/arizona/mesa/belinda-s-assisted-living-inc,,
10584,Southern Assisted Living,"6013 South 47Th Street, Phoenix, Az 85042",https://www.seniorly.com/assisted-living/arizona/phoenix/southern-assisted-living,,
10585,Mayberry Assisted Living,"19863 East Mayberry Road, Chandler Heights, Az 85142",https://www.seniorly.com/assisted-living/arizona/chandler-heights/mayberry-assisted-living-home,,
10586,Young Family Care Homes And Investments,"19331 East Via De Palmas, Chandler Heights, Az 85142",https://www.seniorly.com/assisted-living/arizona/chandler-heights/young-family-care-homes-and-investments-llc,,
10587,Garden Rose Assisted Living,"899 East Canyon Rock Road, San Tan Valley, Az 85143",https://www.seniorly.com/assisted-living/arizona/san-tan-valley/garden-rose-assisted-living,,
10589,Dayflower Care Home,"4166 West Dayflower Drive, Queen Creek, Az 85142",https://www.seniorly.com/assisted-living/arizona/queen-creek/dayflower-care-home,,
10594,Treasures Of Wisdom,"483 West Gascon Road, San Tan Valley, Az 85143",https://www.seniorly.com/assisted-living/arizona/san-tan-valley/treasures-of-wisdom,,
10595,San Tan Valley Assisted Living,"214 West Danish Red Trail, Queen Creek, Az 85143",https://www.seniorly.com/assisted-living/arizona/queen-creek/san-tan-valley-assisted-living-llc,,
10596,Desert Spring Adult Care Home,"1641 East Yellowstone Place, Chandler, Az 85249",https://www.seniorly.com/assisted-living/arizona/chandler/desert-spring-adult-care-home,,
10597,Renatas Home For The Elderly 2,"31392 North Sunflower Way, Queen Creek, Az 85143",https://www.seniorly.com/assisted-living/arizona/queen-creek/renata-s-home-for-the-elderly-2-inc,,
10598,Zen Family Care At Wayne Ranch,"1256 East Elm Road, San Tan Valley, Az 85140",https://www.seniorly.com/assisted-living/arizona/san-tan-valley/zen-family-care-at-wayne-ranch,,
10600,Angels Wings Assisted Living,"2402 East Detroit Court, Chandler, Az 85225",https://www.seniorly.com/assisted-living/arizona/chandler/angels-wings-assisted-living-home,,
10601,Supreme Assisted Living Care Home,"3611 East Thames Circle, San Tan Valley, Az 85140",https://www.seniorly.com/assisted-living/arizona/san-tan-valley/supreme-assisted-living-care-home,,
10602,Harmony Adult Living Solution,"3960 East Brae Voe Way, San Tan Valley, Az 85140",https://www.seniorly.com/assisted-living/arizona/san-tan-valley/harmony-adult-living-solution,,
10603,Annas Assisted Living,"4533 East Rolling Ridge Road, San Tan Valley, Az 85140",https://www.seniorly.com/assisted-living/arizona/san-tan-valley/anna-s-assisted-living-llc,,
10606,The Meadows Of Prescott Valley,"7766 East Welsh Mountain Drive, Prescott, Az 86315",https://www.seniorly.com/assisted-living/arizona/prescott/the-meadows-of-prescott-valley-llc,,
10608,Brookings,"7943 East Gazelle Road, Prescott, Az 86315",https://www.seniorly.com/assisted-living/arizona/prescott/brookings,,
10609,Generations Senior Living,"1275 Classic Court, Clarkdale, Az 86324",https://www.seniorly.com/assisted-living/arizona/clarkdale/generations-senior-living-llc,,
10610,Christian Care Assisted Living Cottonwood,"859 South 12Th Street, Cottonwood, Az 86326",https://www.seniorly.com/assisted-living/arizona/cottonwood/christian-care-assisted-living-cottonwood,,
10611,Living Spaces Assisted Living,"500 South Louise Lane, Cornville, Az 86325",https://www.seniorly.com/assisted-living/arizona/cornville/living-spaces-assisted-living,,
10612,Christian Care Cottonwood,"859 South 12Th Street, Cottonwood, Az 86326",https://www.seniorly.com/assisted-living/arizona/cottonwood/christian-care-cottonwood,,
10614,Mingus Manor Assisted Living,"25 West Fir Street, Cottonwood, Az 86326",https://www.seniorly.com/assisted-living/arizona/cottonwood/mingus-manor-assisted-living-home,,
10615,Valley View Care,"421 North Willard Street, Cottonwood, Az 86326",https://www.seniorly.com/assisted-living/arizona/cottonwood/valley-view-care,,
10616,Country Manor,"3900 East Cassie Lane, Cottonwood, Az 86326",https://www.seniorly.com/assisted-living/arizona/cottonwood/country-manor-cottonwood,,
10617,Country Ranch,"3940 East Cassie Lane, Cottonwood, Az 86326",https://www.seniorly.com/assisted-living/arizona/cottonwood/country-ranch,,
10618,Country Cottage,"3980 East Cassie Lane, Cottonwood, Az 86326",https://www.seniorly.com/assisted-living/arizona/cottonwood/country-cottage,,
10619,Page Springs Living,"995 South Page Springs Road, Cornville, Az 86325",https://www.seniorly.com/assisted-living/arizona/cornville/page-springs-living,,
10621,Touchmark At The Ranch,"3180 Touchmark Boulevard, Prescott, Az 86301",https://www.seniorly.com/assisted-living/arizona/prescott/touchmark-at-the-ranch,,
10624,Hilltop Quail Haven,"1951 North Emerald Drive, Prescott, Az 86301",https://www.seniorly.com/assisted-living/arizona/prescott/hilltop-quail-haven-inc,,
10625,Edenz Assisted Living,"8671 East Crater Court, Prescott Valley, Az 86314",https://www.seniorly.com/assisted-living/arizona/prescott-valley/edenz-assisted-living-home,,
10627,Westfield Assisted Living,"3225 North Pleasant View Drive, Prescott Valley, Az 86314",https://www.seniorly.com/assisted-living/arizona/prescott-valley/westfield-assisted-living-llc,,
10629,Shiloh Adult Care,"5336 North Long Rifle Road, Prescott Valley, Az 86314",https://www.seniorly.com/assisted-living/arizona/prescott-valley/shiloh-adult-care-llc,,
10630,Elaines Forest House,"220 West Forest Avenue, Flagstaff, Az 86001",https://www.seniorly.com/assisted-living/arizona/flagstaff/elaine-s-forest-house,,
10632,Eldercare Springs,"3620 North Walker Street, Flagstaff, Az 86004",https://www.seniorly.com/assisted-living/arizona/flagstaff/eldercare-springs,,
10633,Heritage Assisted Living,"9654 Heritage Drive, Flagstaff, Az 86004",https://www.seniorly.com/assisted-living/arizona/flagstaff/heritage-assisted-living-llc,,
10637,Fellowship Square Surprise,"16477 West Bell Road, Surprise, Az 85374",https://www.seniorly.com/assisted-living/arizona/surprise/fellowship-square-surprise,,
10647,Sun Valley Lodge,"12415 North 103Rd Avenue, Sun City, Az 85351",https://www.seniorly.com/assisted-living/arizona/sun-city/sun-valley-lodge,,
10648,Friendship House,"9925 West Royal Oak Road, Sun City, Az 85351",https://www.seniorly.com/assisted-living/arizona/sun-city/friendship-house-sun-city,,
10651,Ccs Adult Care,"13425 West Rimrock Road, Surprise, Az 85374",https://www.seniorly.com/assisted-living/arizona/surprise/cc-s-adult-care-inc,,
10652,Royal Oaks Assisted Living Center,"9965 West Royal Oak Road, Sun City, Az 85351",https://www.seniorly.com/assisted-living/arizona/sun-city/royal-oaks-assisted-living-center,,
10657,Orchard Pointe Assisted Living Memory Support,"15086 West Young Street Bldg A, Surprise, Az 85374",https://www.seniorly.com/assisted-living/arizona/surprise/orchard-pointe-assisted-living-memory-support,,
10658,Above And Beyond Senior Care,"11211 North 127Th Avenue, El Mirage, Az 85335",https://www.seniorly.com/assisted-living/arizona/el-mirage/above-and-beyond-senior-care,,
10663,Oasis Pavilion Nursing Rehabilitation Center,"161 West Rodeo Road, Casa Grande, Az 85122",https://www.seniorly.com/assisted-living/arizona/casa-grande/oasis-pavilion-nursing-rehabilitation-center,,
10664,Aspire Transitional Care,"1521 North Pine Cliff Drive, Flagstaff, Az 86001",https://www.seniorly.com/assisted-living/arizona/flagstaff/aspire-transitional-care,,
10665,Haven Of Flagstaff,"800 West University Avenue, Flagstaff, Az 86001",https://www.seniorly.com/assisted-living/arizona/flagstaff/haven-of-flagstaff,,
10667,The Legacy Rehab Care Center,"2812 Silver Creek Road, Tucson, Az 86442",https://www.seniorly.com/assisted-living/arizona/tucson/the-legacy-rehab-care-center,,
10673,Life Care Center Of Scottsdale,"9494 East Becker Lane, Scottsdale, Az 85260",https://www.seniorly.com/assisted-living/arizona/scottsdale/life-care-center-of-scottsdale,,
10680,Avenir Memory Care At Scottsdale,"11648 East Shea Boulevard 101, Scottsdale, Az 85259",https://www.seniorly.com/assisted-living/arizona/scottsdale/avenir-memory-care-at-scottsdale,,
10681,Sante Of North Scottsdale,"17490 North 93Rd Street, Gilbert, Az 85255",https://www.seniorly.com/assisted-living/arizona/gilbert/sante-of-north-scottsdale,,
10683,Lianns Homes 2,"9693 East Davenport Drive, Scottsdale, Az 85260",https://www.seniorly.com/assisted-living/arizona/scottsdale/liann-s-homes-2,,
10685,Bethany Adult Home Care,"12847 East Becker Lane, Scottsdale, Az 85259",https://www.seniorly.com/assisted-living/arizona/scottsdale/bethany-adult-home-care-llc,,
10687,Kay Adult Care Home,"12105 East Shangrila Road, Scottsdale, Az 85259",https://www.seniorly.com/assisted-living/arizona/scottsdale/kay-adult-care-home,,
10688,Mountain View Assisted Living,"12035 East Mountain View Road, Scottsdale, Az 85259",https://www.seniorly.com/assisted-living/arizona/scottsdale/mountain-view-assisted-living-scottsdale,,
10690,Trinity Home On Clinton,"10521 East Clinton Street, Scottsdale, Az 85259",https://www.seniorly.com/assisted-living/arizona/scottsdale/trinity-home-on-clinton,,
10692,Cactus Senior Villa,"11992 North 93Rd Way, Scottsdale, Az 85260",https://www.seniorly.com/assisted-living/arizona/scottsdale/cactus-senior-villa,,
10693,Bridge Royal Homecare,"8425 East Cactus Road, Scottsdale, Az 85260",https://www.seniorly.com/assisted-living/arizona/scottsdale/bridge-royal-homecare,,
10694,Citadel Post Acute,"5121 East Broadway Road, Mesa, Az 85206",https://www.seniorly.com/assisted-living/arizona/mesa/citadel-post-acute,,
10695,Apache Junction Health Center,"2012 West Southern Avenue, Apache, Az 85120",https://www.seniorly.com/assisted-living/arizona/apache/apache-junction-health-center,,
10696,Mi Casa Nursing Center,"330 South Pinnule Circle, Tempe, Az 85206",https://www.seniorly.com/assisted-living/arizona/tempe/mi-casa-nursing-center,,
10697,Sante Of Mesa,"5358 East Baseline Road, Litchfield Park, Az 85206",https://www.seniorly.com/assisted-living/arizona/litchfield-park/sante-of-mesa,,
10698,Rio Vista Post Acute Rehabilitation,"10323 West Olive Avenue, Peoria, Az 85345",https://www.seniorly.com/assisted-living/arizona/peoria/rio-vista-post-acute-and-rehabilitation,,
10699,Palm Valley Rehabilitation Care Center,"13575 West Mcdowell Road, Goodyear, Az 85338",https://www.seniorly.com/assisted-living/arizona/goodyear/palm-valley-rehabilitation-care-center,,
10701,Solterra At White Mountains Two Ops,"5408 Az Highway 260 Bldg 2, Lakeside, Az 85929",https://www.seniorly.com/assisted-living/arizona/lakeside/solterra-at-white-mountains-two-ops-llc,,
10703,The Center At Val Vista,"3744 South Rome Street, Phoenix, Az 85297",https://www.seniorly.com/assisted-living/arizona/phoenix/the-center-at-val-vista,,
10704,Haven Of Cottonwood,"197 South Willard Street, Cottonwood, Az 86326",https://www.seniorly.com/assisted-living/arizona/cottonwood/haven-of-cottonwood,,
10705,Good Samaritan Society Prescott Valley,"3380 North Windsong Drive, Prescott, Az 86314",https://www.seniorly.com/assisted-living/arizona/prescott/good-samaritan-society-prescott-valley,,
10706,White House Group Home,"10227 North 56Th Drive, Glendale, Az 85302",https://www.seniorly.com/assisted-living/arizona/glendale/white-house-group-home,,
10707,Sunview Health And Rehabilitation Center,"12207 North 113Th Avenue, Youngtown, Az 85363",https://www.seniorly.com/assisted-living/arizona/youngtown/sunview-respiratory-and-rehabilitation,,
10708,Camelback Post Acute Care And Rehabilitation,"4635 North 14Th Street, Phoenix, Az 85014",https://www.seniorly.com/assisted-living/arizona/phoenix/camelback-post-acute-and-rehabilitation,,
10709,Ridge At The Stratford,"1739 West Myrtle Avenue, Phoenix, Az 85021",https://www.seniorly.com/assisted-living/arizona/phoenix/ridge-at-the-stratford,,
10710,Ahc Of Glendale,"16825 North 63Rd Avenue, Glendale, Az 85306",https://www.seniorly.com/assisted-living/arizona/glendale/ahc-of-glendale,,
10711,Coronado Healthcare Center,"11411 North 19Th Avenue, Phoenix, Az 85029",https://www.seniorly.com/assisted-living/arizona/phoenix/coronado-healthcare-center,,
10712,Arizona State Veteran Homephx,"4141 North South Herrera Way, Phoenix, Az 85012",https://www.seniorly.com/assisted-living/arizona/phoenix/arizona-state-veteran-home-phx,,
10714,Mercy Adult Care Home Iv,"6058 West Wethersfield Drive, Glendale, Az 85304",https://www.seniorly.com/assisted-living/arizona/glendale/mercy-adult-care-home-iv,,
10715,Hope Assisted Living,"5634 North 48Th Lane, Glendale, Az 85301",https://www.seniorly.com/assisted-living/arizona/glendale/hope-assisted-living-home-llc,,
10717,Golden Age Residential Care,"6008 West Paradise Lane, Glendale, Az 85306",https://www.seniorly.com/assisted-living/arizona/glendale/golden-age-adult-care-home-glendale,,
10720,The Oasis Assisted Living At Fellowship Square,"11818 North 19Th Avenue, Phoenix, Az 85029",https://www.seniorly.com/assisted-living/arizona/phoenix/the-oasis-assisted-living-at-fellowship-square,,
10726,Holy Cross Care Home,"5772 West Puget Avenue, Glendale, Az 85302",https://www.seniorly.com/assisted-living/arizona/glendale/holy-cross-care-home,,
10728,Everlasting Services At Glendale,"5724 West Cannon Drive, Glendale, Az 85302",https://www.seniorly.com/assisted-living/arizona/glendale/everlasting-services-at-glendale,,
10729,Good Hart Assisted Living,"5559 North 62Nd Drive, Glendale, Az 85301",https://www.seniorly.com/assisted-living/arizona/glendale/good-hart-assisted-living,,
10731,J B Assisted Living Inc Ii,"6613 West Pershing Avenue, Glendale, Az 85304",https://www.seniorly.com/assisted-living/arizona/glendale/j-b-assisted-living-inc-ii,,
10732,Home Away From Home Senior Assisted Living,"7413 North 75Th Drive, Glendale, Az 85303",https://www.seniorly.com/assisted-living/arizona/glendale/home-away-from-home-senior-assisted-living-llc,,
10733,Pines Assisted Lovin Home,"6979 West Cactus Wren Drive, Glendale, Az 85303",https://www.seniorly.com/assisted-living/arizona/glendale/pines-assisted-lovin-home,,
10734,Felicity Care Home,"5412 West Cinnabar Avenue, Glendale, Az 85302",https://www.seniorly.com/assisted-living/arizona/glendale/felicity-care-home,,
10736,Ac Adult Care Home,"10312 North 58Th Lane, Glendale, Az 85302",https://www.seniorly.com/assisted-living/arizona/glendale/ac-adult-care-home,,
10738,D Providence Care Home,"4523 West Hearn Road, Glendale, Az 85306",https://www.seniorly.com/assisted-living/arizona/glendale/d-providence-care-home,,
10739,Sunrise Adult Care Home 2,"6338 West Port Royale Lane, Glendale, Az 85306",https://www.seniorly.com/assisted-living/arizona/glendale/sunrise-adult-care-home-2-glendale,,
10740,Family Home Care House Of Treasures,"4301 West Acoma, Glendale, Az 85306",https://www.seniorly.com/assisted-living/arizona/glendale/family-home-care-house-of-treasures,,
10741,Charles Residential Care,"6343 West Del Mar Lane, Glendale, Az 85306",https://www.seniorly.com/assisted-living/arizona/glendale/charles-residential-care-llc,,
10742,Sunlight Adult Care Home,"6513 West Caribbean Lane, Glendale, Az 85306",https://www.seniorly.com/assisted-living/arizona/glendale/sunlight-adult-care-home,,
10744,Burkeshire Retirement Hotel,"1310 East Mc Dowell Road, Phoenix, Az 85006",https://www.seniorly.com/assisted-living/arizona/phoenix/burkeshire-retirement-hotel,,
10745,Green Desert Care Home,"15621 North 57Th Avenue, Glendale, Az 85306",https://www.seniorly.com/assisted-living/arizona/glendale/green-desert-care-home,,
10746,D I Adult Care Home,"6207 West Beverly Lane, Glendale, Az 85306",https://www.seniorly.com/assisted-living/arizona/glendale/d-i-adult-care-home,,
10748,Anabell Assisted Living,"5025 West Phelps Road, Glendale, Az 85306",https://www.seniorly.com/assisted-living/arizona/glendale/anabell-assisted-living,,
10750,Marias And Ralucas Adult Care Home,"6799 West Angela Drive, Glendale, Az 85308",https://www.seniorly.com/assisted-living/arizona/glendale/maria-s-and-raluca-s-adult-care-home,,
10751,Haven Health Phoenix,"4202 North 20Th Avenue, Mesa, Az 85015",https://www.seniorly.com/assisted-living/arizona/mesa/haven-health-phoenix,,
10754,Cocos Assisted Living,"3231 West Thunderbird Road, Phoenix, Az 85053",https://www.seniorly.com/assisted-living/arizona/phoenix/coco-s-assisted-living-home,,
10755,Hallmark Assisted Living At Wagoner,"6127 West Wagoner Road, Glendale, Az 85308",https://www.seniorly.com/assisted-living/arizona/glendale/hallmark-assisted-living-at-wagoner,,
10757,Amazing Grace Care Home,"18046 North 42Nd Drive, Glendale, Az 85308",https://www.seniorly.com/assisted-living/arizona/glendale/amazing-grace-care-home,,
10759,Home Care Choice,"119 West Beck Lane, Phoenix, Az 85023",https://www.seniorly.com/assisted-living/arizona/phoenix/home-care-choice-llc,,
10761,A Place For Mom And Dad,"18817 North 49Th Drive, Glendale, Az 85308",https://www.seniorly.com/assisted-living/arizona/glendale/a-place-for-mom-and-dad-glendale,,
10763,G I Adult Care Home,"4749 West Piute, Glendale, Az 85308",https://www.seniorly.com/assisted-living/arizona/glendale/g-i-adult-care-home,,
10764,Imperium Alh,"4727 West Oraibi Drive, Glendale, Az 85308",https://www.seniorly.com/assisted-living/arizona/glendale/imperium-alh,,
10765,Emv Assisted Living,"4460 West Yorkshire Drive, Glendale, Az 85308",https://www.seniorly.com/assisted-living/arizona/glendale/e-m-v-assisted-living-llc,,
10770,Embracing Assisted Living,"5755 West Irma Lane, Glendale, Az 85308",https://www.seniorly.com/assisted-living/arizona/glendale/embracing-assisted-living,,
10771,Avista Senior Living North Mountain,"350 East Eva Street, Pheonix, Az 85020",https://www.seniorly.com/assisted-living/arizona/pheonix/avista-senior-living-north-mountain-pheonix,,
10772,North Mountain Medical And Rehabilitation Center,"9155 North 3Rd Street, Lake Havasu, Az 85020",https://www.seniorly.com/assisted-living/arizona/lake-havasu/north-mountain-medical-and-rehabilitation-center,,
10773,Golden Years Assisted Living 2,"6083 West Irma Lane, Glendale, Az 85308",https://www.seniorly.com/assisted-living/arizona/glendale/golden-years-assisted-living-2,,
10774,Center At Arrowhead,"7201 West Camino San Xavier Avenue, Scottsdale, Az 85308",https://www.seniorly.com/assisted-living/arizona/scottsdale/center-at-arrowhead,,
10775,El Dorado Of Sun City,"10330 West Thunderbird Boulevard, Sun City, Az 85351",https://www.seniorly.com/assisted-living/arizona/sun-city/el-dorado-of-sun-city,,
10776,Banner Boswell Rehabilitation Center,"10601 West Santa Fe Drive, Avondale, Az 85351",https://www.seniorly.com/assisted-living/arizona/avondale/banner-boswell-rehabilitation-center,,
10777,Arrowhead Lakes Adult Home Care,"21428 North 55Th Avenue, Glendale, Az 85308",https://www.seniorly.com/assisted-living/arizona/glendale/arrowhead-lakes-adult-home-care,,
10778,Arrowhead Adult Care Home,"6999 West Aurora Drive, Glendale, Az 85308",https://www.seniorly.com/assisted-living/arizona/glendale/arrowhead-adult-care-home,,
10779,Beebes Assisted Living,"13242 North 34Th Drive , Phoenix, Az 85029",https://www.seniorly.com/assisted-living/arizona/phoenix/beebes-assisted-living-llc-,,
10781,T Y Wolf Assisted Living,"326 East Bellmont Avenue, Phoenix, Az 85020",https://www.seniorly.com/assisted-living/arizona/phoenix/t-y-wolf-assisted-living,,
10782,Royal Palm Assisted Living 1,"8120 North 42Nd Lane, Phoenix, Az 85051",https://www.seniorly.com/assisted-living/arizona/phoenix/royal-palm-assisted-living-home-1-llc,,
10790,G J Personal Care Ii,"6826 West Sweetwater, Peoria, Az 85381",https://www.seniorly.com/assisted-living/arizona/peoria/g-j-personal-care-ii,,
10791,Gwees Comfort Assisted Living Ii,"3135 West Hayward Avenue, Phoenix, Az 85051",https://www.seniorly.com/assisted-living/arizona/phoenix/gwee-s-comfort-assisted-living-ii,,
10792,Sunnyside Care Home,"7631 West Sunnyside Drive, Peoria, Az 85345",https://www.seniorly.com/assisted-living/arizona/peoria/sunnyside-care-home-llc,,
10795,Sierra Valaha,"3633 West Sierra Street, Phoenix, Az 85029",https://www.seniorly.com/assisted-living/arizona/phoenix/sierra-valaha,,
10796,Desert View Adult Care Home,"9407 North 36Th Avenue, Phoenix, Az 85051",https://www.seniorly.com/assisted-living/arizona/phoenix/desert-view-adult-care-home,,
10797,Gavrilas Family Home,"7327 West Eva Street, Peoria, Az 85345",https://www.seniorly.com/assisted-living/arizona/peoria/gavrilas-family-home,,
10798,Desert Bloom Adult Care Home 2,"13909 North 69Th Drive, Peoria, Az 85381",https://www.seniorly.com/assisted-living/arizona/peoria/desert-bloom-adult-care-home-2,,
10799,Desert Bloom Adult Care Home 1,"13921 North 69Th Drive, Peoria, Az 85381",https://www.seniorly.com/assisted-living/arizona/peoria/desert-bloom-adult-care-home-1,,
10800,Summer Star Care Home,"9208 West Cortez Street, Peoria, Az 85345",https://www.seniorly.com/assisted-living/arizona/peoria/summer-star-care-home,,
10801,Ace Best Medical And Nursing Care,"2902 West Cactus Road, Phoenix, Az 85029",https://www.seniorly.com/assisted-living/arizona/phoenix/ace-best-medical-and-nursing-care-llc,,
10803,Orangewood Assisted Loving Home,"3829 West Thunderbird Road, Phoenix, Az 85053",https://www.seniorly.com/assisted-living/arizona/phoenix/orangewood-assisted-loving-home-llc,,
10804,Beebes Assisted Living,"13242 North 34Th Drive, Phoenix, Az 85029",https://www.seniorly.com/assisted-living/arizona/phoenix/beebes-assisted-living-llc,,
10806,A Divine Love Home Care,"3609 West Rue De Lamour Avenue, Phoenix, Az 85053",https://www.seniorly.com/assisted-living/arizona/phoenix/a-divine-love-home-care,,
10807,West Valley Care Home,"8546 West Joan De Arc, Peoria, Az 85381",https://www.seniorly.com/assisted-living/arizona/peoria/west-valley-care-home-peoria,,
10811,Emerald Home Care 2,"6622 North 7Th Avenue, Phoenix, Az 85013",https://www.seniorly.com/assisted-living/arizona/phoenix/emerald-home-care-2,,
10812,Elite Care Usa,"642 West Linger Lane, Phoenix, Az 85021",https://www.seniorly.com/assisted-living/arizona/phoenix/elite-care-usa,,
10814,Silver Sunset Home Care,"3116 West Dailey Street, Phoenix, Az 85053",https://www.seniorly.com/assisted-living/arizona/phoenix/silver-sunset-home-care,,
10815,The Golden Place At Peoria,"7828 West Port Au Prince Lane, Peoria, Az 85381",https://www.seniorly.com/assisted-living/arizona/peoria/the-golden-place-at-peoria,,
10817,Angels Working Adult Care Home,"7648 West Mary Jane Lane, Peoria, Az 85382",https://www.seniorly.com/assisted-living/arizona/peoria/angel-s-working-adult-care-home,,
10818,Constant Care Assisted Living,"830 West Amelia, Phoenix, Az 85013",https://www.seniorly.com/assisted-living/arizona/phoenix/constant-care-assisted-living,,
10819,Elsies House,"4201 West Paradise Lane, Phoenix, Az 85053",https://www.seniorly.com/assisted-living/arizona/phoenix/elsie-s-house-llc,,
10821,Person To Person Assisted Living Care Home,"602 East Missouri Avenue, Phoenix, Az 85012",https://www.seniorly.com/assisted-living/arizona/phoenix/person-to-person-assisted-living-care-home,,
10822,Lynettes Care Center Ii,"15415 North 30Th Avenue, Phoenix, Az 85053",https://www.seniorly.com/assisted-living/arizona/phoenix/lynette-s-care-center-ii,,
10826,Lifestream At Youngtown Green House 3,"11521 West Peoria Avenue, Youngtown, Az 85363",https://www.seniorly.com/assisted-living/arizona/youngtown/lifestream-at-youngtown-green-house-3,,
10827,Lifestream At Youngtown Green House 2,"11523 West Peoria Avenue, Youngtown, Az 85363",https://www.seniorly.com/assisted-living/arizona/youngtown/lifestream-at-youngtown-green-house-2,,
10830,Hillside Senior Living,"1546 East El Camino Drive, Phoenix, Az 85020",https://www.seniorly.com/assisted-living/arizona/phoenix/hillside-senior-living,,
10831,East Whitton Manor Care Center,"1106 East Whitton Avenue, Phoenix, Az 85014",https://www.seniorly.com/assisted-living/arizona/phoenix/east-whitton-manor-care-center,,
10832,Clarendon Home Assisted Living,"1232 East Clarendon Avenue, Phoenix, Az 85014",https://www.seniorly.com/assisted-living/arizona/phoenix/clarendon-home-assisted-living,,
10833,Contemporary Adult Care Home,"17849 North 34Th Drive, Phoenix, Az 85053",https://www.seniorly.com/assisted-living/arizona/phoenix/contemporary-adult-care-home,,
10835,Heritage Care Home,"2707 West Charleston Avenue, Phoenix, Az 85053",https://www.seniorly.com/assisted-living/arizona/phoenix/heritage-care-home-llc,,
10838,Claire And Letis Home,"17437 North 19Th Drive, Phoenix, Az 85023",https://www.seniorly.com/assisted-living/arizona/phoenix/claire-and-letis-home,,
10839,Our Parents Home Care Ii,"3313 West Topeka Drive, Phoenix, Az 85027",https://www.seniorly.com/assisted-living/arizona/phoenix/our-parents-home-care-ii,,
10844,Adina Adult Care Home,"1402 West Villa Maria Drive, Phoenix, Az 85023",https://www.seniorly.com/assisted-living/arizona/phoenix/adina-adult-care-home,,
10845,Adina Adult Care Home 2,"1403 West Bluefield Avenue, Phoenix, Az 85023",https://www.seniorly.com/assisted-living/arizona/phoenix/adina-adult-care-home-2,,
10846,Everlasting Services At Phillips,"2535 East Heatherbrae Drive, Phoenix, Az 85016",https://www.seniorly.com/assisted-living/arizona/phoenix/everlasting-services-at-phillips,,
10848,Haven Of Globe,"1100 Monroe Street, Globe, Az 85501",https://www.seniorly.com/assisted-living/arizona/globe/haven-of-globe,,
10849,Faubush Family Homes,"7760 South Six Shooter Canyon Road, Globe, Az 85501",https://www.seniorly.com/assisted-living/arizona/globe/faubush-family-homes,,
10852,Ac Assisted Living 2,"410 West Euclid Avenue, Globe, Az 85501",https://www.seniorly.com/assisted-living/arizona/globe/ac-assisted-living-2,,
10853,Ac Assisted Living 1,"320 East Oak Street, Globe, Az 85501",https://www.seniorly.com/assisted-living/arizona/globe/ac-assisted-living-1,,
10854,Ac Assisted Living 4,"675 South 11Th Street, Globe, Az 85501",https://www.seniorly.com/assisted-living/arizona/globe/ac-assisted-living-4,,
10856,Santa Rita Nursing Rehabilitation Center,"150 North La Canada Drive, Green Valley, Az 85614",https://www.seniorly.com/assisted-living/arizona/green-valley/santa-rita-nursing-rehabilitation-center,,
10857,Villas At Green Valley Villa I,"865 North Desert Bell Drive Building 9, Green Valley, Az 85614",https://www.seniorly.com/assisted-living/arizona/green-valley/villas-at-green-valley-villa-i,,
10858,Villas At Green Valley Villa B,"865 North Desert Bell Drive Building 2, Green Valley, Az 85614",https://www.seniorly.com/assisted-living/arizona/green-valley/villas-at-green-valley-villa-b,,
10859,Villas At Green Valley Villa D,"865 North Desert Bell Drive Building 4, Green Valley, Az 85614",https://www.seniorly.com/assisted-living/arizona/green-valley/villas-at-green-valley-villa-d,,
10860,Bee Hive Homes Of Green Valley,"3161 South Prosperous Place, Green Valley, Az 85614",https://www.seniorly.com/assisted-living/arizona/green-valley/bee-hive-homes-of-green-valley,,
10861,Villas At Green Valley Villa G,"865 North Desert Bell Drive Building 7, Green Valley, Az 85614",https://www.seniorly.com/assisted-living/arizona/green-valley/villas-at-green-valley-villa-g,,
10862,Rancho Verde Care Home Canalito,"930 West Placita Canalito, Green Valley, Az 85614",https://www.seniorly.com/assisted-living/arizona/green-valley/rancho-verde-care-home-canalito,,
10863,Villas At Green Valley Villa F,"865 North Desert Bell Drive Building 6, Green Valley, Az 85614",https://www.seniorly.com/assisted-living/arizona/green-valley/villas-at-green-valley-villa-f,,
10864,Family Loving Kare S2,"1675 West Placita Abreojos, Sahuarita, Az 85629",https://www.seniorly.com/assisted-living/arizona/sahuarita/family-loving-kare-s2,,
10865,San Judas Adult Care Home,"17380 South Camino Cartagena, Sahuarita, Az 85629",https://www.seniorly.com/assisted-living/arizona/sahuarita/san-judas-adult-care-home-llc,,
10866,Nans Hacienda,"17240 Camino Cartegena, Sahuarita, Az 85629",https://www.seniorly.com/assisted-living/arizona/sahuarita/nan-s-hacienda,,
10868,Windmill Ranch,"5605 East Labrador Lane, Hereford, Az 85615",https://www.seniorly.com/assisted-living/arizona/hereford/windmill-ranch,,
10869,Golden Oaks Ranch Assisted Living,"8099 South Geoffrion Street, Hereford, Az 85615",https://www.seniorly.com/assisted-living/arizona/hereford/golden-oaks-ranch-assisted-living-llc,,
10870,Golden Oaks Annex Assisted Living,"8103 South Geoffrion Street, Hereford, Az 85615",https://www.seniorly.com/assisted-living/arizona/hereford/golden-oaks-annex-assisted-living-llc,,
10871,Olive Branch Home Care,"4916 Santa Ana Avenue, Sierra Vista, Az 85650",https://www.seniorly.com/assisted-living/arizona/sierra-vista/olive-branch-home-care-llc,,
10875,La Bella Assisted Living,"1721 Palo Verde Drive, Kingman, Az 86409",https://www.seniorly.com/assisted-living/arizona/kingman/la-bella-assisted-living,,
10876,The Gardens Rehab Care Center,"3131 Western Avenue, Tucson, Az 86401",https://www.seniorly.com/assisted-living/arizona/tucson/the-gardens-rehab-care-center,,
10877,Desert Highlands Care Center,"1081 Kathleen Avenue, Tucson, Az 86401",https://www.seniorly.com/assisted-living/arizona/tucson/desert-highlands-care-center,,
10878,The Lingenfelter Center,"1099 Sunrise Avenue, Tucson, Az 86401",https://www.seniorly.com/assisted-living/arizona/tucson/the-lingenfelter-center,,
10879,Avista Senior Living Lake Havasu,"3076 Shoshone Drive, Lake Havasu City, Az 86406",https://www.seniorly.com/assisted-living/arizona/lake-havasu-city/avista-senior-living-lake-havasu,,
10880,Claremont Assisted Living,"1221 Claremont Drive, Lake Havasu, Az 86406",https://www.seniorly.com/assisted-living/arizona/lake-havasu/claremont-assisted-living,,
10881,Prestige Assisted Living At Lake Havasu,"90 South Smoketree Avenue, Lake Havasu City, Az 86403",https://www.seniorly.com/assisted-living/arizona/lake-havasu-city/prestige-assisted-living-at-lake-havasu,,
10882,Haven Of Lake Havasu,"2781 Osborne Drive, Tucson, Az 86406",https://www.seniorly.com/assisted-living/arizona/tucson/haven-of-lake-havasu,,
10883,Havasu Nursing Center,"3576 Kearsage Drive, Tucson, Az 86406",https://www.seniorly.com/assisted-living/arizona/tucson/havasu-nursing-center,,
10884,Aster Elder Care,"3861 Oro Grande Boulevard, Lake Havasu City, Az 86406",https://www.seniorly.com/assisted-living/arizona/lake-havasu-city/aster-elder-care-llc,,
10885,Serenity Assisted Living,"3677 Blue Colt, Lake Havasu City, Az 86404",https://www.seniorly.com/assisted-living/arizona/lake-havasu-city/serenity-assisted-living-lake-havasu-city,,
10886,Heritage House Care Home,"3570 Tahitian Drive, Lake Havasu City, Az 86406",https://www.seniorly.com/assisted-living/arizona/lake-havasu-city/heritage-house-care-home,,
10888,Gems Assisted Living,"2255 Senita Drive, Lake Havasu City, Az 86403",https://www.seniorly.com/assisted-living/arizona/lake-havasu-city/gems-assisted-living,,
10890,Gems Assisted Living 4,"1502 Avalon Avenue Unit A B, Lake Havasu City, Az 86404",https://www.seniorly.com/assisted-living/arizona/lake-havasu-city/gems-assisted-living-4,,
10891,Havasu Regional Medical Center,"1811 Mesquite Avenue, Tucson, Az 86403",https://www.seniorly.com/assisted-living/arizona/tucson/havasu-regional-medical-center,,
10892,Global Care Ii,"2842 Mcculloch Boulevard North, Lake Havasu City, Az 86403",https://www.seniorly.com/assisted-living/arizona/lake-havasu-city/global-care-ii,,
10893,South Mountain Post Acute,"8008 South Jesse Owens Parkway, Phoenix, Az 85042",https://www.seniorly.com/assisted-living/arizona/phoenix/south-mountain-post-acute,,
10894,Allegiant Healthcare Of Phoenix,"1880 East Van Buren Street, Chandler, Az 85006",https://www.seniorly.com/assisted-living/arizona/chandler/allegiant-healthcare-of-phoenix,,
10895,Zaweah Luxury Living,"9129 South 48Th Drive, Laveen, Az 85339",https://www.seniorly.com/assisted-living/arizona/laveen/zaweah-luxury-living,,
10896,Loving Care Assisted Living,"5133 West Fawn Drive, Laveen, Az 85339",https://www.seniorly.com/assisted-living/arizona/laveen/loving-care-assisted-living-laveen,,
10898,Beautiful Assisted Living 2,"5612 West Euclid Avenue, Laveen, Az 85339",https://www.seniorly.com/assisted-living/arizona/laveen/beautiful-assisted-living-2,,
10899,Archstone Care Center,"1980 West Pecos Road, Phoenix, Az 85224",https://www.seniorly.com/assisted-living/arizona/phoenix/archstone-care-center,,
10900,Maravilla Care Center,"8825 South 7Th Street, Sun City, Az 85042",https://www.seniorly.com/assisted-living/arizona/sun-city/maravilla-care-center,,
10901,Hacienda Nursing Facility,"1402 East South Mountain Avenue, Mesa, Az 85042",https://www.seniorly.com/assisted-living/arizona/mesa/hacienda-nursing-facility,,
10902,Suncrest Healthcare Center,"2211 East Southern Avenue, Phoenix, Az 85040",https://www.seniorly.com/assisted-living/arizona/phoenix/suncrest-healthcare-center,,
10907,La Sonora At Dove Mountain,"5250 West Dove Centre Road, Marana, Az 85658",https://www.seniorly.com/assisted-living/arizona/marana/la-sonora-at-dove-mountain,,
10909,Picture Rocks Adult Care Home,"12390 West Manville Road, Tucson, Az 85743",https://www.seniorly.com/assisted-living/arizona/tucson/picture-rocks-adult-care-home,,
10910,Summersett Acres Assisted Living,"10298 North Blue Bonnet Road, Tucson, Az 85742",https://www.seniorly.com/assisted-living/arizona/tucson/summersett-acres-assisted-living,,
10914,Olive Care Homes,"44880 West Portabello Road, Mobile, Az 85139",https://www.seniorly.com/assisted-living/arizona/mobile/olive-care-homes-llc,,
10915,Desert Springs Healthcare,"3130 East Broadway Road, Mesa, Az 85204",https://www.seniorly.com/assisted-living/arizona/mesa/allegiant-healthcare-of-mesa,,
10916,Heritage Court Post Acute Of Scottsdale,"3339 North Drinkwater Boulevard, Scottsdale, Az 85251",https://www.seniorly.com/assisted-living/arizona/scottsdale/heritage-court-post-acute-of-scottsdale,,
10917,Haven Of Scottsdale,"3293 North Drinkwater Boulevard, Mesa, Az 85251",https://www.seniorly.com/assisted-living/arizona/mesa/haven-of-scottsdale,,
10920,Lindsay Manor,"2955 East Mallory Street, Mesa, Az 85213",https://www.seniorly.com/assisted-living/arizona/mesa/lindsay-manor-llc,,
10922,Family Care Homes Jensen House,"2222 East Jensen, Mesa, Az 85203",https://www.seniorly.com/assisted-living/arizona/mesa/family-care-homes-jensen-house,,
10923,Home Sweet Home On Leland,"4034 East Leland Street, Mesa, Az 85215",https://www.seniorly.com/assisted-living/arizona/mesa/home-sweet-home-on-leland,,
10924,Plaza Healthcare,"1475 North Granite Reef Road, Kingman, Az 85257",https://www.seniorly.com/assisted-living/arizona/kingman/plaza-healthcare,,
10926,The Fountains At La Cholla,"2001 West Rudasill Road, Tucson, Az 85704",https://www.seniorly.com/assisted-living/arizona/tucson/the-fountains-at-la-cholla,,
10930,Mountain View Care Center,"1313 West Magee Road, Tucson, Az 85704",https://www.seniorly.com/assisted-living/arizona/tucson/mountain-view-care-center,,
10932,Copper Canyon,"5901 North La Cholla Boulevard, Tucson, Az 85741",https://www.seniorly.com/assisted-living/arizona/tucson/copper-canyon-alzheimer-s-special-care-center,,
10934,La Canada Care Center,"7970 North La Canada Drive, Yuma, Az 85704",https://www.seniorly.com/assisted-living/arizona/yuma/la-canada-care-center,,
10935,Casas Adobes Post Acute Rehabilitation Center,"1919 West Medical Street, Tucson, Az 85704",https://www.seniorly.com/assisted-living/arizona/tucson/casas-adobes-post-acute-rehab-center,,
10943,Haven Of Tucson,"3705 North Swan Road, Casa Grande, Az 85718",https://www.seniorly.com/assisted-living/arizona/casa-grande/haven-of-tucson,,
10944,Starfish Care Homes W Limberlost Dr,"321 West Limberlost Drive, Tuscon, Az 85705",https://www.seniorly.com/assisted-living/arizona/tuscon/starfish-care-homes-w-limberlost-dr-,,207
10946,Sedona Garden Assisted Living,"5931 North Jaynes Circle, Tucson, Az 85741",https://www.seniorly.com/assisted-living/arizona/tucson/sedona-garden-assisted-living,,
10947,Connies Manor Home,"7161 North Mona Lisa Road, Tucson, Az 85741",https://www.seniorly.com/assisted-living/arizona/tucson/connie-s-manor-home,,
10949,Summersett Haven,"1030 West Orange Grove Road, Tucson, Az 85704",https://www.seniorly.com/assisted-living/arizona/tucson/summersett-haven,,
10950,Villas At La Canda Villa J,"1479 West Desert Harbor Circle, Tucson, Az 85704",https://www.seniorly.com/assisted-living/arizona/tucson/villas-at-la-canda-villa-j,,
10952,Villas At La Canada The Villa E,"1563 West Desert Harbor Circle, Tucson, Az 85704",https://www.seniorly.com/assisted-living/arizona/tucson/villas-at-la-canada-the-villa-e,,
10955,Fidelity Care Home,"8131 North Boreal Drive, Tucson, Az 85704",https://www.seniorly.com/assisted-living/arizona/tucson/fidelity-care-home-inc,,
10956,The Villas At La Canada Villa H,"1495 West Desert Harbor Circle, Tucson, Az 85704",https://www.seniorly.com/assisted-living/arizona/tucson/the-villas-at-la-canada-villa-h,,
10958,Northwest Assisted Living Ii,"6840 North Cassim Place, Tucson, Az 85704",https://www.seniorly.com/assisted-living/arizona/tucson/northwest-assisted-living-ii,,
10959,Villas At La Canada The Villa A,"6901 West Desert Harbor Place, Tucson, Az 85704",https://www.seniorly.com/assisted-living/arizona/tucson/villas-at-la-canada-the-villa-a,,
10960,The Villas At La Canada Villa G,"1505 West Desert Harbor Circle, Tucson, Az 85704",https://www.seniorly.com/assisted-living/arizona/tucson/the-villas-at-la-canada-villa-g,,
10963,Desert Sun Residence,"6452 North Treasure Drive, Tucson, Az 85704",https://www.seniorly.com/assisted-living/arizona/tucson/desert-sun-residence,,
10964,The Villas At La Canada Villa K,"1464 West Desert Harbor Circle, Tucson, Az 85704",https://www.seniorly.com/assisted-living/arizona/tucson/the-villas-at-la-canada-villa-k,,
10967,Tlc At San Lucas,"1438 West San Lucas Drive, Tucson, Az 85704",https://www.seniorly.com/assisted-living/arizona/tucson/tlc-at-san-lucas-llc,,
10968,Fidelity Care Corner,"7548 North Casa Blanca, Tucson, Az 85704",https://www.seniorly.com/assisted-living/arizona/tucson/fidelity-care-corner-inc,,
10972,Copper Health Oro Valley,"1119 East Rancho Vistoso Boulevard, Coolidge, Az 85755",https://www.seniorly.com/assisted-living/arizona/coolidge/copper-health-oro-valley,,
10975,My Family Assisted Living,"3708 West Gailey Drive, Tucson, Az 85741",https://www.seniorly.com/assisted-living/arizona/tucson/my-family-assisted-living-home-llc,,
10976,Aspen Care Assisted Living,"1445 West Roller Coaster Road 2, Tucson, Az 85704",https://www.seniorly.com/assisted-living/arizona/tucson/aspen-care-assisted-living-home-llc,,
10978,Golden Hope Adult Care Home Ii,"6121 North Placita Arco, Tucson, Az 85718",https://www.seniorly.com/assisted-living/arizona/tucson/golden-hope-adult-care-home-ii,,
10986,Horizon Acres Assisted Living,"6481 North Silverbell Road, Tucson, Az 85743",https://www.seniorly.com/assisted-living/arizona/tucson/horizon-acres-assisted-living-home-inc,,
10987,Catalina Foothills Adult Care,"4405 North Country Club Road, Tucson, Az 85718",https://www.seniorly.com/assisted-living/arizona/tucson/catalina-foothills-adult-care-inc,,
10988,Villas De Bella Assisted Living No 1,"6008 North Panorama Drive, Tucson, Az 85743",https://www.seniorly.com/assisted-living/arizona/tucson/villas-de-bella-assisted-living-no-1-llc,,
10989,Marys Peace Of Mind,"3310 North El Burrito Avenue, Tucson, Az 85705",https://www.seniorly.com/assisted-living/arizona/tucson/mary-s-peace-of-mind,,
10990,Heatherwood,"4520 North Heatherwood Place, Tucson, Az 85718",https://www.seniorly.com/assisted-living/arizona/tucson/heatherwood-tucson,,
10992,Living Young Homes,"2732 West Monte Vista Place, Tucson, Az 85745",https://www.seniorly.com/assisted-living/arizona/tucson/living-young-homes,,
10994,Morningstar At Arcadia,"3200 East Glenrosa, Phoenix, Az 85018",https://www.seniorly.com/assisted-living/arizona/phoenix/morningstar-at-arcadia,,
10995,Maravilla Scottsdale,"7325 East Princess Boulevard, Scottsdale, Az 85255",https://www.seniorly.com/assisted-living/arizona/scottsdale/maravilla-scottsdale,,
10996,Paradise Living Centers Paradise Valley,"6630 East Lincoln Drive, Paradise Valley, Az 85253",https://www.seniorly.com/assisted-living/arizona/paradise-valley/paradise-living-centers-paradise-valley,,
10997,Windsor Luxury Assisted Living,"6031 North 52Nd Place, Paradise Valley, Az 85253",https://www.seniorly.com/assisted-living/arizona/paradise-valley/windsor-luxury-assisted-living,,
10999,Barton House,"7001 East Mountain View Road, Paradise Valley, Az 85253",https://www.seniorly.com/assisted-living/arizona/paradise-valley/barton-house-scottsdale,,
11000,Torbrook Manor,"6221 East Shea Boulevard, Paradise Valley, Az 85253",https://www.seniorly.com/assisted-living/arizona/paradise-valley/torbrook-manor,,
11002,Life Care Center Of Paradise Valley,"4065 East Bell Road, Phoenix, Az 85032",https://www.seniorly.com/assisted-living/arizona/phoenix/life-care-center-of-paradise-valley,,
11006,Doubletree Ranchos Assisted Living,"5706 East Horseshoe Road, Paradise Valley, Az 85253",https://www.seniorly.com/assisted-living/arizona/paradise-valley/doubletree-ranchos-assisted-living,,
11008,Assisted Living Of Paradise Valley Ii,"6129 East Via Estrella, Paradise Valley, Az 85253",https://www.seniorly.com/assisted-living/arizona/paradise-valley/assisted-living-of-paradise-valley-ii,,
11009,Assisted Living At Mountain Vista 1,"7568 North Mockingbird Lane, Paradise Valley, Az 85253",https://www.seniorly.com/assisted-living/arizona/paradise-valley/assisted-living-at-mountain-vista-1-inc,,
11012,Desert Haven Care Center,"2645 East Thomas Road, Surprise, Az 85016",https://www.seniorly.com/assisted-living/arizona/surprise/desert-haven-care-center,,
11013,Ridgecrest Healthcare,"16640 North 38Th Street, Winslow, Az 85032",https://www.seniorly.com/assisted-living/arizona/winslow/ridgecrest-healthcare,,
11015,Prats Care Home 1,"13401 North 30Th Street, Phoenix, Az 85032",https://www.seniorly.com/assisted-living/arizona/phoenix/prats-care-home-1,,
11019,Bethesda At Maravilla Ii,"6008 East Hartford Avenue, Scottsdale, Az 85254",https://www.seniorly.com/assisted-living/arizona/scottsdale/bethesda-at-maravilla-ii,,
11021,Scottsdale Adult Care Home,"6943 East Ludlow Drive, Scottsdale, Az 85254",https://www.seniorly.com/assisted-living/arizona/scottsdale/scottsdale-adult-care-home,,
11024,24 Hr Home,"5447 East Beck Lane, Scottsdale, Az 85254",https://www.seniorly.com/assisted-living/arizona/scottsdale/24-hr-home-llc,,
11025,Emerald Bay Senior Living,"4102 East Greenway Road, Phoenix, Az 85032",https://www.seniorly.com/assisted-living/arizona/phoenix/emerald-bay-senior-living,,
11026,Senior Paradise Living,"5045 East Paradise Lane, Scottsdale, Az 85254",https://www.seniorly.com/assisted-living/arizona/scottsdale/senior-paradise-living,,
11029,Tatum Quality Care Assisted Living,"4558 East Libby Street, Phoenix, Az 85032",https://www.seniorly.com/assisted-living/arizona/phoenix/tatum-quality-care-assisted-living-home,,
11034,Paradise Valley Assisted Living,"5108 East Wethersfield Road, Scottsdale, Az 85254",https://www.seniorly.com/assisted-living/arizona/scottsdale/paradise-valley-assisted-living,,
11036,Lianns Homes 5,"7021 North 79Th Place, Scottsdale, Az 85258",https://www.seniorly.com/assisted-living/arizona/scottsdale/liann-s-homes-5,,
11038,Country Manor Assisted Living Center,"2815 North 48Th Street, Phoenix, Az 85008",https://www.seniorly.com/assisted-living/arizona/phoenix/country-manor-assisted-living-center-llc,,
11047,Evergreen Assisted Living,"11635 North 56Th Street, Scottsdale, Az 85254",https://www.seniorly.com/assisted-living/arizona/scottsdale/evergreen-assisted-living,,
11048,Harts Home Exceptional Elder Care,"8438 East Welsh Trail, Scottsdale, Az 85258",https://www.seniorly.com/assisted-living/arizona/scottsdale/harts-home-exceptional-elder-care,,
11049,Summa Care Scottsdale,"7038 North Via De Vida, Scottsdale, Az 85258",https://www.seniorly.com/assisted-living/arizona/scottsdale/summa-care-scottsdale,,
11050,Lianns Homes 1,"8411 East Via De Jardin, Scottsdale, Az 85258",https://www.seniorly.com/assisted-living/arizona/scottsdale/liann-s-homes-1,,
11053,Villa On Sweetwater,"6739 East Sweetwater, Scottsdale, Az 85254",https://www.seniorly.com/assisted-living/arizona/scottsdale/villa-on-sweetwater,,
11057,K R Assisted Living,"519 East Mckellips Road, Tempe, Az 85281",https://www.seniorly.com/assisted-living/arizona/tempe/k-r-assisted-living-home,,
11064,Footsteps Assisted Living Care Home,"3135 East Larkspur Drive, Phoenix, Az 85032",https://www.seniorly.com/assisted-living/arizona/phoenix/footsteps-assisted-living-care-home,,
11065,Healing Gardens Assisted Living Care Home,"12034 North 29Th Street, Phoenix, Az 85028",https://www.seniorly.com/assisted-living/arizona/phoenix/healing-gardens-assisted-living-care-home-llc,,
11067,Katies Care Home,"5402 East Marilyn Road, Scottsdale, Az 85254",https://www.seniorly.com/assisted-living/arizona/scottsdale/katie-s-care-home,,
11068,Scottsdale Diamond Ii,"15014 North 54Th Place, Scottsdale, Az 85254",https://www.seniorly.com/assisted-living/arizona/scottsdale/scottsdale-diamond-ii,,
11069,Arizona Senior Living Home 1,"15207 North 55Th Way, Scottsdale, Az 85254",https://www.seniorly.com/assisted-living/arizona/scottsdale/arizona-senior-living-home-1,,
11070,Arizona Senior Living Home 2,"15213 North 55Th Way, Scottsdale, Az 85254",https://www.seniorly.com/assisted-living/arizona/scottsdale/arizona-senior-living-home-2,,
11071,Arizona Senior Living Home 3,"15219 North 55Th Way, Scottsdale, Az 85254",https://www.seniorly.com/assisted-living/arizona/scottsdale/arizona-senior-living-home-3,,
11072,Cactus Glen Care Home,"5647 East Waltann Lane, Scottsdale, Az 85254",https://www.seniorly.com/assisted-living/arizona/scottsdale/cactus-glen-care-home,,
11073,Sun View Estate Home Care Iv,"5301 East Tierra Buena Lane, Scottsdale, Az 85254",https://www.seniorly.com/assisted-living/arizona/scottsdale/sun-view-estate-home-care-iv,,
11074,Sunnyside Scottsdale,"5249 East Tierra Buena Lane, Scottsdale, Az 85254",https://www.seniorly.com/assisted-living/arizona/scottsdale/sunnyside-scottsdale-llc,,
11077,Jade Royale Care Home On Paradise Lane,"5837 East Paradise Lane, Scottsdale, Az 85254",https://www.seniorly.com/assisted-living/arizona/scottsdale/jade-royale-care-home-on-paradise-lane,,
11078,Grandview Assisted Living,"5938 East Grandview Road, Scottsdale, Az 85254",https://www.seniorly.com/assisted-living/arizona/scottsdale/grandview-assisted-living-llc,,
11079,Desert Paradise Assisted Living,"5705 East Aire Libre Avenue, Scottsdale, Az 85254",https://www.seniorly.com/assisted-living/arizona/scottsdale/desert-paradise-assisted-living,,
11081,Villa Bella Home,"5520 East Kelton Lane, Scottsdale, Az 85254",https://www.seniorly.com/assisted-living/arizona/scottsdale/villa-bella-home,,
11082,Ndg Adult Care Home,"1106 West 9Th Street, Tempe, Az 85281",https://www.seniorly.com/assisted-living/arizona/tempe/ndg-adult-care-home-llc,,
11083,Dbcare Assisted Living,"5206 East Nicholas Place, Scottsdale, Az 85254",https://www.seniorly.com/assisted-living/arizona/scottsdale/dbcare-assisted-living,,
11085,Sunnyside Assisted Living,"2615 East Vista Drive, Phoenix, Az 85032",https://www.seniorly.com/assisted-living/arizona/phoenix/sunnyside-assisted-living-home-llc,,
11089,Rehab Without Walls,"1912 East Marilyn Road, Phoenix, Az 85022",https://www.seniorly.com/assisted-living/arizona/phoenix/rehab-without-walls-inc,,
11094,Alpha Assisted Living,"18802 North 38Th Street, Phoenix, Az 85050",https://www.seniorly.com/assisted-living/arizona/phoenix/alpha-assisted-living,,
11095,Alexandria,"18610 North 30Th Place, Phoenix, Az 85050",https://www.seniorly.com/assisted-living/arizona/phoenix/alexandria,,
11096,Adams House Wickieup,"3449 East Wickieup Lane, Phoenix, Az 85050",https://www.seniorly.com/assisted-living/arizona/phoenix/adams-house-wickieup,,
11098,Houston Creek Assisted Living,"210 South Houston Creek Circle, Payson, Az 85541",https://www.seniorly.com/assisted-living/arizona/payson/houston-creek-assisted-living-llc,,
11100,Payson Care Center,"107 East Lone Pine Drive, Safford, Az 85541",https://www.seniorly.com/assisted-living/arizona/safford/payson-care-center,,
11101,Rim Country Health Retirement Community,"807 West Longhorn Road, Globe, Az 85541",https://www.seniorly.com/assisted-living/arizona/globe/rim-country-health-retirement-community,,
11102,Granite Gate Senior Living,"3850 North Us Highway 89, Prescott, Az 86301",https://www.seniorly.com/assisted-living/arizona/prescott/granite-gate-senior-living,,
11103,Las Fuentes Resort Village,"1035 Scott Drive, Prescott, Az 86301",https://www.seniorly.com/assisted-living/arizona/prescott/las-fuentes-resort-village,,
11107,Highgate At Prescott Lakes,"1600 Petroglyph Pointe Drive, Prescott, Az 86301",https://www.seniorly.com/assisted-living/arizona/prescott/highgate-at-prescott-lakes,,
11108,Pineview Adult Care Home,"1115 Dixon Drive, Prescott, Az 86303",https://www.seniorly.com/assisted-living/arizona/prescott/pineview-adult-care-home,,
11109,Rolling Hills Manor,"1949 Boardwalk Avenue, Prescott, Az 86301",https://www.seniorly.com/assisted-living/arizona/prescott/rolling-hills-manor,,
11111,Good Samaritan Society Prescott Village,"1030 Scott Drive, Prescott, Az 86301",https://www.seniorly.com/assisted-living/arizona/prescott/good-samaritan-society-prescott-village,,
11112,Prescott Nursing And Rehabilitation Center,"864 Dougherty Street, Prescott, Az 86305",https://www.seniorly.com/assisted-living/arizona/prescott/prescott-nursing-and-rehabilitation-center,,
11113,Mountain View Manor,"1045 Sandretto Drive, Prescott, Az 86305",https://www.seniorly.com/assisted-living/arizona/prescott/mountain-view-manor,,
11114,Beehive Life,"1113 East Gurley Street, Prescott, Az 86301",https://www.seniorly.com/assisted-living/arizona/prescott/beehive-life,,
11115,Rose Lane Adult Care Home,"3305 Rose Lane, Prescott, Az 86305",https://www.seniorly.com/assisted-living/arizona/prescott/rose-lane-adult-care-home,,
11117,Hidden Oasis,"6081 Dodge Circle, Prescott Valley, Az 86314",https://www.seniorly.com/assisted-living/arizona/prescott-valley/hidden-oasis-llc,,
11120,Haven Of Sedona,"505 Jacks Canyon Road, Sedona, Az 86351",https://www.seniorly.com/assisted-living/arizona/sedona/haven-of-sedona,,
11121,Gila River Indian Care Center,"Po Box 2187, Sacaton, Az 85247",https://www.seniorly.com/assisted-living/arizona/sacaton/gila-river-indian-care-center,,
11122,Life Care Center Of Sierra Vista,"2305 East Wilcox Drive, Sierra Vista, Az 85635",https://www.seniorly.com/assisted-living/arizona/sierra-vista/life-care-center-of-sierra-vista,,
11123,Hummingbird Senior Living,"2047 South Highway 92, Sierra Vista, Az 85635",https://www.seniorly.com/assisted-living/arizona/sierra-vista/hummingbird-senior-living,,
11125,Haven Of Sierra Vista,"660 South Coronado Drive, Sierra Vista, Az 85635",https://www.seniorly.com/assisted-living/arizona/sierra-vista/haven-of-sierra-vista,,
11126,Trudys Adult Care Home,"1410 Calle Amable, Sierra Vista, Az 85635",https://www.seniorly.com/assisted-living/arizona/sierra-vista/trudy-s-adult-care-home,,
11131,Catalina Village Assisted Living,"5324 East 1St Street, Tucson, Az 85711",https://www.seniorly.com/assisted-living/arizona/tucson/catalina-village-assisted-living,,
11133,Sabino Canyon Rehabilitation Care Center,"5830 East Pima Street, Tucson, Az 85712",https://www.seniorly.com/assisted-living/arizona/tucson/sabino-canyon-rehabilitation-care-center,,
11134,Sapphire Of Tucson Nursing And Rehab,"2900 East Milber Street, Tucson, Az 85714",https://www.seniorly.com/assisted-living/arizona/tucson/sapphire-of-tucson-nursing-and-rehab,,
11135,Villa Maria Care Center,"4310 East Grant Road, Tucson, Az 85712",https://www.seniorly.com/assisted-living/arizona/tucson/villa-maria-care-center-llc,,
11139,The Gardens At San Carlos,"4553 East San Carlos Place S, Tucson, Az 85712",https://www.seniorly.com/assisted-living/arizona/tucson/the-gardens-at-san-carlos,,
11140,Rainbow Adult Care Home,"2202 North Rainbow Vista Drive, Tucson, Az 85712",https://www.seniorly.com/assisted-living/arizona/tucson/rainbow-adult-care-home,,
11141,Waverly House Adult Care Home,"2330 East Waverly Street, Tucson, Az 85719",https://www.seniorly.com/assisted-living/arizona/tucson/waverly-house-adult-care-home,,
11146,San Paulo Village Assisted Living,"6012 East 25Th Street, Tucson, Az 85711",https://www.seniorly.com/assisted-living/arizona/tucson/san-paulo-village-assisted-living-home,,
11147,La Paz Assisted Living,"3925 East 1St Street, Tucson, Az 85711",https://www.seniorly.com/assisted-living/arizona/tucson/la-paz-assisted-living-tucson,,
11149,Pepper Tree Care Home,"4110 East Spring Street Unit 3, Tucson, Az 85712",https://www.seniorly.com/assisted-living/arizona/tucson/pepper-tree-care-home,,
11150,Dreamcatcher Senior Living,"330 South Calle De Madrid, Tucson, Az 85711",https://www.seniorly.com/assisted-living/arizona/tucson/dreamcatcher-senior-living,,
11151,Casa Tucson Senior Living,"4762 East Adams Street, Tucson, Az 85712",https://www.seniorly.com/assisted-living/arizona/tucson/casa-tucson-senior-living-llc,,
11152,Akres Del Cielo Assisted Living Facility,"5450 West Ajo Highway, Tucson, Az 85735",https://www.seniorly.com/assisted-living/arizona/tucson/akres-del-cielo-assisted-living-facility-llc,,
11153,De Valle Assisted Living,"5938 East 21St Street, Tucson, Az 85711",https://www.seniorly.com/assisted-living/arizona/tucson/de-valle-assisted-living,,
11155,El Rancho Encanto Assisted Living At The Fort,"5803 East Ft Lowell, Tucson, Az 85712",https://www.seniorly.com/assisted-living/arizona/tucson/el-rancho-encanto-assisted-living-at-the-fort,,
11156,Palo Verde House At Infinity Wilmot,"612 South Wilmot, Tucson, Az 85711",https://www.seniorly.com/assisted-living/arizona/tucson/palo-verde-house-at-infinity-wilmot,,
11157,Desert Steppes I,"617 South Desert Steppes Drive, Tucson, Az 85710",https://www.seniorly.com/assisted-living/arizona/tucson/desert-steppes-i,,
11160,House Of Prayer,"919 East 30Th Street, Tucson, Az 85713",https://www.seniorly.com/assisted-living/arizona/tucson/house-of-prayer-inc,,
11161,St Jacob Assisted Living,"2010 West Grant Road, Tucson, Az 85745",https://www.seniorly.com/assisted-living/arizona/tucson/st-jacob-assisted-living-llc,,
11162,Casa Theresita V,"1304 West Sonora, Tucson, Az 85745",https://www.seniorly.com/assisted-living/arizona/tucson/casa-theresita-v,,
11163,Desert Hearts Assisted Living,"4131 East 5Th Street, Tucson, Az 85711",https://www.seniorly.com/assisted-living/arizona/tucson/desert-hearts-assisted-living,,
11164,Everlasting Services At Tucson,"2116 West Ocelot Drive, Tucson, Az 85713",https://www.seniorly.com/assisted-living/arizona/tucson/everlasting-services-at-tucson,,
11166,A Desert Villita,"4232 East 5Th Street, Tucson, Az 85711",https://www.seniorly.com/assisted-living/arizona/tucson/a-desert-villita,,
11168,Lemon Tree Care Home,"4110 East Spring Street Unit 2, Tucson, Az 85712",https://www.seniorly.com/assisted-living/arizona/tucson/lemon-tree-care-home,,
11172,Hummingbird Assisted Living,"1828 West Sauvignon Drive, Tucson, Az 85746",https://www.seniorly.com/assisted-living/arizona/tucson/hummingbird-assisted-living-home,,
11175,Hummingbird Manor 1,"5602 East Holmes Street, Tucson, Az 85711",https://www.seniorly.com/assisted-living/arizona/tucson/hummingbird-manor-1,,
11177,Casita Consentida,"4725 West Calle Don Miguel, Tucson, Az 85757",https://www.seniorly.com/assisted-living/arizona/tucson/casita-consentida,,
11179,Arizona State Veteran Home Tucson,"555 East Ajo Way, Prescott, Az 85713",https://www.seniorly.com/assisted-living/arizona/prescott/arizona-state-veteran-home-tucson,,
11181,Sycamore House At Infinity Wilmot,"602 South Wilmot, Tucson, Az 85711",https://www.seniorly.com/assisted-living/arizona/tucson/sycamore-house-at-infinity-wilmot,,
11182,Saguaro House At Infinity Wilmot,"652 South Wilmot Street, Tucson, Az 85711",https://www.seniorly.com/assisted-living/arizona/tucson/saguaro-house-at-infinity-wilmot,,
11183,Green Gables Home Care,"6417 East Baylor Drive, Tucson, Az 85710",https://www.seniorly.com/assisted-living/arizona/tucson/green-gables-home-care,,
11185,Luz Del Milagro,"6534 East Broadway Boulevard, Tucson, Az 85710",https://www.seniorly.com/assisted-living/arizona/tucson/luz-del-milagro,,
11186,Santa Rosa Care Center,"1650 North Santa Rosa Avenue, Prescott, Az 85712",https://www.seniorly.com/assisted-living/arizona/prescott/santa-rosa-care-center,,
11187,Rancho Verde Care Home Los Reales,"7211 South Hildreth Avenue, Tucson, Az 85746",https://www.seniorly.com/assisted-living/arizona/tucson/rancho-verde-care-home-los-reales,,
11189,Aging Grace,"6701 East Opatas Street, Tucson, Az 85715",https://www.seniorly.com/assisted-living/arizona/tucson/aging-grace-llc,,
11190,Foothills Rehabilitation Center,"2250 North Craycroft Road, Yuma, Az 85712",https://www.seniorly.com/assisted-living/arizona/yuma/foothills-rehabilitation-center,,
11191,Comfortable Care Home,"7276 East Beverly Drive, Tucson, Az 85710",https://www.seniorly.com/assisted-living/arizona/tucson/comfortable-care-home,,
11192,Wellcare Assisted Living Facility,"7614 East Pima Street, Tucson, Az 85715",https://www.seniorly.com/assisted-living/arizona/tucson/wellcare-assisted-living-facility,,
11194,Amor De Madre Adult Care Home,"7515 South Gila Avenue, Tucson, Az 85746",https://www.seniorly.com/assisted-living/arizona/tucson/amor-de-madre-adult-care-home-llc,,
11195,Namaste Assisted Living,"7420 East Lakeside Drive, Tucson, Az 85730",https://www.seniorly.com/assisted-living/arizona/tucson/namaste-assisted-living-home,,
11196,Acl Adult Care Homes,"7622 East Calle Cabo, Tucson, Az 85750",https://www.seniorly.com/assisted-living/arizona/tucson/acl-adult-care-homes-llc,,
11197,Abella Manor Senior Care Tucson,"8162 East Slate Ridge Drive, Tucson, Az 85715",https://www.seniorly.com/assisted-living/arizona/tucson/abella-manor-senior-care-tucson,,
11199,Sunflower Gardens Senior Care,"8261 East Kenyon Drive, Tucson, Az 85710",https://www.seniorly.com/assisted-living/arizona/tucson/sunflower-gardens-senior-care,,
11201,Sapphire Estates Rehab Centre,"2040 North Wilmot Road, Coolidge, Az 85712",https://www.seniorly.com/assisted-living/arizona/coolidge/sapphire-estates-rehab-centre,,
11202,Angels Above Adult Care Home,"1961 North Sarnoff Drive, Tucson, Az 85715",https://www.seniorly.com/assisted-living/arizona/tucson/angels-above-adult-care-home,,
11203,Kenyon Care Adult Living,"8509 East Kenyon Drive, Tucson, Az 85710",https://www.seniorly.com/assisted-living/arizona/tucson/kenyon-care-adult-living-llc,,
11204,Saguaro Horizons Adult Care,"6330 South Kolb Road, Tucson, Az 85756",https://www.seniorly.com/assisted-living/arizona/tucson/saguaro-horizons-adult-care,,
11205,Casa De Dios,"8732 East Appomattox Street, Tucson, Az 85710",https://www.seniorly.com/assisted-living/arizona/tucson/casa-de-dios-inc,,
11206,Home Away From Home,"8742 East Appomattox, Tucson, Az 85710",https://www.seniorly.com/assisted-living/arizona/tucson/home-away-from-home-tucson,,
11207,Royal Oak Ii,"25786 North Desert Mesa Drive, Surprise, Az 85387",https://www.seniorly.com/assisted-living/arizona/surprise/royal-oak-ii,,
11209,The Mitchell House,"15328 West Peak View Road Unit B, Surprise, Az 85387",https://www.seniorly.com/assisted-living/arizona/surprise/the-mitchell-house,,
11210,Golden Joy Senior Care,"17898 North Bell Pointe Boulevard, Surprise, Az 85374",https://www.seniorly.com/assisted-living/arizona/surprise/golden-joy-senior-care,,
11211,Yuma Assisted Living,"2600 South 4Th Avenue, Yuma, Az 85364",https://www.seniorly.com/assisted-living/arizona/yuma/yuma-assisted-living,,
11212,Haven Of Yuma,"2470 South Arizona Avenue, Yuma, Az 85364",https://www.seniorly.com/assisted-living/arizona/yuma/haven-of-yuma,,
11214,Life Care Center Of Yuma,"2450 South 19Th Avenue, Yuma, Az 85364",https://www.seniorly.com/assisted-living/arizona/yuma/life-care-center-of-yuma,,
11215,Palm View Rehabilitation Care,"2222 South Avenue A, Yuma, Az 85364",https://www.seniorly.com/assisted-living/arizona/yuma/palm-view-rehabilitation-care,,
11216,Sunny Days,"2934 West 30Th Place, Yuma, Az 85364",https://www.seniorly.com/assisted-living/arizona/yuma/sunny-days,,
11217,Paradise Cove,"1526 South 8Th Avenue, Yuma, Az 85364",https://www.seniorly.com/assisted-living/arizona/yuma/paradise-cove,,
11218,River Valley Estates,"7052 East 31St Place, Yuma, Az 85365",https://www.seniorly.com/assisted-living/arizona/yuma/river-valley-estates,,
